{"type": "FeatureCollection", "features": [{"type": "Feature", "geometry": {"type": "LineString", "coordinates": [[10.1919222, 59.742042], [10.1914662, 59.7420422], [10.1912074, 59.7420393], [10.1909968, 59.7420335], [10.1907514, 59.742021], [10.1903102, 59.7419967], [10.1900165, 59.7419812], [10.1897684, 59.741971], [10.1895853, 59.7419683], [10.1894251, 59.7419687], [10.1892319, 59.7419734], [10.189071, 59.7419795], [10.1889067, 59.741991], [10.1886827, 59.7420112], [10.18843, 59.7420339]]}, "properties": {"electrified": "contact_line", "frequency": "16.67", "gauge": "1435", "maxspeed": "40", "operator": "Bane NOR", "railway": "rail", "ref": "14", "service": "siding", "voltage": "15000", "length_km": 0.197, "maxspeed_kmh": 40.0}}]}