{"type": "FeatureCollection", "features": [{"type": "Feature", "geometry": {"type": "LineString", "coordinates": [[12.7257139, 64.6983635], [12.7254717, 64.6983125], [12.7252307, 64.6982582], [12.7247384, 64.6981361], [12.7244492, 64.6980639], [12.7241296, 64.6979935], [12.7144709, 64.6961193], [12.7138333, 64.6959928]]}, "properties": {"electrified": "no", "gauge": "1435", "operator": "Bane NOR", "railway": "rail", "ref": "3", "service": "spur", "length_km": 0.625}}, {"type": "Feature", "geometry": {"type": "LineString", "coordinates": [[13.1489706, 64.9260542], [13.1493435, 64.9260299], [13.1496221, 64.9260163], [13.1500263, 64.9260025], [13.1502007, 64.9259948], [13.1503724, 64.9259828], [13.1527771, 64.9257888], [13.1530435, 64.9257666]]}, "properties": {"electrified": "no", "gauge": "1435", "operator": "Bane NOR", "railway": "rail", "ref": "3", "service": "spur", "length_km": 0.195}}, {"type": "Feature", "geometry": {"type": "LineString", "coordinates": [[5.4704494, 60.4466544], [5.4703394, 60.4469133], [5.4702354, 60.4471149], [5.4701568, 60.4472317], [5.4700214, 60.4473825], [5.4698139, 60.4475835], [5.4695639, 60.4477755]]}, "properties": {"electrified": "no", "gauge": "1435", "railway": "rail", "ref": "3", "service": "yard", "length_km": 0.136}}]}