{"type": "FeatureCollection", "features": [{"type": "Feature", "geometry": {"type": "LineString", "coordinates": [[5.4677025, 60.4485356], [5.4680318, 60.4484428], [5.4682886, 60.4483687], [5.468439, 60.4483174], [5.4685929, 60.4482591], [5.4687586, 60.4481913], [5.4689658, 60.4481006], [5.4693779, 60.4479303]]}, "properties": {"gauge": "1435", "railway": "rail", "ref": "4", "service": "yard", "length_km": 0.115}}, {"type": "Feature", "geometry": {"type": "LineString", "coordinates": [[5.470547, 60.4457104], [5.4705195, 60.4458404], [5.4704893, 60.4459449], [5.4704332, 60.4460692], [5.4704015, 60.4461209], [5.4703438, 60.4462089], [5.4703029, 60.4462687], [5.4701814, 60.4464293], [5.470135, 60.4465015]]}, "properties": {"electrified": "no", "gauge": "1435", "railway": "rail", "ref": "4", "service": "yard", "length_km": 0.092}}, {"type": "Feature", "geometry": {"type": "LineString", "coordinates": [[5.4695931, 60.4478418], [5.4696539, 60.4478156], [5.4699664, 60.4476898]]}, "properties": {"electrified": "no", "gauge": "1435", "railway": "rail", "ref": "4", "service": "yard", "length_km": 0.027}}]}