{"type": "FeatureCollection", "features": [{"type": "Feature", "geometry": {"type": "LineString", "coordinates": [[6.6613233, 58.4165251], [6.6613043, 58.4166005], [6.6612929, 58.4166495], [6.6612721, 58.4167609], [6.6612379, 58.4169415], [6.6612017, 58.4171572], [6.6611709, 58.4173099], [6.661144, 58.4173995], [6.6611166, 58.4174834], [6.6610478, 58.4176596], [6.66068, 58.4185875], [6.6601211, 58.4200066]]}, "properties": {"electrified": "no", "gauge": "1435", "railway": "rail", "ref": "5", "service": "siding", "length_km": 0.395}}, {"type": "Feature", "geometry": {"type": "LineString", "coordinates": [[11.0927634, 60.1799296], [11.0927478, 60.1800025], [11.092729, 60.1800763], [11.0927032, 60.1801549], [11.0926713, 60.1802431], [11.0926378, 60.180328], [11.0926084, 60.1804123], [11.092585, 60.1804975], [11.0925667, 60.1805838], [11.0925525, 60.180669], [11.0924079, 60.1815305], [11.0923543, 60.1818854], [11.0923439, 60.1819998], [11.0923343, 60.1821176], [11.0923273, 60.1822354], [11.0923227, 60.1823534], [11.0923206, 60.1824709], [11.0923233, 60.1826922], [11.092333, 60.1829149], [11.0923704, 60.1832662], [11.0923814, 60.1833458], [11.092397, 60.1834255], [11.0924171, 60.1835051], [11.0924419, 60.1835848], [11.0925214, 60.1837976], [11.0925394, 60.1838626], [11.0925495, 60.1839035], [11.092558, 60.1839446]]}, "properties": {"electrified": "contact_line", "frequency": "16.67", "maxspeed": "40", "railway": "rail", "ref": "5", "service": "yard", "voltage": "15000", "length_km": 0.45, "maxspeed_kmh": 40.0}}]}