{"type": "FeatureCollection", "features": [{"type": "Feature", "geometry": {"type": "LineString", "coordinates": [[11.0927634, 60.1799296], [11.0926375, 60.1806724], [11.0924927, 60.1815345], [11.0924602, 60.1817412], [11.0924415, 60.1818881], [11.0924288, 60.1820025], [11.0924193, 60.1821192], [11.0924134, 60.1822371], [11.0924076, 60.182355], [11.0924055, 60.1824699], [11.0924088, 60.1826921], [11.0924204, 60.1829136], [11.0924576, 60.1832632], [11.0925127, 60.1836466], [11.092558, 60.1839446]]}, "properties": {"electrified": "contact_line", "frequency": "16.67", "maxspeed": "80", "railway": "rail", "ref": "6", "service": "yard", "voltage": "15000", "length_km": 0.448, "maxspeed_kmh": 80.0}}, {"type": "Feature", "geometry": {"type": "LineString", "coordinates": [[5.4698833, 60.4470469], [5.4696148, 60.4474051], [5.4695594, 60.4474817], [5.469494, 60.4475565], [5.4694461, 60.447607], [5.4693671, 60.4476799], [5.4692583, 60.4477718], [5.4691374, 60.4478619], [5.4690053, 60.447949]]}, "properties": {"electrified": "no", "gauge": "1435", "railway": "rail", "ref": "6", "service": "yard", "length_km": 0.112}}]}