{"type": "FeatureCollection", "features": [{"type": "Feature", "geometry": {"type": "LineString", "coordinates": [[5.7485271, 58.9472091], [5.7488354, 58.9470854], [5.7491695, 58.9469714], [5.74958, 58.946809], [5.7501575, 58.9465403]]}, "properties": {"railway": "rail", "ref": "610", "service": "spur", "length_km": 0.12}}, {"type": "Feature", "geometry": {"type": "LineString", "coordinates": [[5.7501575, 58.9465403], [5.751733, 58.9457988]]}, "properties": {"railway": "rail", "ref": "610", "service": "spur", "length_km": 0.123}}]}