{"type": "FeatureCollection", "features": [{"type": "Feature", "geometry": {"type": "LineString", "coordinates": [[5.7502927, 58.9466146], [5.7499946, 58.9467541], [5.7496449, 58.9468774], [5.7486418, 58.9472194], [5.7479793, 58.9474643]]}, "properties": {"railway": "rail", "ref": "611", "service": "spur", "length_km": 0.164}}, {"type": "Feature", "geometry": {"type": "LineString", "coordinates": [[5.7502927, 58.9466146], [5.7518578, 58.9458874]]}, "properties": {"railway": "rail", "ref": "611", "service": "spur", "length_km": 0.122}}]}