{"type": "FeatureCollection", "features": [{"type": "Feature", "geometry": {"type": "LineString", "coordinates": [[5.7497321, 58.9469393], [5.7500701, 58.9468116], [5.7504389, 58.9466567], [5.7516231, 58.9461088]]}, "properties": {"railway": "rail", "ref": "612", "service": "spur", "length_km": 0.143}}, {"type": "Feature", "geometry": {"type": "LineString", "coordinates": [[5.7486418, 58.9472194], [5.7493667, 58.9470399], [5.7497321, 58.9469393]]}, "properties": {"railway": "rail", "ref": "612", "service": "spur", "length_km": 0.07}}]}