{"type": "FeatureCollection", "features": [{"type": "Feature", "geometry": {"type": "LineString", "coordinates": [[11.0925127, 60.1836466], [11.092506, 60.1835809], [11.092503, 60.1835158], [11.0925007, 60.1834045], [11.0925116, 60.1832618], [11.0925185, 60.1831679], [11.0925214, 60.1830724], [11.0925158, 60.1829938], [11.0925085, 60.1829127], [11.092496, 60.1826924], [11.0924933, 60.1824707], [11.0924953, 60.1823552], [11.0924998, 60.1822385], [11.0925067, 60.1821213], [11.0925161, 60.182004], [11.0925285, 60.1818912], [11.092578, 60.1815384], [11.0927241, 60.1806754], [11.0927826, 60.1803344], [11.0927973, 60.1802492], [11.0928071, 60.1801646], [11.0928132, 60.18008], [11.0928144, 60.1799948], [11.0928112, 60.1799062], [11.0928056, 60.1798386], [11.0928056, 60.1797696], [11.0928095, 60.1797024], [11.0928159, 60.1796318]]}, "properties": {"electrified": "contact_line", "frequency": "16.67", "maxspeed": "40", "railway": "rail", "ref": "7", "service": "yard", "voltage": "15000", "length_km": 0.448, "maxspeed_kmh": 40.0}}, {"type": "Feature", "geometry": {"type": "LineString", "coordinates": [[10.2876632, 63.0579066], [10.2877082, 63.057604], [10.2876929, 63.0572706], [10.2875981, 63.0569402], [10.287437, 63.0564762], [10.2865265, 63.053854], [10.2863735, 63.0534631], [10.2861772, 63.053077], [10.2860582, 63.0528547]]}, "properties": {"electrified": "contact_line", "gauge": "1435", "maxspeed": "40", "railway": "rail", "ref": "7", "service": "yard", "length_km": 0.57, "maxspeed_kmh": 40.0}}]}