{"type": "FeatureCollection", "features": [{"type": "Feature", "geometry": {"type": "LineString", "coordinates": [[10.0544271, 59.0484696], [10.0545899, 59.0484958], [10.0547566, 59.048518], [10.0548962, 59.0485311], [10.055052, 59.0485401], [10.0552744, 59.0485502], [10.0556844, 59.0485619], [10.055905, 59.048568], [10.0560307, 59.0485697], [10.0561765, 59.0485694]]}, "properties": {"gauge": "1435", "maxspeed": "40", "name": "Alfred Andersen sidespor", "railway": "rail", "usage": "industrial", "length_km": 0.102, "maxspeed_kmh": 40.0}}]}