{"type": "FeatureCollection", "features": [{"type": "Feature", "geometry": {"type": "LineString", "coordinates": [[5.8406609, 58.7728303], [5.8408331, 58.7726868], [5.8410377, 58.7725356], [5.8413075, 58.7723504], [5.842152, 58.7718168], [5.8430368, 58.7712577], [5.8435648, 58.7709249]]}, "properties": {"electrified": "no", "name": "\u00c5lg\u00e5rdbanen", "railway": "preserved", "length_km": 0.272}}, {"type": "Feature", "geometry": {"type": "LineString", "coordinates": [[5.8339768, 58.7780107], [5.8341439, 58.7779823], [5.8343078, 58.7779516], [5.8345798, 58.777893], [5.8348656, 58.7778245], [5.8351957, 58.7777302], [5.8354326, 58.777653], [5.8356475, 58.7775772], [5.8359776, 58.7774455], [5.8361197, 58.7773831], [5.8363087, 58.7772917], [5.8364844, 58.7772018], [5.836642, 58.7771148], [5.8369501, 58.7769222], [5.8370936, 58.7768243], [5.8374381, 58.776563], [5.8378686, 58.7762076], [5.8381501, 58.7759572], [5.8383896, 58.7757235], [5.8384948, 58.7756142], [5.8386716, 58.7754243], [5.8388246, 58.7752488], [5.8390686, 58.7749387], [5.8391706, 58.7747982], [5.8393756, 58.7744857], [5.8398504, 58.7737244], [5.8400723, 58.7734211], [5.8402367, 58.7732306], [5.8404632, 58.7730047], [5.8406609, 58.7728303]]}, "properties": {"electrified": "no", "name": "\u00c5lg\u00e5rdbanen", "railway": "preserved", "length_km": 0.722}}, {"type": "Feature", "geometry": {"type": "LineString", "coordinates": [[5.8122521, 58.7851039], [5.8131631, 58.7849434], [5.8135602, 58.7848682], [5.8139144, 58.7847863], [5.8142879, 58.7846855], [5.8146693, 58.7845543], [5.815206, 58.7843425], [5.8160405, 58.7839946], [5.8168264, 58.7836669], [5.8170745, 58.7835716], [5.817403, 58.7834501], [5.8176988, 58.7833546], [5.8178626, 58.7833058], [5.8181682, 58.7832271], [5.8181969, 58.7832205], [5.8184252, 58.783168], [5.8188238, 58.7830849]]}, "properties": {"electrified": "no", "name": "\u00c5lg\u00e5rdbanen", "railway": "preserved", "length_km": 0.447}}, {"type": "Feature", "geometry": {"type": "LineString", "coordinates": [[5.8079312, 58.7858652], [5.8082359, 58.7858114], [5.808257, 58.7858077], [5.8083895, 58.7857845], [5.8110404, 58.7853172], [5.8110603, 58.7853137], [5.8122521, 58.7851039]]}, "properties": {"electrified": "no", "name": "\u00c5lg\u00e5rdbanen", "railway": "preserved", "length_km": 0.265}}, {"type": "Feature", "geometry": {"type": "LineString", "coordinates": [[5.8249005, 58.7811524], [5.8253526, 58.7808927], [5.8255517, 58.7807784]]}, "properties": {"bridge": "yes", "electrified": "no", "name": "\u00c5lg\u00e5rdbanen", "railway": "preserved", "length_km": 0.056}}, {"type": "Feature", "geometry": {"type": "LineString", "coordinates": [[5.8188238, 58.7830849], [5.8192595, 58.7830129], [5.8206556, 58.7828153], [5.8210346, 58.782749], [5.8213277, 58.7826887], [5.8216236, 58.7826193], [5.8218694, 58.7825563], [5.8221199, 58.7824839], [5.8225569, 58.7823446], [5.8228112, 58.7822502], [5.8231317, 58.7821146], [5.8234259, 58.7819779], [5.8237155, 58.7818245], [5.8240862, 58.7816166], [5.8247996, 58.781206], [5.8249005, 58.7811524]]}, "properties": {"electrified": "no", "name": "\u00c5lg\u00e5rdbanen", "railway": "preserved", "length_km": 0.424}}, {"type": "Feature", "geometry": {"type": "LineString", "coordinates": [[5.8336761, 58.7780607], [5.8337773, 58.7780431], [5.8339138, 58.7780203], [5.8339768, 58.7780107]]}, "properties": {"electrified": "no", "name": "\u00c5lg\u00e5rdbanen", "railway": "preserved", "length_km": 0.018}}, {"type": "Feature", "geometry": {"type": "LineString", "coordinates": [[5.8255517, 58.7807784], [5.8264817, 58.7802472], [5.8274521, 58.779701], [5.8277738, 58.7795353], [5.8280953, 58.7793857], [5.8284706, 58.7792264], [5.8288733, 58.779069], [5.8293471, 58.7789069], [5.8296005, 58.778827], [5.8299133, 58.7787354], [5.8302078, 58.7786562], [5.8306107, 58.7785557], [5.8311462, 58.7784391], [5.8317613, 58.7783295], [5.8319952, 58.7782929], [5.8336761, 58.7780607]]}, "properties": {"electrified": "no", "name": "\u00c5lg\u00e5rdbanen", "railway": "preserved", "length_km": 0.575}}]}