{"type": "FeatureCollection", "features": [{"type": "Feature", "geometry": {"type": "LineString", "coordinates": [[10.8023678, 59.9277487], [10.8048696, 59.9274372], [10.8069746, 59.9271763]]}, "properties": {"electrified": "contact_line", "frequency": "16.67", "gauge": "1435", "name": "Alnabanen", "operator": "Bane NOR", "passenger_lines": "1", "railway": "rail", "usage": "branch", "voltage": "15000", "length_km": 0.265}}, {"type": "Feature", "geometry": {"type": "LineString", "coordinates": [[10.8018973, 59.927808], [10.8023678, 59.9277487]]}, "properties": {"bridge": "yes", "electrified": "contact_line", "frequency": "16.67", "gauge": "1435", "name": "Alnabanen", "operator": "Bane NOR", "passenger_lines": "1", "railway": "rail", "usage": "branch", "voltage": "15000", "length_km": 0.027}}, {"type": "Feature", "geometry": {"type": "LineString", "coordinates": [[10.8015237, 59.9278538], [10.8018973, 59.927808]]}, "properties": {"electrified": "contact_line", "frequency": "16.67", "gauge": "1435", "name": "Alnabanen", "operator": "Bane NOR", "passenger_lines": "1", "railway": "rail", "usage": "branch", "voltage": "15000", "length_km": 0.022}}, {"type": "Feature", "geometry": {"type": "LineString", "coordinates": [[10.8004047, 59.9279914], [10.8015237, 59.9278538]]}, "properties": {"bridge": "yes", "electrified": "contact_line", "frequency": "16.67", "gauge": "1435", "name": "Alnabanen", "operator": "Bane NOR", "passenger_lines": "1", "railway": "rail", "usage": "branch", "voltage": "15000", "length_km": 0.064}}, {"type": "Feature", "geometry": {"type": "LineString", "coordinates": [[10.8332906, 59.9260952], [10.8334092, 59.9261792], [10.8335104, 59.9262562], [10.8335903, 59.9263299], [10.8337288, 59.9264574], [10.8338372, 59.9265689], [10.8339798, 59.9267174], [10.8340795, 59.9268432], [10.8340974, 59.9268682]]}, "properties": {"electrified": "contact_line", "frequency": "16.67", "gauge": "1435", "name": "Alnabanen", "operator": "Bane NOR", "passenger_lines": "1", "railway": "rail", "usage": "branch", "voltage": "15000", "length_km": 0.098}}, {"type": "Feature", "geometry": {"type": "LineString", "coordinates": [[10.7823067, 59.9368283], [10.7822553, 59.936974], [10.7822346, 59.9370444], [10.7822232, 59.9371032], [10.7822061, 59.9371831], [10.7821922, 59.9372442], [10.7821682, 59.9373249], [10.7821291, 59.9374393]]}, "properties": {"electrified": "contact_line", "frequency": "16.67", "gauge": "1435", "maxspeed": "40", "name": "Alnabanen", "railway": "rail", "voltage": "15000", "length_km": 0.069, "maxspeed_kmh": 40.0}}, {"type": "Feature", "geometry": {"type": "LineString", "coordinates": [[10.8325225, 59.9257496], [10.8326349, 59.9257883], [10.832775, 59.9258369], [10.8328962, 59.925887], [10.8330419, 59.9259571], [10.8331745, 59.9260274], [10.8332906, 59.9260952]]}, "properties": {"bridge": "yes", "electrified": "contact_line", "frequency": "16.67", "gauge": "1435", "name": "Alnabanen", "operator": "Bane NOR", "passenger_lines": "1", "railway": "rail", "usage": "branch", "voltage": "15000", "length_km": 0.058}}, {"type": "Feature", "geometry": {"type": "LineString", "coordinates": [[10.8071884, 59.9271485], [10.8093121, 59.9268857]]}, "properties": {"electrified": "contact_line", "frequency": "16.67", "gauge": "1435", "name": "Alnabanen", "operator": "Bane NOR", "passenger_lines": "1", "railway": "rail", "usage": "branch", "voltage": "15000", "length_km": 0.122}}, {"type": "Feature", "geometry": {"type": "LineString", "coordinates": [[10.7833489, 59.9331029], [10.7834285, 59.9330029], [10.7835689, 59.9328498], [10.7836931, 59.9327322], [10.7838245, 59.9326251], [10.7839679, 59.9325219], [10.7841114, 59.9324218], [10.7842195, 59.9323546], [10.7843849, 59.9322564]]}, "properties": {"electrified": "contact_line", "frequency": "16.67", "gauge": "1435", "name": "Alnabanen", "operator": "Bane NOR", "passenger_lines": "1", "railway": "rail", "usage": "branch", "voltage": "15000", "length_km": 0.111}}, {"type": "Feature", "geometry": {"type": "LineString", "coordinates": [[10.7847425, 59.932047], [10.785404, 59.9316649]]}, "properties": {"electrified": "contact_line", "frequency": "16.67", "gauge": "1435", "name": "Alnabanen", "operator": "Bane NOR", "passenger_lines": "1", "railway": "rail", "usage": "branch", "voltage": "15000", "length_km": 0.056}}, {"type": "Feature", "geometry": {"type": "LineString", "coordinates": [[10.7843849, 59.9322564], [10.7847425, 59.932047]]}, "properties": {"bridge": "yes", "electrified": "contact_line", "frequency": "16.67", "gauge": "1435", "name": "Alnabanen", "operator": "Bane NOR", "passenger_lines": "1", "railway": "rail", "usage": "branch", "voltage": "15000", "length_km": 0.031}}, {"type": "Feature", "geometry": {"type": "LineString", "coordinates": [[10.7832768, 59.9332116], [10.7833489, 59.9331029]]}, "properties": {"bridge": "yes", "electrified": "contact_line", "frequency": "16.67", "gauge": "1435", "name": "Alnabanen", "operator": "Bane NOR", "passenger_lines": "1", "railway": "rail", "usage": "branch", "voltage": "15000", "length_km": 0.013}}, {"type": "Feature", "geometry": {"type": "LineString", "coordinates": [[10.7856609, 59.9315129], [10.7859775, 59.9313224], [10.7864414, 59.9310498], [10.7869369, 59.9307659], [10.7873881, 59.9305087], [10.7876956, 59.9303464], [10.7880696, 59.9301679], [10.7884706, 59.9299894], [10.7888675, 59.9298285], [10.789255, 59.92969], [10.7896479, 59.929563], [10.7900788, 59.9294408], [10.7906275, 59.9293091], [10.7912093, 59.9291911], [10.7916639, 59.9291069], [10.7918953, 59.9290691], [10.7921444, 59.9290294], [10.7923638, 59.928998], [10.7926835, 59.9289556], [10.793098, 59.928905], [10.7947331, 59.9287007], [10.7972683, 59.9283848], [10.8004047, 59.9279914]]}, "properties": {"electrified": "contact_line", "frequency": "16.67", "gauge": "1435", "name": "Alnabanen", "operator": "Bane NOR", "passenger_lines": "1", "railway": "rail", "usage": "branch", "voltage": "15000", "length_km": 0.941}}, {"type": "Feature", "geometry": {"type": "LineString", "coordinates": [[10.785404, 59.9316649], [10.7856609, 59.9315129]]}, "properties": {"bridge": "yes", "electrified": "contact_line", "frequency": "16.67", "gauge": "1435", "name": "Alnabanen", "operator": "Bane NOR", "passenger_lines": "1", "railway": "rail", "usage": "branch", "voltage": "15000", "length_km": 0.022}}, {"type": "Feature", "geometry": {"type": "LineString", "coordinates": [[10.8099787, 59.9268019], [10.8123914, 59.9265012], [10.8139275, 59.9263108], [10.817021, 59.9259243], [10.8196341, 59.925599], [10.820009, 59.9255533], [10.8203297, 59.9255156], [10.8207848, 59.9254647], [10.8211161, 59.9254297], [10.8214952, 59.925394], [10.8219337, 59.925354], [10.8223749, 59.9253214], [10.8227142, 59.925298], [10.8231456, 59.9252692], [10.823539, 59.9252486], [10.8240041, 59.9252274], [10.8244268, 59.9252116], [10.8249352, 59.9251975], [10.8253807, 59.9251899], [10.8258576, 59.9251856], [10.826275, 59.9251861], [10.8269329, 59.9251937], [10.8274647, 59.9252051], [10.8278691, 59.925217], [10.8283731, 59.9252386], [10.828861, 59.9252615], [10.8291808, 59.92528], [10.8295896, 59.9253072], [10.8300425, 59.9253385], [10.8304486, 59.9253727], [10.8306974, 59.9253984], [10.8309391, 59.9254286], [10.8311889, 59.9254628], [10.8314396, 59.9255038], [10.8317037, 59.9255524], [10.8319652, 59.9256064], [10.8322036, 59.9256619], [10.8323722, 59.9257055], [10.8325225, 59.9257496]]}, "properties": {"electrified": "contact_line", "frequency": "16.67", "gauge": "1435", "name": "Alnabanen", "operator": "Bane NOR", "passenger_lines": "1", "railway": "rail", "usage": "branch", "voltage": "15000", "length_km": 1.291}}, {"type": "Feature", "geometry": {"type": "LineString", "coordinates": [[10.8093121, 59.9268857], [10.8099787, 59.9268019]]}, "properties": {"bridge": "yes", "electrified": "contact_line", "frequency": "16.67", "gauge": "1435", "name": "Alnabanen", "operator": "Bane NOR", "passenger_lines": "1", "railway": "rail", "usage": "branch", "voltage": "15000", "length_km": 0.038}}, {"type": "Feature", "geometry": {"type": "LineString", "coordinates": [[10.7813965, 59.9388669], [10.7816613, 59.9382768], [10.7817332, 59.9381139], [10.7819457, 59.9376347], [10.7820377, 59.9374305], [10.7823067, 59.9368283], [10.7825749, 59.9362351], [10.7826735, 59.9360048], [10.7827323, 59.9358596], [10.7827867, 59.9356998], [10.7828486, 59.9354765], [10.7828883, 59.9352819], [10.7829258, 59.935068], [10.7829518, 59.934848], [10.7829636, 59.9346671], [10.7829703, 59.9344806], [10.7829668, 59.9341767], [10.782977, 59.9340137], [10.782992, 59.9338972], [10.7830246, 59.933756], [10.7830769, 59.9335957], [10.7831229, 59.9334886], [10.7831444, 59.9334386], [10.7831989, 59.9333377], [10.7832768, 59.9332116]]}, "properties": {"electrified": "contact_line", "frequency": "16.67", "gauge": "1435", "name": "Alnabanen", "operator": "Bane NOR", "passenger_lines": "1", "railway": "rail", "usage": "branch", "voltage": "15000", "length_km": 0.641}}]}