{"type": "FeatureCollection", "features": [{"type": "Feature", "geometry": {"type": "LineString", "coordinates": [[8.7702814, 58.4647236], [8.7708516, 58.4644357], [8.7716998, 58.4640171]]}, "properties": {"electrified": "contact_line", "frequency": "16.67", "gauge": "1435", "maxspeed": "40", "name": "Arendalsbanen", "railway": "rail", "usage": "branch", "voltage": "15000", "length_km": 0.114, "maxspeed_kmh": 40.0}}, {"type": "Feature", "geometry": {"type": "LineString", "coordinates": [[8.6355544, 58.6546801], [8.6356477, 58.6546195], [8.6357747, 58.6545425], [8.6360281, 58.6544033], [8.6361616, 58.6543381], [8.6363901, 58.6542369], [8.636576, 58.654164], [8.6367597, 58.6540984], [8.6369677, 58.6540312], [8.6373218, 58.653936], [8.6375524, 58.653883], [8.6377888, 58.6538378], [8.6379903, 58.6538053], [8.6382172, 58.6537751], [8.6384402, 58.6537521], [8.6386327, 58.6537368], [8.6388507, 58.6537258], [8.6391309, 58.6537201], [8.6393632, 58.6537216], [8.6395526, 58.6537277], [8.6397732, 58.6537407], [8.6399646, 58.6537569], [8.640192, 58.6537807], [8.6406796, 58.6538436], [8.6418725, 58.6540148], [8.6435979, 58.6542804], [8.6441702, 58.6543712], [8.6452272, 58.6545468], [8.6459639, 58.654673], [8.6468493, 58.65483], [8.6476042, 58.6549682], [8.6485774, 58.6551522], [8.6488755, 58.6552032], [8.6492655, 58.6552586], [8.6495015, 58.6552853], [8.6497593, 58.6553093], [8.6501959, 58.6553357], [8.6503466, 58.6553413], [8.6507195, 58.6553458], [8.6511427, 58.6553352], [8.6514305, 58.6553201], [8.6517066, 58.6552982], [8.6520931, 58.6552563], [8.6523772, 58.6552154], [8.6526302, 58.6551732], [8.6528927, 58.6551229], [8.6530266, 58.6550934], [8.6532639, 58.6550365], [8.65358, 58.6549514], [8.6538287, 58.6548747], [8.65403, 58.6548073], [8.6543341, 58.6546932], [8.6545333, 58.6546105], [8.6548186, 58.6544763], [8.6550888, 58.6543305]]}, "properties": {"electrified": "contact_line", "frequency": "16.67", "gauge": "1435", "maxspeed": "70", "name": "Arendalsbanen", "passenger_lines": "1", "railway": "rail", "usage": "branch", "voltage": "15000", "length_km": 1.228, "maxspeed_kmh": 70.0}}, {"type": "Feature", "geometry": {"type": "LineString", "coordinates": [[8.7104008, 58.5980054], [8.7104626, 58.5976396], [8.7105, 58.5974618], [8.7105499, 58.597299]]}, "properties": {"bridge": "yes", "electrified": "contact_line", "frequency": "16.67", "gauge": "1435", "maxspeed": "70", "name": "Arendalsbanen", "passenger_lines": "1", "railway": "rail", "usage": "branch", "voltage": "15000", "length_km": 0.079, "maxspeed_kmh": 70.0}}, {"type": "Feature", "geometry": {"type": "LineString", "coordinates": [[8.6501755, 58.5257516], [8.6501605, 58.524648]]}, "properties": {"bridge": "yes", "electrified": "contact_line", "frequency": "16.67", "gauge": "1435", "maxspeed": "50", "name": "Arendalsbanen", "passenger_lines": "1", "railway": "rail", "usage": "branch", "voltage": "15000", "length_km": 0.123, "maxspeed_kmh": 50.0}}, {"type": "Feature", "geometry": {"type": "LineString", "coordinates": [[8.6424694, 58.5164764], [8.6425248, 58.5163589], [8.6426134, 58.5162143], [8.642701, 58.5160948]]}, "properties": {"electrified": "contact_line", "frequency": "16.67", "gauge": "1435", "maxspeed": "75", "name": "Arendalsbanen", "passenger_lines": "1", "railway": "rail", "tunnel": "yes", "usage": "branch", "voltage": "15000", "length_km": 0.045, "maxspeed_kmh": 75.0}}, {"type": "Feature", "geometry": {"type": "LineString", "coordinates": [[8.6448017, 58.5034967], [8.6446528, 58.5033356], [8.6443922, 58.503026], [8.6431937, 58.5014811], [8.6430568, 58.5013266], [8.6429233, 58.5011882], [8.6427839, 58.5010588], [8.6426608, 58.5009508], [8.6424831, 58.500812], [8.6423228, 58.5006951], [8.6422568, 58.5006517], [8.6414625, 58.5001082], [8.6412569, 58.4999773], [8.6411013, 58.4998844], [8.6405359, 58.4995715], [8.6378957, 58.4981353], [8.6372322, 58.4977585], [8.6368638, 58.497533], [8.6366719, 58.4974105], [8.6362251, 58.4971121], [8.6358644, 58.4968601], [8.635004, 58.4962437], [8.6342047, 58.4956504], [8.633885, 58.4954114], [8.6333132, 58.4949687], [8.6324069, 58.4942451], [8.6320819, 58.4939751], [8.6315813, 58.4935463], [8.6311055, 58.4931163], [8.6305119, 58.4925506], [8.6299242, 58.4919493], [8.6294497, 58.4914278], [8.6292991, 58.4912527], [8.6290233, 58.4909215], [8.6287653, 58.4906006], [8.6268792, 58.4881797], [8.6267008, 58.4879263], [8.6265781, 58.4877384], [8.6264255, 58.4874664], [8.6263292, 58.4872702], [8.6262277, 58.4870381], [8.6261027, 58.486684], [8.6255331, 58.4848703], [8.6243136, 58.4809851], [8.6242496, 58.4807914], [8.6241772, 58.4806013], [8.6240435, 58.4803257], [8.6239527, 58.4801711], [8.6238384, 58.4799994], [8.6237113, 58.4798314], [8.623475, 58.4795613], [8.6233019, 58.4793912], [8.6232274, 58.4793247]]}, "properties": {"electrified": "contact_line", "frequency": "16.67", "gauge": "1435", "maxspeed": "90", "name": "Arendalsbanen", "passenger_lines": "1", "railway": "rail", "usage": "branch", "voltage": "15000", "length_km": 3.036, "maxspeed_kmh": 90.0}}, {"type": "Feature", "geometry": {"type": "LineString", "coordinates": [[8.6498361, 58.5237779], [8.6496701, 58.5236037], [8.649488, 58.523444], [8.6493, 58.5233002], [8.6491986, 58.5232302], [8.6490097, 58.5231143], [8.6487776, 58.5229924], [8.6485229, 58.5228792], [8.647738, 58.5225738], [8.6474532, 58.5224509], [8.6473001, 58.5223792], [8.6469808, 58.5222085], [8.6468421, 58.5221246], [8.6466159, 58.5219752], [8.6464758, 58.5218752], [8.6463543, 58.5217791], [8.6460989, 58.5215527], [8.6458748, 58.5213207], [8.6444095, 58.5197225], [8.6430975, 58.5182916], [8.64281, 58.5179722], [8.6427274, 58.5178725], [8.6426023, 58.5177013], [8.6425499, 58.517619], [8.6424929, 58.5175124], [8.6424178, 58.5173267], [8.6423903, 58.5172217], [8.6423717, 58.5171139], [8.6423635, 58.5169867], [8.6423647, 58.5168928], [8.6423764, 58.5167832], [8.6423982, 58.516672], [8.6424288, 58.5165783], [8.6424694, 58.5164764]]}, "properties": {"electrified": "contact_line", "frequency": "16.67", "gauge": "1435", "maxspeed": "75", "name": "Arendalsbanen", "passenger_lines": "1", "railway": "rail", "usage": "branch", "voltage": "15000", "length_km": 0.948, "maxspeed_kmh": 75.0}}, {"type": "Feature", "geometry": {"type": "LineString", "coordinates": [[8.7418219, 58.4653885], [8.742103, 58.4654576]]}, "properties": {"bridge": "yes", "electrified": "contact_line", "frequency": "16.67", "gauge": "1435", "maxspeed": "70", "name": "Arendalsbanen", "passenger_lines": "1", "railway": "rail", "usage": "branch", "voltage": "15000", "length_km": 0.018, "maxspeed_kmh": 70.0}}, {"type": "Feature", "geometry": {"type": "LineString", "coordinates": [[8.742103, 58.4654576], [8.7424576, 58.4655276], [8.7427054, 58.4655635], [8.7430693, 58.4656047], [8.7432164, 58.4656152]]}, "properties": {"electrified": "contact_line", "frequency": "16.67", "gauge": "1435", "maxspeed": "70", "name": "Arendalsbanen", "passenger_lines": "1", "railway": "rail", "usage": "branch", "voltage": "15000", "length_km": 0.068, "maxspeed_kmh": 70.0}}, {"type": "Feature", "geometry": {"type": "LineString", "coordinates": [[8.7433459, 58.4656226], [8.7435909, 58.4656322], [8.7439709, 58.465631], [8.7441196, 58.4656256], [8.7444253, 58.4656058], [8.7447856, 58.4655683], [8.7449796, 58.4655415], [8.7452822, 58.4654871], [8.7461664, 58.4652919], [8.7464561, 58.4652342], [8.7467974, 58.4651803], [8.7471949, 58.4651413], [8.7475438, 58.4651249], [8.7477949, 58.4651211], [8.748029, 58.4651254], [8.7482222, 58.4651333], [8.748634, 58.4651655], [8.7489209, 58.4652013], [8.7492439, 58.4652562], [8.7495735, 58.4653279], [8.7509664, 58.4656716], [8.7513515, 58.465758]]}, "properties": {"electrified": "contact_line", "frequency": "16.67", "gauge": "1435", "maxspeed": "70", "name": "Arendalsbanen", "passenger_lines": "1", "railway": "rail", "usage": "branch", "voltage": "15000", "length_km": 0.491, "maxspeed_kmh": 70.0}}, {"type": "Feature", "geometry": {"type": "LineString", "coordinates": [[8.7432164, 58.4656152], [8.7433459, 58.4656226]]}, "properties": {"bridge": "yes", "electrified": "contact_line", "frequency": "16.67", "gauge": "1435", "maxspeed": "70", "name": "Arendalsbanen", "passenger_lines": "1", "railway": "rail", "usage": "branch", "voltage": "15000", "length_km": 0.008, "maxspeed_kmh": 70.0}}, {"type": "Feature", "geometry": {"type": "LineString", "coordinates": [[8.7161064, 58.4654797], [8.7163637, 58.4654643], [8.7166441, 58.4654527]]}, "properties": {"bridge": "yes", "electrified": "contact_line", "frequency": "16.67", "gauge": "1435", "maxspeed": "70", "name": "Arendalsbanen", "passenger_lines": "1", "railway": "rail", "usage": "branch", "voltage": "15000", "length_km": 0.032, "maxspeed_kmh": 70.0}}, {"type": "Feature", "geometry": {"type": "LineString", "coordinates": [[8.7166441, 58.4654527], [8.7169773, 58.4654515], [8.7172029, 58.4654571], [8.7174434, 58.4654682], [8.7177792, 58.4654936], [8.7181219, 58.4655317], [8.7184745, 58.4655855], [8.7187087, 58.4656279], [8.7190641, 58.4657086], [8.7199019, 58.4659277], [8.7202456, 58.4660118], [8.7205091, 58.4660666], [8.7206805, 58.4660974], [8.7209907, 58.4661433], [8.7212009, 58.4661665], [8.7214218, 58.4661848], [8.7216473, 58.4661971], [8.7218459, 58.466203], [8.7222589, 58.4661999], [8.7226307, 58.4661795], [8.7228626, 58.4661578], [8.7231327, 58.466123], [8.7233723, 58.4660847], [8.723721, 58.466013], [8.7239379, 58.4659582], [8.724171, 58.4658915], [8.7244027, 58.4658142], [8.7247235, 58.4656868], [8.7249159, 58.4655969], [8.7250178, 58.4655443], [8.7251085, 58.4654945], [8.7252769, 58.4653922], [8.725538, 58.4652082], [8.7258876, 58.464929], [8.7260506, 58.4648068], [8.7261904, 58.4647084], [8.7264194, 58.4645715], [8.7266631, 58.464445], [8.7269529, 58.4643176], [8.7271712, 58.4642366], [8.7274016, 58.4641617], [8.7277438, 58.4640695], [8.727887, 58.4640364], [8.7281683, 58.4639802], [8.7284535, 58.4639358], [8.7287545, 58.4639001], [8.7289069, 58.4638861], [8.7292543, 58.4638679], [8.7294361, 58.4638633], [8.7298291, 58.4638661], [8.730216, 58.463875], [8.731208, 58.4639079], [8.7322529, 58.4639481], [8.7330456, 58.4639828], [8.7342451, 58.4640435], [8.7350544, 58.4640891], [8.7363769, 58.464173], [8.7380189, 58.4642937], [8.73853, 58.4643416], [8.7389015, 58.4643944], [8.7391906, 58.4644493], [8.7395021, 58.4645214], [8.7397771, 58.4645984], [8.7399924, 58.4646696], [8.7402447, 58.4647672], [8.7404591, 58.4648591], [8.7409005, 58.4650614], [8.7411896, 58.4651851], [8.741412, 58.4652654], [8.7418219, 58.4653885]]}, "properties": {"electrified": "contact_line", "frequency": "16.67", "gauge": "1435", "maxspeed": "70", "name": "Arendalsbanen", "passenger_lines": "1", "railway": "rail", "usage": "branch", "voltage": "15000", "length_km": 1.621, "maxspeed_kmh": 70.0}}, {"type": "Feature", "geometry": {"type": "LineString", "coordinates": [[8.7063868, 58.6162645], [8.7064295, 58.6162049]]}, "properties": {"bridge": "yes", "electrified": "contact_line", "frequency": "16.67", "gauge": "1435", "maxspeed": "70", "name": "Arendalsbanen", "passenger_lines": "1", "railway": "rail", "usage": "branch", "voltage": "15000", "length_km": 0.007, "maxspeed_kmh": 70.0}}, {"type": "Feature", "geometry": {"type": "LineString", "coordinates": [[8.6831909, 58.4617472], [8.6833012, 58.4617233]]}, "properties": {"bridge": "yes", "electrified": "contact_line", "frequency": "16.67", "gauge": "1435", "maxspeed": "70", "name": "Arendalsbanen", "passenger_lines": "1", "railway": "rail", "usage": "branch", "voltage": "15000", "length_km": 0.007, "maxspeed_kmh": 70.0}}, {"type": "Feature", "geometry": {"type": "LineString", "coordinates": [[8.6550888, 58.6543305], [8.6551544, 58.6542938]]}, "properties": {"bridge": "yes", "electrified": "contact_line", "frequency": "16.67", "gauge": "1435", "maxspeed": "70", "name": "Arendalsbanen", "passenger_lines": "1", "railway": "rail", "usage": "branch", "voltage": "15000", "length_km": 0.006, "maxspeed_kmh": 70.0}}, {"type": "Feature", "geometry": {"type": "LineString", "coordinates": [[8.7105499, 58.597299], [8.7105982, 58.5971932], [8.7106592, 58.5970909]]}, "properties": {"electrified": "contact_line", "frequency": "16.67", "gauge": "1435", "maxspeed": "70", "name": "Arendalsbanen", "passenger_lines": "1", "railway": "rail", "usage": "branch", "voltage": "15000", "length_km": 0.024, "maxspeed_kmh": 70.0}}, {"type": "Feature", "geometry": {"type": "LineString", "coordinates": [[8.6552286, 58.4643736], [8.6553626, 58.4644021]]}, "properties": {"bridge": "yes", "electrified": "contact_line", "frequency": "16.67", "gauge": "1435", "maxspeed": "70", "name": "Arendalsbanen", "passenger_lines": "1", "railway": "rail", "usage": "branch", "voltage": "15000", "length_km": 0.008, "maxspeed_kmh": 70.0}}, {"type": "Feature", "geometry": {"type": "LineString", "coordinates": [[8.7064295, 58.6162049], [8.7065014, 58.6160945], [8.7065673, 58.6159805], [8.7067458, 58.6156111], [8.706957, 58.615124], [8.7071943, 58.6145388], [8.7072845, 58.6143049], [8.7073156, 58.6142188], [8.7073563, 58.6141006], [8.7073809, 58.6140246], [8.7074298, 58.6138318], [8.707464, 58.6136319], [8.7074819, 58.6134122], [8.7074831, 58.6132607], [8.707468, 58.6130563], [8.7074267, 58.6128105], [8.7073912, 58.6126657], [8.7073414, 58.61251], [8.7071353, 58.6119801], [8.7070857, 58.611837], [8.7070255, 58.6115906], [8.707008, 58.6114191], [8.7070099, 58.6112944], [8.70702, 58.6111801], [8.7070478, 58.611046], [8.7071233, 58.6108215], [8.7071886, 58.6106913], [8.7072661, 58.610561], [8.7073846, 58.610401], [8.7074526, 58.6103202], [8.7077522, 58.6099988], [8.707874, 58.6098574], [8.7079548, 58.6097473], [8.7080197, 58.6096433], [8.7080971, 58.6094857], [8.7081578, 58.6093035], [8.7081887, 58.6091313], [8.7081983, 58.6090118], [8.7081872, 58.6088312], [8.7081444, 58.6086446], [8.708119, 58.6085708], [8.7080604, 58.6084391], [8.7079844, 58.608304], [8.7078779, 58.608152], [8.7077987, 58.6080577], [8.7076907, 58.607941], [8.7073635, 58.6076151], [8.7072612, 58.6075039], [8.707183, 58.6074092], [8.7070636, 58.6072385], [8.7069797, 58.6070825], [8.7069399, 58.6069824], [8.7068957, 58.6068374], [8.7068698, 58.6066866], [8.7068612, 58.6065032], [8.7068654, 58.6063922], [8.7068962, 58.6060762], [8.7069248, 58.6058876], [8.7069967, 58.6055487], [8.7070712, 58.6053211], [8.7071327, 58.605189], [8.707209, 58.6050557], [8.7072562, 58.604985], [8.7073542, 58.6048601], [8.7074638, 58.60474], [8.707529, 58.6046769], [8.7077141, 58.6045212], [8.7079083, 58.6043823], [8.7081256, 58.6042461], [8.708714, 58.6039174], [8.7088162, 58.603856], [8.7089991, 58.6037379], [8.7091725, 58.6036097], [8.7093379, 58.603465], [8.7095126, 58.6032809], [8.7096201, 58.6031399], [8.709676, 58.6030523], [8.7097528, 58.6029082], [8.7098098, 58.6027597], [8.7098538, 58.6025779], [8.7098674, 58.602465], [8.7098685, 58.6023146], [8.7098608, 58.6022329], [8.7098225, 58.6020345], [8.7096895, 58.6015966], [8.7096428, 58.601395], [8.7096258, 58.6012607], [8.709621, 58.6011364], [8.7096382, 58.6009057], [8.7096785, 58.6007175], [8.709726, 58.600576], [8.7098012, 58.600403], [8.7100017, 58.5999903], [8.7100848, 58.5997764], [8.7101261, 58.5996318], [8.7101774, 58.5993755], [8.7102626, 58.598839], [8.7103782, 58.5981406], [8.7104008, 58.5980054]]}, "properties": {"electrified": "contact_line", "frequency": "16.67", "gauge": "1435", "maxspeed": "70", "name": "Arendalsbanen", "passenger_lines": "1", "railway": "rail", "usage": "branch", "voltage": "15000", "length_km": 2.117, "maxspeed_kmh": 70.0}}, {"type": "Feature", "geometry": {"type": "LineString", "coordinates": [[8.7106592, 58.5970909], [8.7107661, 58.5969536], [8.7108842, 58.5968125], [8.7110451, 58.5966518], [8.7112269, 58.5964861]]}, "properties": {"electrified": "contact_line", "frequency": "16.67", "gauge": "1435", "maxspeed": "70", "name": "Arendalsbanen", "passenger_lines": "1", "railway": "rail", "tunnel": "yes", "usage": "branch", "voltage": "15000", "length_km": 0.075, "maxspeed_kmh": 70.0}}, {"type": "Feature", "geometry": {"type": "LineString", "coordinates": [[8.6833012, 58.4617233], [8.683405, 58.4617016], [8.6836284, 58.4616604], [8.6840255, 58.4616046], [8.6843884, 58.4615713], [8.6845858, 58.4615601], [8.6847907, 58.4615536], [8.6850712, 58.4615541], [8.6852613, 58.4615593], [8.6856328, 58.4615821], [8.6858275, 58.4616012], [8.6861637, 58.4616465], [8.6864671, 58.4617], [8.6867771, 58.4617708], [8.6869432, 58.4618163], [8.6872964, 58.4619245], [8.6873611, 58.4619474], [8.6895762, 58.4626986], [8.6902018, 58.4629108], [8.6913844, 58.4633137], [8.6916787, 58.4634092], [8.6919478, 58.4634868], [8.692239, 58.4635566], [8.6925309, 58.4636143], [8.6927737, 58.4636526], [8.692928, 58.4636736], [8.6930946, 58.4636909], [8.6932784, 58.463707], [8.6934533, 58.463718], [8.6938185, 58.4637294], [8.6941875, 58.463722], [8.6943777, 58.4637121], [8.6947585, 58.4636824], [8.6961667, 58.4635425], [8.6969337, 58.4634663], [8.6973432, 58.4634432], [8.6977582, 58.4634382], [8.6981275, 58.4634471], [8.6984547, 58.4634675], [8.6986174, 58.4634816], [8.6988154, 58.4635025], [8.6990982, 58.463541], [8.6992772, 58.4635683], [8.6994589, 58.4636031], [8.699626, 58.4636351], [8.6997989, 58.4636737], [8.7001225, 58.4637566], [8.7005083, 58.4638769], [8.700752, 58.463967], [8.7010896, 58.4641103], [8.7012916, 58.4642099], [8.7015806, 58.464367], [8.7023533, 58.4648368], [8.7027408, 58.4650569], [8.7029769, 58.4651769], [8.703151, 58.4652566], [8.7033145, 58.4653264], [8.7035988, 58.4654347], [8.7039802, 58.4655597], [8.7042546, 58.4656363], [8.704521, 58.4657024], [8.7048721, 58.4657785], [8.7052943, 58.4658502], [8.7056543, 58.4658977], [8.7058211, 58.465916], [8.7061635, 58.4659433], [8.7067455, 58.4659692], [8.7075663, 58.4659902], [8.7077983, 58.4659947]]}, "properties": {"electrified": "contact_line", "frequency": "16.67", "gauge": "1435", "maxspeed": "70", "name": "Arendalsbanen", "passenger_lines": "1", "railway": "rail", "usage": "branch", "voltage": "15000", "length_km": 1.593, "maxspeed_kmh": 70.0}}, {"type": "Feature", "geometry": {"type": "LineString", "coordinates": [[8.6553626, 58.4644021], [8.65552, 58.4644397], [8.6556795, 58.4644814], [8.6558468, 58.4645288], [8.6560169, 58.4645821], [8.6561971, 58.4646452], [8.6563689, 58.4647117], [8.6565181, 58.4647761], [8.6566646, 58.4648452], [8.6568193, 58.4649267], [8.6569904, 58.4650285], [8.6571392, 58.465128], [8.6572923, 58.4652367], [8.6578534, 58.4656615], [8.6581426, 58.4658696], [8.6586538, 58.4662223], [8.6590895, 58.4665058], [8.6595082, 58.4667642], [8.660445, 58.4673137], [8.6615859, 58.46796], [8.661823, 58.4680883], [8.6620702, 58.468212], [8.662289, 58.4683083], [8.6625363, 58.468402], [8.6628147, 58.4684912], [8.663135, 58.4685763], [8.6634924, 58.4686523], [8.6638583, 58.4687093], [8.6640518, 58.4687331], [8.6644614, 58.4687672], [8.6648862, 58.4687789], [8.6653219, 58.46877], [8.6655356, 58.4687594], [8.6660556, 58.4687209], [8.6669569, 58.4686469], [8.6672015, 58.4686315], [8.6673009, 58.4686252], [8.6674825, 58.4686172], [8.6678654, 58.468606], [8.6682569, 58.468605], [8.6685133, 58.4686087], [8.6690206, 58.4686264], [8.6692597, 58.4686412], [8.6697442, 58.4686815], [8.6702575, 58.4687418], [8.6705323, 58.4687814], [8.6708072, 58.4688252], [8.6710658, 58.4688714], [8.671319, 58.4689218], [8.672258, 58.4691306], [8.6724889, 58.469177], [8.6726989, 58.4692156], [8.6729252, 58.4692501], [8.6732289, 58.4692858], [8.6734115, 58.4693008], [8.6737213, 58.4693166], [8.6741043, 58.4693209], [8.6742739, 58.4693166], [8.674661, 58.4692942], [8.6750035, 58.4692585], [8.6753878, 58.4691993], [8.6755831, 58.4691611], [8.6759491, 58.4690738], [8.6761991, 58.4690017], [8.6767082, 58.4688427], [8.6773507, 58.468636], [8.6779924, 58.468424], [8.6783862, 58.4682846], [8.6785894, 58.4682062], [8.6787525, 58.4681378], [8.6788953, 58.4680721], [8.6791386, 58.4679474], [8.6792661, 58.4678723], [8.6793704, 58.4678071], [8.6794883, 58.4677251], [8.6795867, 58.4676488], [8.6797678, 58.4674909], [8.6798373, 58.4674223], [8.6799625, 58.4672821], [8.6800314, 58.4671862], [8.6801425, 58.4670023], [8.6801851, 58.4669168], [8.6802218, 58.4668201], [8.6802722, 58.4666245], [8.6802944, 58.4664808], [8.680353, 58.46571], [8.6804337, 58.4649774], [8.6805538, 58.4641942], [8.6806479, 58.4636854], [8.6806744, 58.4635586], [8.6807087, 58.4634437], [8.6807483, 58.4633327], [8.6808009, 58.4632139], [8.6808583, 58.4631089], [8.6809391, 58.462986], [8.6810141, 58.4628938], [8.6810991, 58.4627989], [8.6812736, 58.4626325], [8.6813542, 58.4625675], [8.6815571, 58.4624186], [8.6816645, 58.4623529], [8.6817316, 58.4623104], [8.6819455, 58.4621931], [8.6821648, 58.4620887], [8.6824029, 58.4619907], [8.6826995, 58.4618855], [8.68285, 58.4618388], [8.6830205, 58.4617908], [8.6831909, 58.4617472]]}, "properties": {"electrified": "contact_line", "frequency": "16.67", "gauge": "1435", "maxspeed": "70", "name": "Arendalsbanen", "passenger_lines": "1", "railway": "rail", "usage": "branch", "voltage": "15000", "length_km": 2.421, "maxspeed_kmh": 70.0}}, {"type": "Feature", "geometry": {"type": "LineString", "coordinates": [[8.6551544, 58.6542938], [8.6553586, 58.6541675], [8.6555153, 58.654063], [8.6557457, 58.6538854], [8.6559722, 58.6536843], [8.6562726, 58.653368], [8.656487, 58.6531574], [8.6566874, 58.6529864], [8.6568535, 58.6528664], [8.6571224, 58.652702], [8.6573053, 58.6526061], [8.6574687, 58.652527], [8.6578585, 58.6523545], [8.6583715, 58.6521442], [8.6587956, 58.6519817], [8.6590498, 58.6518889], [8.6592755, 58.6518095], [8.6598061, 58.6516324], [8.6715445, 58.6478126], [8.6718828, 58.6476901], [8.6720188, 58.6476353], [8.6722636, 58.6475249], [8.6724735, 58.6474153], [8.6726618, 58.6473037], [8.6728142, 58.6472011], [8.6729688, 58.6470825], [8.6731404, 58.6469267], [8.6732112, 58.6468528], [8.6732793, 58.6467745], [8.6733935, 58.6466248], [8.6734385, 58.646554], [8.6735206, 58.646393], [8.67355, 58.6463236], [8.6735983, 58.6461669], [8.6736236, 58.6460071], [8.6736288, 58.6459279], [8.673628, 58.6454613], [8.6736346, 58.645352], [8.6736668, 58.6451792], [8.6737216, 58.6450166], [8.6737589, 58.6449314], [8.6738428, 58.644781], [8.6738966, 58.6447018], [8.6739471, 58.6446312], [8.6740627, 58.6444964], [8.674225, 58.6443369], [8.6743863, 58.6442051], [8.6745416, 58.6440945], [8.6747153, 58.6439868], [8.6748755, 58.643898], [8.6750819, 58.6437968], [8.6752013, 58.6437437], [8.6754216, 58.6436555], [8.675643, 58.6435775], [8.6759381, 58.6434889], [8.6761339, 58.6434388], [8.6765035, 58.6433608], [8.6769818, 58.6432855], [8.6776601, 58.6431887], [8.6780773, 58.6431164], [8.6782933, 58.6430704], [8.678483, 58.6430232], [8.6786507, 58.6429775], [8.6788733, 58.6429062], [8.679186, 58.6427906], [8.6793896, 58.642702], [8.6795645, 58.6426166], [8.679715, 58.6425356], [8.6798672, 58.6424432], [8.6800248, 58.6423361], [8.6801777, 58.6422183], [8.6803204, 58.6420925], [8.6804563, 58.641947], [8.6805752, 58.6417947], [8.6806782, 58.6416266], [8.680745, 58.641485], [8.6808063, 58.6412978], [8.680836, 58.6410814], [8.6808353, 58.6409439], [8.6808224, 58.640831], [8.6807986, 58.6407215], [8.6807567, 58.6405892], [8.6807254, 58.6405173]]}, "properties": {"electrified": "contact_line", "frequency": "16.67", "gauge": "1435", "maxspeed": "70", "name": "Arendalsbanen", "passenger_lines": "1", "railway": "rail", "usage": "branch", "voltage": "15000", "length_km": 2.279, "maxspeed_kmh": 70.0}}, {"type": "Feature", "geometry": {"type": "LineString", "coordinates": [[8.7112269, 58.5964861], [8.7114868, 58.5963117], [8.7120364, 58.5959883], [8.7121568, 58.5959122], [8.7122919, 58.5958185], [8.7124467, 58.5956991], [8.7126574, 58.5954993], [8.7127141, 58.5954365], [8.7128555, 58.595251], [8.7128946, 58.5951902], [8.7129664, 58.5950553], [8.7130383, 58.594871], [8.7130856, 58.5946517], [8.7130936, 58.5944797], [8.7130912, 58.5944093], [8.7130793, 58.5943293], [8.7130305, 58.5941313], [8.7129724, 58.5939843], [8.7128864, 58.5938176], [8.7126681, 58.5934576], [8.7125911, 58.5933177], [8.7125306, 58.5931869], [8.7124941, 58.5930864], [8.7124598, 58.592948], [8.7124424, 58.5928031], [8.7124438, 58.5926582], [8.7124652, 58.592503], [8.712512, 58.5923328], [8.7125641, 58.5922063], [8.7126675, 58.5920205], [8.7127722, 58.5918746], [8.7128556, 58.5917769], [8.7129528, 58.5916752], [8.7134417, 58.5912253], [8.7135238, 58.5911441], [8.7136425, 58.591018], [8.7137028, 58.5909448], [8.7138014, 58.5908028], [8.7138555, 58.5907109], [8.7139063, 58.5906071], [8.713946, 58.590507], [8.7139743, 58.5904113], [8.713997, 58.5903047], [8.7140106, 58.5901975], [8.7140145, 58.5900952], [8.714008, 58.5900046], [8.7139812, 58.5898392], [8.7139558, 58.5897482], [8.7139006, 58.5895945], [8.7138452, 58.5894686], [8.7135378, 58.5888196], [8.713265, 58.5882657], [8.7131114, 58.5879918], [8.7129925, 58.587817], [8.7128732, 58.5876747], [8.7127224, 58.5875246], [8.7122869, 58.5871393], [8.712168, 58.5870264], [8.712072, 58.586925], [8.7119403, 58.5867642], [8.711823, 58.5865748], [8.7117438, 58.586397], [8.7117168, 58.5863123], [8.7116991, 58.5862462], [8.7116731, 58.5860919], [8.7116653, 58.5859304], [8.7116745, 58.5856229], [8.7116723, 58.5854552], [8.7116513, 58.5852726], [8.7116057, 58.5851063], [8.7115214, 58.5849152], [8.7114282, 58.584763], [8.7113197, 58.5846183], [8.7112592, 58.5845476], [8.7111003, 58.5843826], [8.710683, 58.5839726], [8.7105346, 58.583801], [8.7104224, 58.5836454], [8.7103422, 58.5835215], [8.7102575, 58.583367], [8.7102043, 58.5832551], [8.7101406, 58.5830912], [8.710111, 58.5829955], [8.7100763, 58.5828568], [8.7100546, 58.5827174], [8.7100268, 58.5824176], [8.7099456, 58.5810085], [8.7099093, 58.5806985], [8.7098759, 58.5805602], [8.7098378, 58.5804489], [8.7097524, 58.5802685], [8.7096575, 58.5801184], [8.7096106, 58.5800556], [8.7095014, 58.5799256], [8.7094346, 58.5798576], [8.709368, 58.5797922], [8.7092361, 58.5796779], [8.7091453, 58.5796079], [8.7089853, 58.5794965], [8.7087798, 58.5793663], [8.70832, 58.579097], [8.7080509, 58.5789326], [8.7079377, 58.5788568], [8.7076923, 58.5786691], [8.7075148, 58.5785111], [8.7073688, 58.5783658], [8.7072886, 58.5782751], [8.7071589, 58.5781154], [8.7068256, 58.5776416], [8.706684, 58.5774515], [8.7065064, 58.5772402], [8.7063093, 58.5770374], [8.7061641, 58.5769063]]}, "properties": {"electrified": "contact_line", "frequency": "16.67", "gauge": "1435", "maxspeed": "70", "name": "Arendalsbanen", "passenger_lines": "1", "railway": "rail", "usage": "branch", "voltage": "15000", "length_km": 2.34, "maxspeed_kmh": 70.0}}, {"type": "Feature", "geometry": {"type": "LineString", "coordinates": [[8.6350358, 58.6550311], [8.6347155, 58.655281], [8.6345237, 58.6554467]]}, "properties": {"electrified": "contact_line", "frequency": "16.67", "gauge": "1435", "maxspeed": "40", "name": "Arendalsbanen", "passenger_lines": "2", "railway": "rail", "service": "crossover", "voltage": "15000", "length_km": 0.055, "maxspeed_kmh": 40.0}}, {"type": "Feature", "geometry": {"type": "LineString", "coordinates": [[8.7664842, 58.4665988], [8.7667858, 58.466449], [8.7668375, 58.4664244], [8.7668885, 58.4663984], [8.767067, 58.4663102], [8.76732, 58.4661858], [8.7696417, 58.4650354], [8.7699953, 58.4648612], [8.7701256, 58.4647975], [8.7702814, 58.4647236]]}, "properties": {"electrified": "contact_line", "frequency": "16.67", "gauge": "1435", "maxspeed": "40", "name": "Arendalsbanen", "passenger_lines": "1", "railway": "rail", "usage": "branch", "voltage": "15000", "length_km": 0.305, "maxspeed_kmh": 40.0}}, {"type": "Feature", "geometry": {"type": "LineString", "coordinates": [[8.6344646, 58.6554224], [8.6350358, 58.6550311]]}, "properties": {"electrified": "contact_line", "frequency": "16.67", "gauge": "1435", "maxspeed": "40", "name": "Arendalsbanen", "passenger_lines": "2", "railway": "rail", "usage": "branch", "voltage": "15000", "length_km": 0.055, "maxspeed_kmh": 40.0}}, {"type": "Feature", "geometry": {"type": "LineString", "coordinates": [[8.7659921, 58.4668223], [8.7662221, 58.4667234], [8.7664842, 58.4665988]]}, "properties": {"electrified": "contact_line", "frequency": "16.67", "gauge": "1435", "maxspeed": "40", "name": "Arendalsbanen", "passenger_lines": "1", "railway": "rail", "usage": "branch", "voltage": "15000", "length_km": 0.038, "maxspeed_kmh": 40.0}}, {"type": "Feature", "geometry": {"type": "LineString", "coordinates": [[8.642701, 58.5160948], [8.642902, 58.5158737], [8.6430762, 58.515724], [8.6431641, 58.5156587], [8.6432528, 58.5155955], [8.6434465, 58.5154728], [8.6436674, 58.5153532], [8.6437914, 58.5152928], [8.643953, 58.5152216], [8.6441164, 58.5151555], [8.6442804, 58.5150971], [8.6444667, 58.5150365], [8.6447563, 58.5149542], [8.6449664, 58.514904], [8.6452134, 58.5148525], [8.6454565, 58.5148074], [8.6483043, 58.5143351], [8.648528, 58.5142957], [8.6488063, 58.5142412], [8.6490668, 58.5141819], [8.6493487, 58.5141063], [8.6495904, 58.5140301], [8.649782, 58.5139619], [8.6500265, 58.5138601], [8.6501966, 58.5137802], [8.6504388, 58.513652], [8.6506009, 58.513551], [8.6507669, 58.5134369], [8.6509851, 58.51326], [8.6510995, 58.5131505], [8.6512008, 58.5130418], [8.6512914, 58.5129308], [8.6514018, 58.5127654], [8.6514457, 58.5126877], [8.6515042, 58.5125625], [8.6515639, 58.5123819], [8.651594, 58.5122153], [8.6515996, 58.5120825], [8.6515967, 58.5119911], [8.6515656, 58.5117939], [8.6515292, 58.511672], [8.6514411, 58.511466], [8.6513902, 58.5113747], [8.6512488, 58.5111775], [8.6511686, 58.5110844], [8.651068, 58.5109799], [8.6509554, 58.510876], [8.6508257, 58.5107684], [8.6507714, 58.5107287]]}, "properties": {"electrified": "contact_line", "frequency": "16.67", "gauge": "1435", "maxspeed": "75", "name": "Arendalsbanen", "passenger_lines": "1", "railway": "rail", "usage": "branch", "voltage": "15000", "length_km": 0.898, "maxspeed_kmh": 75.0}}, {"type": "Feature", "geometry": {"type": "LineString", "coordinates": [[8.6501605, 58.524648], [8.6501603, 58.5245756], [8.6501561, 58.5244666], [8.6501377, 58.524341], [8.6500862, 58.5241774], [8.650025, 58.5240459], [8.6499024, 58.523861], [8.6498361, 58.5237779]]}, "properties": {"electrified": "contact_line", "frequency": "16.67", "gauge": "1435", "maxspeed": "50", "name": "Arendalsbanen", "passenger_lines": "1", "railway": "rail", "usage": "branch", "voltage": "15000", "length_km": 0.1, "maxspeed_kmh": 50.0}}, {"type": "Feature", "geometry": {"type": "LineString", "coordinates": [[8.651432, 58.5273132], [8.6511817, 58.5271284], [8.6508646, 58.5268864], [8.6507312, 58.5267752], [8.65063, 58.526683], [8.6505345, 58.5265834], [8.6504572, 58.5264937], [8.6503903, 58.5264028], [8.650295, 58.5262348], [8.6502333, 58.5260856], [8.6501888, 58.5258944], [8.6501781, 58.5257929], [8.6501755, 58.5257516]]}, "properties": {"electrified": "contact_line", "frequency": "16.67", "gauge": "1435", "maxspeed": "50", "name": "Arendalsbanen", "passenger_lines": "1", "railway": "rail", "usage": "branch", "voltage": "15000", "length_km": 0.193, "maxspeed_kmh": 50.0}}, {"type": "Feature", "geometry": {"type": "LineString", "coordinates": [[8.6811076, 58.5569845], [8.6809667, 58.5568745], [8.6806435, 58.5566425], [8.6804891, 58.5565398], [8.6799882, 58.5562278], [8.6796438, 58.5560071], [8.6792199, 58.5556978], [8.6789658, 58.5554905], [8.6788159, 58.5553558], [8.6785781, 58.5551266], [8.6784241, 58.5549669], [8.6774094, 58.5538696], [8.6754405, 58.5517558], [8.6750802, 58.5513627], [8.6747304, 58.5509674], [8.6742752, 58.5504243], [8.6738904, 58.54994], [8.6734697, 58.549375], [8.673367, 58.5492249], [8.6732351, 58.549009], [8.6731119, 58.5487511], [8.6730358, 58.5485361], [8.6730071, 58.5484245], [8.6729698, 58.5481995], [8.6729611, 58.5480512], [8.6729621, 58.5479376], [8.6729733, 58.5477677], [8.6730185, 58.5475171], [8.6730828, 58.547287], [8.673302, 58.5466199], [8.6733531, 58.5464343], [8.673394, 58.5462466], [8.6734108, 58.546101], [8.6734181, 58.5459037], [8.6734056, 58.5457327], [8.6733823, 58.5455633], [8.6733483, 58.5454068], [8.6733079, 58.5452437], [8.6732845, 58.5451494], [8.6731853, 58.5448433], [8.6731063, 58.5446147], [8.6730277, 58.5444214], [8.6728567, 58.5440372], [8.6726557, 58.5436547], [8.6724987, 58.5433975], [8.6723243, 58.5431619], [8.6722609, 58.5430854], [8.6720927, 58.5429031], [8.6718716, 58.5427012], [8.6717023, 58.5425622], [8.671556, 58.5424514], [8.6712998, 58.5422759], [8.6706828, 58.5418823], [8.6703958, 58.5416932], [8.6700291, 58.5414359], [8.6698242, 58.5412833], [8.6695422, 58.5410604], [8.6691812, 58.5407575], [8.6686906, 58.5403172], [8.6684674, 58.5401307], [8.6682958, 58.5399979], [8.6680252, 58.5398064], [8.6676596, 58.5395821], [8.6674735, 58.53948], [8.6672688, 58.5393755], [8.6669315, 58.5392146], [8.6661688, 58.5388721], [8.6658576, 58.5387243], [8.6654106, 58.5384994], [8.6647955, 58.5381672], [8.6643031, 58.5378771], [8.6638519, 58.5375927], [8.6636455, 58.537457], [8.6633031, 58.537219], [8.6628995, 58.5369216], [8.6625244, 58.5366255], [8.6621132, 58.5362688], [8.6617613, 58.5359392], [8.6615405, 58.5357185], [8.661398, 58.5355668], [8.6612096, 58.5353432], [8.6610384, 58.5351067], [8.6609381, 58.5349427], [8.6606402, 58.534397], [8.660584, 58.5343023], [8.6604627, 58.5341261], [8.6603732, 58.5340084], [8.6602794, 58.5338994], [8.6601249, 58.5337379], [8.6599967, 58.5336189], [8.6598296, 58.5334787], [8.659492, 58.5332196], [8.6544117, 58.5294951], [8.6532773, 58.5286675], [8.651432, 58.5273132]]}, "properties": {"electrified": "contact_line", "frequency": "16.67", "gauge": "1435", "maxspeed": "90", "name": "Arendalsbanen", "passenger_lines": "1", "railway": "rail", "usage": "branch", "voltage": "15000", "length_km": 3.831, "maxspeed_kmh": 90.0}}, {"type": "Feature", "geometry": {"type": "LineString", "coordinates": [[8.6917499, 58.6284783], [8.6920444, 58.6282701], [8.6922057, 58.6281443], [8.6924043, 58.6279642], [8.692523, 58.6278347], [8.6925836, 58.6277578], [8.6926377, 58.6276858], [8.6927222, 58.6275454], [8.6928007, 58.6273738], [8.692855, 58.6271931], [8.6928847, 58.6270251], [8.6929257, 58.6266931], [8.6929806, 58.6264587], [8.6930576, 58.6262761], [8.6930919, 58.6262134], [8.693166, 58.6260918], [8.6932478, 58.6259785], [8.693385, 58.6258222], [8.6934986, 58.6257066], [8.6936394, 58.6255763], [8.6939342, 58.6253185], [8.694216, 58.6250874], [8.6945217, 58.6248502], [8.6946581, 58.6247494], [8.6949115, 58.6245778], [8.6951765, 58.6244147], [8.6954269, 58.6242735], [8.6956324, 58.6241667], [8.6958707, 58.6240515], [8.6960688, 58.6239616], [8.6965705, 58.62375], [8.7004773, 58.6221582], [8.700871, 58.6219873], [8.7009822, 58.6219354], [8.7012636, 58.6217818], [8.7014628, 58.6216568], [8.701612, 58.6215475], [8.7016862, 58.6214896], [8.7018694, 58.6213223], [8.7020276, 58.6211437], [8.7020858, 58.6210657], [8.7021762, 58.6209225], [8.7022395, 58.6207935], [8.702317, 58.6205672], [8.7023408, 58.6204357], [8.7023696, 58.6201082], [8.7023783, 58.6199088], [8.7023997, 58.6197202], [8.7024318, 58.6195482], [8.7024985, 58.6193015], [8.7026168, 58.6189698], [8.702658, 58.618869], [8.7027344, 58.6187132], [8.7028959, 58.6184606], [8.7030371, 58.6182953], [8.7032214, 58.6181226], [8.7034211, 58.617968], [8.7036847, 58.6177976], [8.7038836, 58.6176875], [8.7040672, 58.6176009], [8.7042543, 58.6175196], [8.7048612, 58.6172809], [8.705176, 58.6171506], [8.705424, 58.617032], [8.7056117, 58.616927], [8.7057107, 58.6168656], [8.7058066, 58.6168031], [8.7059663, 58.6166846], [8.7061496, 58.6165264], [8.7062734, 58.616398], [8.7063868, 58.6162645]]}, "properties": {"electrified": "contact_line", "frequency": "16.67", "gauge": "1435", "maxspeed": "70", "name": "Arendalsbanen", "passenger_lines": "1", "railway": "rail", "usage": "branch", "voltage": "15000", "length_km": 1.678, "maxspeed_kmh": 70.0}}, {"type": "Feature", "geometry": {"type": "LineString", "coordinates": [[8.6350358, 58.6550311], [8.6354985, 58.6547155], [8.6355544, 58.6546801]]}, "properties": {"electrified": "contact_line", "frequency": "16.67", "gauge": "1435", "maxspeed": "40", "name": "Arendalsbanen", "passenger_lines": "1", "railway": "rail", "usage": "branch", "voltage": "15000", "length_km": 0.049, "maxspeed_kmh": 40.0}}, {"type": "Feature", "geometry": {"type": "LineString", "coordinates": [[8.6807254, 58.6405173], [8.6807034, 58.6404645], [8.6805884, 58.6402527], [8.6802754, 58.6397786], [8.6802037, 58.639658], [8.6800928, 58.6394446], [8.68, 58.6392087], [8.6799355, 58.6389788], [8.6799009, 58.6387795], [8.679888, 58.6386559], [8.6798828, 58.6384892], [8.679891, 58.6383249], [8.6798986, 58.6382424], [8.6799362, 58.6380354], [8.6799701, 58.6379033], [8.6800186, 58.6377573], [8.6801451, 58.6374689], [8.6808013, 58.6362188], [8.6809193, 58.6359909], [8.6811516, 58.6355633], [8.681357, 58.6352246], [8.6815916, 58.6348878], [8.6817254, 58.6347233], [8.6819118, 58.6345248], [8.6820655, 58.6343855], [8.6822771, 58.6342208], [8.6824827, 58.6340817], [8.6827039, 58.6339442], [8.6886321, 58.6304616], [8.6889769, 58.6302591], [8.6894301, 58.6299865], [8.6897723, 58.6297756], [8.6905262, 58.6292952], [8.6909838, 58.6289943], [8.6917499, 58.6284783]]}, "properties": {"electrified": "contact_line", "frequency": "16.67", "gauge": "1435", "maxspeed": "85", "name": "Arendalsbanen", "passenger_lines": "1", "railway": "rail", "usage": "branch", "voltage": "15000", "length_km": 1.578, "maxspeed_kmh": 85.0}}, {"type": "Feature", "geometry": {"type": "LineString", "coordinates": [[8.6507714, 58.5107287], [8.6506908, 58.5106637], [8.6502371, 58.5103303], [8.6500066, 58.510143], [8.649871, 58.510019], [8.6497417, 58.5098879], [8.649651, 58.5097901], [8.649478, 58.5095742], [8.6493879, 58.5094445], [8.6492528, 58.5092161], [8.6491503, 58.5089914], [8.6490938, 58.5088444], [8.6488931, 58.5081789], [8.6488384, 58.5080204], [8.6487741, 58.5078456], [8.648621, 58.507509], [8.6484651, 58.5072178], [8.6483988, 58.5071084]]}, "properties": {"electrified": "contact_line", "frequency": "16.67", "gauge": "1435", "name": "Arendalsbanen", "passenger_lines": "1", "railway": "rail", "usage": "branch", "voltage": "15000", "length_km": 0.432}}, {"type": "Feature", "geometry": {"type": "LineString", "coordinates": [[8.6483988, 58.5071084], [8.6482805, 58.5069197], [8.6480547, 58.5066059], [8.6479287, 58.5064506], [8.6478226, 58.5063247], [8.6475917, 58.5060717], [8.6473224, 58.5058048], [8.6453653, 58.5040456], [8.6450263, 58.5037284], [8.6448733, 58.5035738], [8.6448017, 58.5034967]]}, "properties": {"electrified": "contact_line", "frequency": "16.67", "gauge": "1435", "name": "Arendalsbanen", "passenger_lines": "1", "railway": "rail", "usage": "branch", "voltage": "15000", "length_km": 0.455}}, {"type": "Feature", "geometry": {"type": "LineString", "coordinates": [[8.6232274, 58.4793247], [8.6230795, 58.4791928], [8.6225184, 58.4787383], [8.6223333, 58.4785803], [8.6221567, 58.4784157], [8.6219371, 58.4781876], [8.6218022, 58.4780252], [8.6216894, 58.4778764], [8.6215872, 58.4777255], [8.6214361, 58.4774655], [8.6212669, 58.4771503], [8.6210776, 58.4767941], [8.6189685, 58.4727963], [8.6187944, 58.4724206], [8.6186951, 58.4721275], [8.6186517, 58.4719576], [8.6186183, 58.4717893], [8.6185993, 58.471666], [8.6185883, 58.4715354], [8.6185837, 58.4714571], [8.6185898, 58.4713183], [8.6185983, 58.471235], [8.6186315, 58.4710808], [8.6186814, 58.4709388], [8.618743, 58.4708037], [8.6188369, 58.4706503], [8.6189661, 58.4704834], [8.6190745, 58.4703646], [8.6191424, 58.4703012], [8.6193514, 58.4701256], [8.6195837, 58.4699662], [8.6197819, 58.4698509], [8.6199016, 58.469789], [8.6201397, 58.4696767], [8.6203514, 58.469584], [8.6204442, 58.4695444]]}, "properties": {"electrified": "contact_line", "frequency": "16.67", "gauge": "1435", "maxspeed": "70", "name": "Arendalsbanen", "passenger_lines": "1", "railway": "rail", "usage": "branch", "voltage": "15000", "length_km": 1.174, "maxspeed_kmh": 70.0}}, {"type": "Feature", "geometry": {"type": "LineString", "coordinates": [[8.6204442, 58.4695444], [8.6208216, 58.4693851], [8.6210336, 58.4693032], [8.6215448, 58.4691265], [8.6226795, 58.4687474], [8.6237285, 58.4683953], [8.6247419, 58.4680564]]}, "properties": {"electrified": "contact_line", "frequency": "16.67", "gauge": "1435", "maxspeed": "60", "name": "Arendalsbanen", "passenger_lines": "1", "railway": "rail", "usage": "branch", "voltage": "15000", "length_km": 0.301, "maxspeed_kmh": 60.0}}, {"type": "Feature", "geometry": {"type": "LineString", "coordinates": [[8.6247419, 58.4680564], [8.6250273, 58.4679625], [8.625169, 58.4679192], [8.625392, 58.467855], [8.625667, 58.4677872], [8.6257962, 58.4677608], [8.626085, 58.4677094], [8.6262579, 58.4676839], [8.6264454, 58.4676614], [8.6266128, 58.4676456], [8.6268127, 58.4676307], [8.6271195, 58.4676172], [8.627322, 58.4676153], [8.6275789, 58.467619], [8.6277895, 58.4676279], [8.6281408, 58.4676572], [8.628435, 58.4676936], [8.6287082, 58.4677382], [8.629006, 58.4677981], [8.6291332, 58.4678283], [8.6294195, 58.4679056], [8.6296681, 58.4679855], [8.629895, 58.4680698], [8.6300811, 58.4681474], [8.6303079, 58.4682566], [8.6305377, 58.4683834], [8.6307091, 58.4684938], [8.6308241, 58.4685767], [8.6312892, 58.4689394], [8.6314663, 58.4690678], [8.6316765, 58.4691994], [8.6319201, 58.4693293], [8.6322127, 58.4694622], [8.6324171, 58.4695423], [8.6325199, 58.4695783], [8.6328189, 58.4696721], [8.6330423, 58.4697332], [8.6331962, 58.4697702], [8.633577, 58.469852], [8.6339557, 58.4699282], [8.635251, 58.4701707], [8.6357808, 58.4702585], [8.635975, 58.4702841], [8.6363058, 58.4703182], [8.6365016, 58.4703318], [8.6368378, 58.470345], [8.6371718, 58.470344], [8.6373726, 58.4703373], [8.6375738, 58.4703263], [8.6378092, 58.4703057], [8.6380186, 58.470282], [8.6382532, 58.4702489], [8.6383885, 58.4702249], [8.638653, 58.4701732], [8.6388596, 58.4701251], [8.6392005, 58.4700348], [8.639732, 58.4698735], [8.6403598, 58.469691], [8.6410618, 58.4695012], [8.6415226, 58.4693868], [8.6418637, 58.4693048], [8.6424433, 58.4691735], [8.6431322, 58.4690296], [8.6436555, 58.4689281], [8.6446983, 58.4687432], [8.6450988, 58.4686655], [8.6454143, 58.46859], [8.6457217, 58.468503], [8.6460312, 58.4683972], [8.6461787, 58.4683398], [8.6464187, 58.4682348], [8.6466597, 58.4681121], [8.6467694, 58.4680508], [8.6468941, 58.4679738], [8.6471233, 58.4678134], [8.6472543, 58.4677074], [8.6473601, 58.4676093], [8.6474639, 58.4675057], [8.6478845, 58.4670242], [8.6481694, 58.4667243], [8.6484547, 58.4664494], [8.6486755, 58.4662544], [8.6488802, 58.4660823], [8.6490689, 58.4659312], [8.649298, 58.4657585], [8.6496536, 58.4655077], [8.6498588, 58.4653701], [8.6501286, 58.4651988], [8.6502837, 58.4651032], [8.6505619, 58.4649428], [8.6507669, 58.4648366], [8.6508973, 58.4647752], [8.6511818, 58.4646561], [8.651473, 58.4645546], [8.6516191, 58.4645098], [8.6518012, 58.4644594], [8.6520194, 58.4644072], [8.6522938, 58.4643507], [8.6524746, 58.4643203], [8.652643, 58.4642949], [8.6528182, 58.4642742], [8.652978, 58.464257], [8.6531846, 58.4642417], [8.6533884, 58.4642315], [8.6536095, 58.4642255], [8.6540306, 58.464231], [8.6544084, 58.4642538], [8.6546479, 58.4642798], [8.6549406, 58.4643218], [8.6552286, 58.4643736]]}, "properties": {"electrified": "contact_line", "frequency": "16.67", "gauge": "1435", "maxspeed": "70", "name": "Arendalsbanen", "passenger_lines": "1", "railway": "rail", "usage": "branch", "voltage": "15000", "length_km": 2.173, "maxspeed_kmh": 70.0}}, {"type": "Feature", "geometry": {"type": "LineString", "coordinates": [[8.7077983, 58.4659947], [8.7086501, 58.46601], [8.7092137, 58.4660179], [8.7094383, 58.4660205], [8.7107839, 58.466026], [8.7112292, 58.4660244]]}, "properties": {"electrified": "contact_line", "frequency": "16.67", "gauge": "1435", "maxspeed": "50", "name": "Arendalsbanen", "passenger_lines": "1", "railway": "rail", "usage": "branch", "voltage": "15000", "length_km": 0.201, "maxspeed_kmh": 50.0}}, {"type": "Feature", "geometry": {"type": "LineString", "coordinates": [[8.7112292, 58.4660244], [8.7118647, 58.4660182], [8.7122513, 58.4660062], [8.7126343, 58.4659845], [8.7129307, 58.4659592], [8.7132371, 58.4659254], [8.7134423, 58.465899], [8.7139322, 58.4658213], [8.7152352, 58.4655886], [8.7155163, 58.4655449], [8.7157645, 58.4655131], [8.7159777, 58.4654908], [8.7161064, 58.4654797]]}, "properties": {"electrified": "contact_line", "frequency": "16.67", "gauge": "1435", "maxspeed": "70", "name": "Arendalsbanen", "passenger_lines": "1", "railway": "rail", "usage": "branch", "voltage": "15000", "length_km": 0.293, "maxspeed_kmh": 70.0}}, {"type": "Feature", "geometry": {"type": "LineString", "coordinates": [[8.765831, 58.4668825], [8.7659921, 58.4668223]]}, "properties": {"electrified": "contact_line", "frequency": "16.67", "gauge": "1435", "maxspeed": "70", "name": "Arendalsbanen", "passenger_lines": "1", "railway": "rail", "usage": "branch", "voltage": "15000", "length_km": 0.012, "maxspeed_kmh": 70.0}}, {"type": "Feature", "geometry": {"type": "LineString", "coordinates": [[8.7061156, 58.5768607], [8.7058309, 58.5766171], [8.7057559, 58.5765537], [8.705602, 58.5764303], [8.7053193, 58.5762052], [8.7047644, 58.5757758], [8.7043423, 58.5754646], [8.7033434, 58.5747658], [8.702978, 58.5745224], [8.7027272, 58.5743689], [8.702393, 58.5741783], [8.6990211, 58.5723388], [8.6984329, 58.5720168], [8.6981463, 58.5718548], [8.6979613, 58.5717437], [8.6976915, 58.5715643], [8.6974791, 58.5713985], [8.6973086, 58.5712452], [8.6971825, 58.5711151], [8.6970812, 58.5709975], [8.6969776, 58.5708578], [8.6968923, 58.5707231], [8.6968194, 58.5705811], [8.6967569, 58.5704357], [8.6967105, 58.5702874], [8.696688, 58.5701916], [8.6966628, 58.5700166], [8.6966552, 58.569881], [8.6966682, 58.5696719], [8.6966896, 58.5695419], [8.6968092, 58.5690957], [8.6968406, 58.5689419], [8.6968533, 58.5688112], [8.696853, 58.5686823], [8.6968275, 58.5685129], [8.6968043, 58.5684257], [8.6967447, 58.5682583], [8.6966741, 58.5681164], [8.696546, 58.5679267], [8.69641, 58.5677655], [8.6963176, 58.5676765], [8.6961717, 58.567548], [8.6959552, 58.567378], [8.6954383, 58.5670021], [8.6951726, 58.5668], [8.6946723, 58.5664031], [8.6941751, 58.5659862], [8.6939639, 58.5658002], [8.6935242, 58.565398], [8.6933122, 58.5651951], [8.6929499, 58.564834], [8.6925176, 58.5643747], [8.6921345, 58.5639376], [8.6914356, 58.5630835], [8.6912191, 58.5628387], [8.6910777, 58.5626925], [8.6909022, 58.562523], [8.6907183, 58.5623577], [8.6905346, 58.5622034], [8.6903403, 58.5620491], [8.6901369, 58.5618987], [8.6899591, 58.5617755], [8.6897705, 58.5616484], [8.6893419, 58.5613855], [8.6889229, 58.5611442], [8.6882082, 58.5607419], [8.6876848, 58.5604563], [8.686875, 58.5600269], [8.6861927, 58.5596773], [8.6860416, 58.5596051], [8.6857472, 58.5594735], [8.6854737, 58.5593629], [8.6851931, 58.5592597], [8.6848608, 58.5591507], [8.6846659, 58.5590927], [8.6839195, 58.5588852], [8.6836379, 58.5587977], [8.6834779, 58.5587423], [8.6833251, 58.558684], [8.6830781, 58.5585772], [8.6829219, 58.5585015], [8.6827888, 58.5584305], [8.6825529, 58.558285], [8.6824276, 58.5581959], [8.6823382, 58.5581235], [8.6821949, 58.5580076], [8.6820814, 58.557903], [8.681784, 58.5576038], [8.6816751, 58.5574865], [8.6814699, 58.5572903], [8.6812369, 58.5570879], [8.6811076, 58.5569845]]}, "properties": {"electrified": "contact_line", "frequency": "16.67", "gauge": "1435", "maxspeed": "70", "name": "Arendalsbanen", "passenger_lines": "1", "railway": "rail", "usage": "branch", "voltage": "15000", "length_km": 2.733, "maxspeed_kmh": 70.0}}, {"type": "Feature", "geometry": {"type": "LineString", "coordinates": [[8.7061641, 58.5769063], [8.7061156, 58.5768607]]}, "properties": {"bridge": "yes", "electrified": "contact_line", "frequency": "16.67", "gauge": "1435", "maxspeed": "70", "name": "Arendalsbanen", "passenger_lines": "1", "railway": "rail", "usage": "branch", "voltage": "15000", "length_km": 0.006, "maxspeed_kmh": 70.0}}]}