{"type": "FeatureCollection", "features": [{"type": "Feature", "geometry": {"type": "LineString", "coordinates": [[10.4591194, 59.8660857], [10.4650287, 59.8697192]]}, "properties": {"electrified": "contact_line", "frequency": "16.67", "gauge": "1435", "maxspeed": "160", "name": "Askerbanen", "operator": "Bane NOR", "passenger_lines": "2", "railway": "rail", "usage": "main", "voltage": "15000", "length_km": 0.523, "maxspeed_kmh": 160.0}}, {"type": "Feature", "geometry": {"type": "LineString", "coordinates": [[10.4650287, 59.8697192], [10.4661809, 59.8705154], [10.4674884, 59.8715272], [10.4688792, 59.8728176], [10.4703329, 59.8744957], [10.4713387, 59.8760283], [10.4721582, 59.8773872], [10.4728502, 59.8783772], [10.473573, 59.8792373], [10.4746526, 59.8803195], [10.4760983, 59.8815402], [10.4773456, 59.8824103], [10.4786203, 59.8831971], [10.4798204, 59.8838454], [10.4800954, 59.8839854], [10.4803891, 59.8841316], [10.4806828, 59.8842724], [10.4809899, 59.884418], [10.4814335, 59.8846203], [10.4818898, 59.8848218], [10.4824859, 59.8850721], [10.4831625, 59.8853426], [10.4836687, 59.8855354], [10.4841442, 59.8857083], [10.4846766, 59.885896], [10.4851882, 59.886069], [10.4856335, 59.8862126], [10.4860982, 59.8863576], [10.48653, 59.8864865], [10.4869323, 59.8866045], [10.4873254, 59.8867138], [10.4878215, 59.8868491], [10.488655, 59.8870621], [10.4895545, 59.8872754], [10.4902153, 59.8874217], [10.4907209, 59.887526], [10.4912286, 59.8876293], [10.4920637, 59.887795], [10.4942842, 59.8882311], [10.5007938, 59.8895074]]}, "properties": {"electrified": "contact_line", "frequency": "16.67", "gauge": "1435", "maxspeed": "160", "name": "Askerbanen", "operator": "Bane NOR", "passenger_lines": "2", "railway": "rail", "tunnel": "yes", "usage": "main", "voltage": "15000", "length_km": 3.142, "maxspeed_kmh": 160.0}}, {"type": "Feature", "geometry": {"type": "LineString", "coordinates": [[10.5061809, 59.8905425], [10.5051928, 59.8903794], [10.5045477, 59.8902714], [10.5038204, 59.8901441], [10.5034021, 59.8900685]]}, "properties": {"electrified": "contact_line", "frequency": "16.67", "gauge": "1435", "name": "Askerbanen", "operator": "Bane NOR", "passenger_lines": "2", "railway": "rail", "tunnel": "yes", "usage": "main", "voltage": "15000", "length_km": 0.164}}, {"type": "Feature", "geometry": {"type": "LineString", "coordinates": [[10.5071429, 59.8903855], [10.5084532, 59.8905409], [10.5094866, 59.8906659], [10.5097052, 59.890691], [10.5099257, 59.8907142], [10.5100772, 59.890731], [10.5102288, 59.890746], [10.5103777, 59.8907601], [10.5105301, 59.8907742], [10.5106796, 59.8907864], [10.5108272, 59.8907968], [10.5109766, 59.8908081], [10.5111279, 59.8908176], [10.5113065, 59.8908294], [10.5114852, 59.8908376], [10.5116638, 59.8908462], [10.5118425, 59.890853], [10.5120708, 59.8908595], [10.5122972, 59.890865], [10.5125246, 59.8908701], [10.5127537, 59.8908716], [10.5135279, 59.8908762], [10.514366, 59.8908815], [10.5150772, 59.8908852]]}, "properties": {"electrified": "contact_line", "frequency": "16.67", "gauge": "1435", "maxspeed": "110", "name": "Askerbanen", "operator": "Bane NOR", "passenger_lines": "2", "railway": "rail", "usage": "main", "voltage": "15000", "length_km": 0.45, "maxspeed_kmh": 110.0}}, {"type": "Feature", "geometry": {"type": "LineString", "coordinates": [[10.4591194, 59.8660857], [10.4568843, 59.8647209], [10.4545575, 59.8632975], [10.4536871, 59.862736], [10.4522602, 59.8617475], [10.4504899, 59.8603442], [10.449004, 59.8589355], [10.4480384, 59.8578984], [10.4471425, 59.8567562], [10.4467563, 59.8561973], [10.4442967, 59.8524795], [10.4436181, 59.8514477], [10.4421066, 59.8492491], [10.4412631, 59.8479126], [10.4405845, 59.8468321], [10.4399945, 59.8457717], [10.4394285, 59.8445362], [10.4390503, 59.8433707], [10.4387955, 59.8422779], [10.4386104, 59.841084], [10.4382778, 59.8380034], [10.4382649, 59.8378713]]}, "properties": {"electrified": "contact_line", "frequency": "16.67", "gauge": "1435", "maxspeed": "160", "name": "Askerbanen", "operator": "Bane NOR", "passenger_lines": "2", "railway": "rail", "tunnel": "yes", "usage": "main", "voltage": "15000", "length_km": 3.421, "maxspeed_kmh": 160.0}}, {"type": "Feature", "geometry": {"type": "LineString", "coordinates": [[10.459058, 59.8661169], [10.4568173, 59.8647519], [10.4544891, 59.8633184], [10.4536201, 59.8627683], [10.4521891, 59.8617785], [10.4504202, 59.8603685], [10.4489316, 59.8589597], [10.4479713, 59.8579132], [10.4470674, 59.8567724], [10.4466839, 59.8562148], [10.4442216, 59.8525011], [10.4435296, 59.8514571], [10.4419578, 59.849082], [10.4411854, 59.8479247], [10.4405094, 59.8468523], [10.4399059, 59.8457825], [10.4393507, 59.844551], [10.4389618, 59.8434017], [10.4386963, 59.8422914], [10.4385326, 59.8410853], [10.4382935, 59.8388631], [10.4382001, 59.8379953], [10.4381872, 59.8378724]]}, "properties": {"electrified": "contact_line", "frequency": "16.67", "gauge": "1435", "maxspeed": "160", "name": "Askerbanen", "operator": "Bane NOR", "passenger_lines": "2", "railway": "rail", "tunnel": "yes", "usage": "main", "voltage": "15000", "length_km": 3.425, "maxspeed_kmh": 160.0}}, {"type": "Feature", "geometry": {"type": "LineString", "coordinates": [[10.4649744, 59.869752], [10.459058, 59.8661169]]}, "properties": {"electrified": "contact_line", "frequency": "16.67", "gauge": "1435", "maxspeed": "160", "name": "Askerbanen", "operator": "Bane NOR", "passenger_lines": "2", "railway": "rail", "usage": "main", "voltage": "15000", "length_km": 0.524, "maxspeed_kmh": 160.0}}, {"type": "Feature", "geometry": {"type": "LineString", "coordinates": [[10.5167608, 59.8908995], [10.5169684, 59.8909042], [10.5172315, 59.8909122], [10.5174122, 59.89092], [10.5175928, 59.8909295], [10.5177727, 59.8909398], [10.5179525, 59.8909516], [10.5181055, 59.8909631], [10.5182585, 59.8909754], [10.5184108, 59.8909889], [10.5185661, 59.8910032], [10.5187009, 59.8910168], [10.518834, 59.8910319], [10.518968, 59.891047], [10.5191019, 59.8910629], [10.5192604, 59.8910828], [10.5194221, 59.8911034], [10.5195779, 59.8911261], [10.5197353, 59.8911503], [10.5198583, 59.8911697], [10.5199814, 59.8911898], [10.5201287, 59.8912154], [10.5202761, 59.891241]]}, "properties": {"electrified": "contact_line", "frequency": "16.67", "gauge": "1435", "maxspeed": "110", "name": "Askerbanen", "operator": "Bane NOR", "passenger_lines": "4", "railway": "rail", "usage": "main", "voltage": "15000", "length_km": 0.201, "maxspeed_kmh": 110.0}}, {"type": "Feature", "geometry": {"type": "LineString", "coordinates": [[10.5149243, 59.8910226], [10.5135754, 59.8910161], [10.5127454, 59.8910111], [10.5125166, 59.8910103], [10.5122878, 59.8910078], [10.5120574, 59.8910049], [10.5118286, 59.8910005], [10.5116449, 59.8909967], [10.5114596, 59.8909922], [10.5112735, 59.8909865], [10.5110906, 59.89098], [10.5107737, 59.8909685], [10.5104567, 59.8909547], [10.5101472, 59.8909383], [10.5098378, 59.8909196], [10.5096087, 59.8909049], [10.5093828, 59.8908894], [10.509113, 59.890869], [10.5088448, 59.8908478], [10.5085886, 59.8908258], [10.5083341, 59.8908023], [10.5081036, 59.89078], [10.5078747, 59.8907562], [10.5077041, 59.890738], [10.5075352, 59.8907183], [10.5073654, 59.8906986], [10.5071972, 59.8906773], [10.5070372, 59.8906578], [10.5068787, 59.8906375], [10.5067171, 59.8906164], [10.5065618, 59.8905945], [10.5061809, 59.8905425]]}, "properties": {"electrified": "contact_line", "frequency": "16.67", "gauge": "1435", "maxspeed": "110", "name": "Askerbanen", "operator": "Bane NOR", "passenger_lines": "2", "railway": "rail", "usage": "main", "voltage": "15000", "length_km": 0.495, "maxspeed_kmh": 110.0}}, {"type": "Feature", "geometry": {"type": "LineString", "coordinates": [[10.5150772, 59.8908852], [10.5154302, 59.8908888], [10.5157831, 59.8908909], [10.5165033, 59.8908954], [10.5167608, 59.8908995]]}, "properties": {"bridge": "yes", "electrified": "contact_line", "frequency": "16.67", "gauge": "1435", "maxspeed": "110", "name": "Askerbanen", "operator": "Bane NOR", "passenger_lines": "4", "railway": "rail", "usage": "main", "voltage": "15000", "length_km": 0.094, "maxspeed_kmh": 110.0}}, {"type": "Feature", "geometry": {"type": "LineString", "coordinates": [[10.5166025, 59.8910384], [10.5164939, 59.8910362], [10.5163134, 59.891033], [10.5161353, 59.8910316], [10.5159554, 59.8910306], [10.5157767, 59.8910295], [10.5154135, 59.8910272], [10.5150589, 59.8910239], [10.5149243, 59.8910226]]}, "properties": {"bridge": "yes", "electrified": "contact_line", "frequency": "16.67", "gauge": "1435", "maxspeed": "110", "name": "Askerbanen", "operator": "Bane NOR", "passenger_lines": "4", "railway": "rail", "usage": "main", "voltage": "15000", "length_km": 0.094, "maxspeed_kmh": 110.0}}, {"type": "Feature", "geometry": {"type": "LineString", "coordinates": [[10.5201168, 59.8913734], [10.5200012, 59.8913537], [10.5198856, 59.8913352], [10.5197653, 59.8913152], [10.5196462, 59.891297], [10.5194915, 59.8912728], [10.5193357, 59.891251], [10.5191805, 59.8912301], [10.519024, 59.8912104], [10.5188923, 59.8911949], [10.5187641, 59.89118], [10.5186342, 59.8911657], [10.5185042, 59.8911525], [10.5183547, 59.8911378], [10.5182053, 59.8911243], [10.5180564, 59.8911113], [10.5179099, 59.8911008], [10.5177332, 59.8910875], [10.5175576, 59.8910759], [10.5173808, 59.8910653], [10.5172064, 59.8910577], [10.5170536, 59.8910516], [10.5169045, 59.8910462], [10.5167517, 59.8910414], [10.5166025, 59.8910384]]}, "properties": {"electrified": "contact_line", "frequency": "16.67", "gauge": "1435", "maxspeed": "110", "name": "Askerbanen", "operator": "Bane NOR", "passenger_lines": "4", "railway": "rail", "usage": "main", "voltage": "15000", "length_km": 0.201, "maxspeed_kmh": 110.0}}, {"type": "Feature", "geometry": {"type": "LineString", "coordinates": [[10.5321029, 59.8949175], [10.5322674, 59.8949725], [10.5327785, 59.8951405], [10.5334232, 59.8953511], [10.5336986, 59.8954365], [10.5339804, 59.8955195], [10.5343015, 59.8956164], [10.5347474, 59.8957475], [10.5351996, 59.8958762], [10.5355529, 59.8959724], [10.5359093, 59.8960671], [10.5361826, 59.8961355]]}, "properties": {"electrified": "contact_line", "frequency": "16.67", "gauge": "1435", "name": "Askerbanen", "operator": "Bane NOR", "passenger_lines": "2", "railway": "rail", "usage": "main", "voltage": "15000", "length_km": 0.266}}, {"type": "Feature", "geometry": {"type": "LineString", "coordinates": [[10.6393569, 59.9135009], [10.6395663, 59.9135202], [10.6397901, 59.9135439], [10.6400037, 59.9135684], [10.6403021, 59.9136081], [10.6406614, 59.9136601], [10.6411798, 59.9137383]]}, "properties": {"bridge": "yes", "electrified": "contact_line", "frequency": "16.67", "gauge": "1435", "maxspeed": "80", "name": "Askerbanen", "operator": "Bane NOR", "passenger_lines": "4", "railway": "rail", "usage": "main", "voltage": "15000", "length_km": 0.105, "maxspeed_kmh": 80.0}}, {"type": "Feature", "geometry": {"type": "LineString", "coordinates": [[10.6428026, 59.9140457], [10.641143, 59.9137986]]}, "properties": {"electrified": "contact_line", "frequency": "16.67", "gauge": "1435", "maxspeed": "80", "name": "Askerbanen", "operator": "Bane NOR", "passenger_lines": "4", "railway": "rail", "usage": "main", "voltage": "15000", "length_km": 0.097, "maxspeed_kmh": 80.0}}, {"type": "Feature", "geometry": {"type": "LineString", "coordinates": [[10.5371279, 59.8963725], [10.5380319, 59.8965947], [10.5397708, 59.8970157], [10.5423105, 59.8976369], [10.5439869, 59.8980474], [10.5447639, 59.8982366], [10.5457042, 59.8984887], [10.5468994, 59.8988326], [10.5477092, 59.8990939], [10.5484034, 59.8993391], [10.5491114, 59.8996005], [10.5497825, 59.8998757], [10.5502807, 59.9000897], [10.5508549, 59.9003523], [10.5517541, 59.9007981], [10.5534411, 59.9017511], [10.5547572, 59.9025433], [10.5553671, 59.9029064], [10.5558923, 59.9032171], [10.5564304, 59.903523], [10.5569262, 59.9037895], [10.5574089, 59.9040463], [10.5579796, 59.9043423], [10.558521, 59.9046089], [10.5590021, 59.9048379], [10.5596632, 59.9051439], [10.5601959, 59.9053798], [10.5605681, 59.9055428], [10.5607956, 59.9056424], [10.5613929, 59.9058875], [10.5622439, 59.9062275], [10.5628873, 59.9064761], [10.5634201, 59.9066704], [10.5639574, 59.9068623], [10.5645317, 59.9070601], [10.5650875, 59.9072463], [10.5657794, 59.9074717], [10.5663783, 59.9076573], [10.5669784, 59.9078364], [10.5675557, 59.9080016], [10.5680204, 59.9081324], [10.568707, 59.908318], [10.5696007, 59.9085486], [10.570478, 59.9087595], [10.5711487, 59.9089184], [10.5721019, 59.90913], [10.5730139, 59.909317], [10.5741449, 59.9095345], [10.575302, 59.9097376], [10.5762916, 59.9098988], [10.5777261, 59.9101116], [10.5796053, 59.9103645], [10.5845418, 59.911031]]}, "properties": {"electrified": "contact_line", "frequency": "16.67", "gauge": "1435", "maxspeed": "160", "name": "Askerbanen", "operator": "Bane NOR", "passenger_lines": "2", "railway": "rail", "tunnel": "yes", "usage": "main", "voltage": "15000", "length_km": 3.177, "maxspeed_kmh": 160.0}}, {"type": "Feature", "geometry": {"type": "LineString", "coordinates": [[10.641143, 59.9137986], [10.6406377, 59.9137226], [10.640278, 59.9136679], [10.6399776, 59.9136283], [10.6397603, 59.913601], [10.6395289, 59.9135758], [10.6393259, 59.9135563]]}, "properties": {"bridge": "yes", "electrified": "contact_line", "frequency": "16.67", "gauge": "1435", "maxspeed": "80", "name": "Askerbanen", "operator": "Bane NOR", "passenger_lines": "4", "railway": "rail", "usage": "main", "voltage": "15000", "length_km": 0.105, "maxspeed_kmh": 80.0}}, {"type": "Feature", "geometry": {"type": "LineString", "coordinates": [[10.5845339, 59.9110718], [10.5795843, 59.9104036], [10.5777042, 59.9101505], [10.5762677, 59.9099375], [10.5752762, 59.909776], [10.5741172, 59.9095724], [10.5729842, 59.9093546], [10.5720704, 59.9091672], [10.5711151, 59.9089552], [10.5704434, 59.908796], [10.5695648, 59.9085848], [10.5686694, 59.9083538], [10.5679816, 59.9081678], [10.567516, 59.9080367], [10.5669378, 59.9078713], [10.5663364, 59.9076919], [10.5657362, 59.9075059], [10.5650431, 59.90728], [10.5644865, 59.9070936], [10.5639112, 59.9068955], [10.563373, 59.9067032], [10.562839, 59.9065085], [10.5621942, 59.9062593], [10.5613422, 59.905919], [10.5607435, 59.9056732], [10.5601427, 59.9054102], [10.5596092, 59.9051739], [10.558947, 59.9048674], [10.558465, 59.904638], [10.5579224, 59.9043708], [10.5573505, 59.9040742], [10.5568673, 59.9038172], [10.5563707, 59.9035501], [10.5558313, 59.9032436], [10.5553056, 59.9029325], [10.5546954, 59.9025692], [10.55338, 59.9017775], [10.5516955, 59.900826], [10.5507994, 59.9003816], [10.5502273, 59.90012], [10.5497308, 59.8999068], [10.5490619, 59.8996324], [10.5483563, 59.8993719], [10.5476642, 59.8991274], [10.5468575, 59.8988672], [10.5456542, 59.8985214], [10.5451865, 59.8984015], [10.5447352, 59.8982848], [10.5443137, 59.8981858], [10.5439366, 59.8980973], [10.5435123, 59.8980025], [10.5431998, 59.8979383], [10.5428826, 59.8978752], [10.5425021, 59.8978006], [10.5419374, 59.8976993], [10.5405689, 59.8974653]]}, "properties": {"electrified": "contact_line", "frequency": "16.67", "gauge": "1435", "maxspeed": "160", "name": "Askerbanen", "operator": "Bane NOR", "passenger_lines": "2", "railway": "rail", "tunnel": "yes", "usage": "main", "voltage": "15000", "length_km": 2.953, "maxspeed_kmh": 160.0}}, {"type": "Feature", "geometry": {"type": "LineString", "coordinates": [[10.6393259, 59.9135563], [10.6392859, 59.9135524], [10.6391305, 59.9135394], [10.6389752, 59.9135279], [10.6388184, 59.9135171], [10.6386644, 59.9135085], [10.6384866, 59.9135], [10.6383121, 59.9134923], [10.6381327, 59.9134871], [10.6379582, 59.9134826], [10.6377722, 59.9134809], [10.6375911, 59.9134807], [10.6374083, 59.9134822], [10.6372305, 59.9134861], [10.637064, 59.9134904], [10.6368976, 59.9134962], [10.6367289, 59.9135043], [10.6365677, 59.9135131], [10.6364154, 59.9135227], [10.6362661, 59.9135339], [10.6361087, 59.9135466], [10.6359631, 59.91356], [10.6358065, 59.9135757], [10.6356513, 59.9135923], [10.6354962, 59.9136099], [10.635344, 59.9136298], [10.6351833, 59.9136511], [10.635027, 59.9136746], [10.6348692, 59.9136985], [10.6347233, 59.9137239], [10.6345517, 59.9137527], [10.6344112, 59.9137792], [10.6342582, 59.913808], [10.634111, 59.9138382], [10.6338105, 59.9139029], [10.633513, 59.9139699], [10.6331964, 59.9140394]]}, "properties": {"electrified": "contact_line", "frequency": "16.67", "gauge": "1435", "maxspeed": "80", "name": "Askerbanen", "operator": "Bane NOR", "passenger_lines": "4", "railway": "rail", "usage": "main", "voltage": "15000", "length_km": 0.354, "maxspeed_kmh": 80.0}}, {"type": "Feature", "geometry": {"type": "LineString", "coordinates": [[10.6273044, 59.9148792], [10.6276512, 59.9148739], [10.6278954, 59.9148685], [10.6281381, 59.9148597], [10.6284043, 59.9148445], [10.6286689, 59.9148267], [10.6289288, 59.9148055], [10.6291871, 59.914781], [10.6294524, 59.9147501], [10.6297194, 59.9147175], [10.6299756, 59.9146792], [10.6302287, 59.9146382], [10.6304794, 59.9145928], [10.6307283, 59.9145424], [10.6310549, 59.9144728], [10.6311762, 59.9144445], [10.6314759, 59.9143747]]}, "properties": {"electrified": "contact_line", "frequency": "16.67", "gauge": "1435", "maxspeed": "80", "name": "Askerbanen", "operator": "Bane NOR", "passenger_lines": "2", "railway": "rail", "usage": "main", "voltage": "15000", "length_km": 0.242, "maxspeed_kmh": 80.0}}, {"type": "Feature", "geometry": {"type": "LineString", "coordinates": [[10.5202761, 59.891241], [10.5204807, 59.8912806], [10.5206604, 59.8913158], [10.5208417, 59.891355], [10.5210182, 59.8913927], [10.5211994, 59.8914343], [10.5213828, 59.8914779], [10.521563, 59.8915232], [10.5217459, 59.8915709], [10.5219273, 59.891619], [10.5220943, 59.8916656], [10.5222613, 59.8917122], [10.5224282, 59.8917602], [10.5225916, 59.8918072], [10.5227902, 59.8918636]]}, "properties": {"bridge": "yes", "electrified": "contact_line", "frequency": "16.67", "gauge": "1435", "maxspeed": "110", "name": "Askerbanen", "operator": "Bane NOR", "passenger_lines": "4", "railway": "rail", "usage": "main", "voltage": "15000", "length_km": 0.157, "maxspeed_kmh": 110.0}}, {"type": "Feature", "geometry": {"type": "LineString", "coordinates": [[10.5226533, 59.8919934], [10.5224473, 59.8919297], [10.5222853, 59.8918811], [10.5221226, 59.8918335], [10.5219578, 59.8917871], [10.5217929, 59.8917423], [10.5216164, 59.8916962], [10.5214382, 59.8916516], [10.5212576, 59.8916084], [10.5210776, 59.8915655], [10.520903, 59.8915285], [10.5207295, 59.8914921], [10.5205549, 59.8914569], [10.520378, 59.8914228], [10.5202272, 59.8913943], [10.5201168, 59.8913734]]}, "properties": {"bridge": "yes", "electrified": "contact_line", "frequency": "16.67", "gauge": "1435", "maxspeed": "110", "name": "Askerbanen", "operator": "Bane NOR", "passenger_lines": "4", "railway": "rail", "usage": "main", "voltage": "15000", "length_km": 0.158, "maxspeed_kmh": 110.0}}, {"type": "Feature", "geometry": {"type": "LineString", "coordinates": [[10.5366854, 59.8966228], [10.5364542, 59.896564], [10.5362292, 59.8964975], [10.535939, 59.8964063], [10.5356149, 59.8963019], [10.5352619, 59.8961838], [10.534915, 59.8960636], [10.5340555, 59.8957675], [10.533245, 59.8954834], [10.5326044, 59.8952669], [10.5320205, 59.8950713], [10.531582, 59.8949268], [10.5313045, 59.8948328], [10.5307953, 59.8946657], [10.5306736, 59.8946261]]}, "properties": {"electrified": "contact_line", "frequency": "16.67", "gauge": "1435", "name": "Askerbanen", "operator": "Bane NOR", "passenger_lines": "2", "railway": "rail", "usage": "main", "voltage": "15000", "length_km": 0.404}}, {"type": "Feature", "geometry": {"type": "LineString", "coordinates": [[10.6411798, 59.9137383], [10.6428379, 59.9139849]]}, "properties": {"electrified": "contact_line", "frequency": "16.67", "gauge": "1435", "maxspeed": "80", "name": "Askerbanen", "operator": "Bane NOR", "passenger_lines": "4", "railway": "rail", "usage": "main", "voltage": "15000", "length_km": 0.097, "maxspeed_kmh": 80.0}}, {"type": "Feature", "geometry": {"type": "LineString", "coordinates": [[10.5227902, 59.8918636], [10.5231538, 59.891971], [10.5236647, 59.892119], [10.5241181, 59.8922494], [10.5244775, 59.8923527], [10.5248761, 59.8924689], [10.5252531, 59.8925753], [10.525579, 59.892678], [10.5259014, 59.8927817], [10.526588, 59.8930192], [10.527424, 59.8933213], [10.5281491, 59.8935832], [10.528701, 59.8937808], [10.5290038, 59.8938865], [10.5293102, 59.8939904], [10.530234, 59.8942976], [10.5308932, 59.8945179], [10.5321029, 59.8949175]]}, "properties": {"electrified": "contact_line", "frequency": "16.67", "gauge": "1435", "name": "Askerbanen", "operator": "Bane NOR", "passenger_lines": "4", "railway": "rail", "usage": "main", "voltage": "15000", "length_km": 0.623}}, {"type": "Feature", "geometry": {"type": "LineString", "coordinates": [[10.5306736, 59.8946261], [10.5295965, 59.8942692], [10.5293525, 59.8941889], [10.5291375, 59.8941216], [10.5288231, 59.8940224], [10.5285052, 59.8939268], [10.5279188, 59.8937547], [10.527152, 59.8935281], [10.5267062, 59.8933935], [10.5262729, 59.8932553], [10.5259336, 59.8931395], [10.5255979, 59.8930237], [10.5249699, 59.8928022], [10.5246105, 59.8926769], [10.5244094, 59.8926042], [10.5238955, 59.8924231], [10.5234724, 59.8922737], [10.523232, 59.8921882], [10.5229905, 59.8921063], [10.5226533, 59.8919934]]}, "properties": {"electrified": "contact_line", "frequency": "16.67", "gauge": "1435", "maxspeed": "110", "name": "Askerbanen", "operator": "Bane NOR", "passenger_lines": "4", "railway": "rail", "usage": "main", "voltage": "15000", "length_km": 0.537, "maxspeed_kmh": 110.0}}, {"type": "Feature", "geometry": {"type": "LineString", "coordinates": [[10.6331659, 59.9140001], [10.6334723, 59.9139313], [10.6337745, 59.9138638], [10.6340827, 59.9137985], [10.6342166, 59.9137707], [10.6343563, 59.9137436], [10.6345247, 59.9137136], [10.6347004, 59.9136843], [10.6348499, 59.9136586], [10.6350055, 59.913634], [10.63516, 59.9136111], [10.6353196, 59.9135897], [10.6354704, 59.9135704], [10.6356274, 59.9135517], [10.6357839, 59.913534], [10.6359455, 59.9135178], [10.636095, 59.9135033], [10.6362466, 59.9134904], [10.6363988, 59.9134788], [10.6365541, 59.9134677], [10.6366917, 59.9134591], [10.6368804, 59.913449], [10.6369779, 59.9134453], [10.6370656, 59.913442], [10.637227, 59.9134373], [10.6374073, 59.913434], [10.6375927, 59.9134316], [10.6377767, 59.9134311], [10.637962, 59.9134326], [10.6381392, 59.9134363], [10.6383189, 59.9134414], [10.6384974, 59.913448], [10.6386772, 59.913456], [10.6389499, 59.9134712], [10.639197, 59.9134879], [10.6393569, 59.9135009]]}, "properties": {"electrified": "contact_line", "frequency": "16.67", "gauge": "1435", "maxspeed": "80", "name": "Askerbanen", "operator": "Bane NOR", "passenger_lines": "4", "railway": "rail", "usage": "main", "voltage": "15000", "length_km": 0.357, "maxspeed_kmh": 80.0}}, {"type": "Feature", "geometry": {"type": "LineString", "coordinates": [[10.6315041, 59.914415], [10.631066, 59.9145132], [10.6307617, 59.9145789], [10.6305089, 59.9146288], [10.6302511, 59.9146761], [10.629997, 59.9147185], [10.6297429, 59.914755], [10.629474, 59.9147892], [10.6292026, 59.9148218], [10.6289384, 59.9148471], [10.6286793, 59.9148683], [10.6284143, 59.9148858], [10.628146, 59.9149009], [10.6278982, 59.9149103], [10.6276538, 59.9149155], [10.6273026, 59.9149187]]}, "properties": {"electrified": "contact_line", "frequency": "16.67", "gauge": "1435", "maxspeed": "80", "name": "Askerbanen", "operator": "Bane NOR", "passenger_lines": "2", "railway": "rail", "usage": "main", "voltage": "15000", "length_km": 0.244, "maxspeed_kmh": 80.0}}, {"type": "Feature", "geometry": {"type": "LineString", "coordinates": [[10.5007545, 59.8895427], [10.4940743, 59.8882325], [10.4920409, 59.8878337], [10.4911998, 59.8876675], [10.4906753, 59.8875617], [10.4901838, 59.887458], [10.4895148, 59.8873103], [10.4886204, 59.8870982], [10.4877886, 59.8868861], [10.4872879, 59.8867491], [10.4868921, 59.8866394], [10.486477, 59.8865184], [10.4860573, 59.8863929], [10.4855986, 59.8862489], [10.4851522, 59.8861045], [10.4846176, 59.885925], [10.4840939, 59.8857416], [10.4836025, 59.8855608], [10.4831082, 59.8853719], [10.4824396, 59.8851051], [10.4818296, 59.884849], [10.4813805, 59.8846504], [10.4809376, 59.8844488], [10.4806238, 59.8843006], [10.4803268, 59.8841545], [10.4800404, 59.8840146], [10.4797527, 59.883869], [10.4785673, 59.8832192], [10.4772852, 59.8824399], [10.4760299, 59.8815624], [10.4745708, 59.8803417], [10.4734926, 59.8792541], [10.4727845, 59.8783967], [10.4720844, 59.8773993], [10.4712583, 59.8760478], [10.4702471, 59.8745199], [10.4688014, 59.8728398], [10.46742, 59.8715676], [10.4661192, 59.870539], [10.4649744, 59.869752]]}, "properties": {"electrified": "contact_line", "frequency": "16.67", "gauge": "1435", "maxspeed": "160", "name": "Askerbanen", "operator": "Bane NOR", "passenger_lines": "2", "railway": "rail", "tunnel": "yes", "usage": "main", "voltage": "15000", "length_km": 3.143, "maxspeed_kmh": 160.0}}, {"type": "Feature", "geometry": {"type": "LineString", "coordinates": [[10.5007938, 59.8895074], [10.5011772, 59.889582], [10.5017616, 59.8896875], [10.5023838, 59.8897879], [10.5030401, 59.8898944], [10.5038295, 59.8899938], [10.5046585, 59.8900857], [10.5071429, 59.8903855]]}, "properties": {"electrified": "contact_line", "frequency": "16.67", "gauge": "1435", "maxspeed": "110", "name": "Askerbanen", "operator": "Bane NOR", "passenger_lines": "2", "railway": "rail", "tunnel": "yes", "usage": "main", "voltage": "15000", "length_km": 0.369, "maxspeed_kmh": 110.0}}, {"type": "Feature", "geometry": {"type": "LineString", "coordinates": [[10.4382649, 59.8378713], [10.4382135, 59.8373484], [10.4380646, 59.8367466], [10.4378514, 59.8363019], [10.4374772, 59.8357769], [10.4370936, 59.8353729], [10.4366477, 59.8350188], [10.4362403, 59.8347116]]}, "properties": {"electrified": "contact_line", "frequency": "16.67", "gauge": "1435", "name": "Askerbanen", "operator": "Bane NOR", "passenger_lines": "2", "railway": "rail", "tunnel": "yes", "usage": "main", "voltage": "15000", "length_km": 0.377}}, {"type": "Feature", "geometry": {"type": "LineString", "coordinates": [[10.4381872, 59.8378724], [10.438133, 59.8373551], [10.4379908, 59.8367729], [10.4377816, 59.8363214], [10.4374034, 59.8357931], [10.4369991, 59.8353933], [10.4365773, 59.8350432], [10.4361669, 59.834756]]}, "properties": {"electrified": "contact_line", "frequency": "16.67", "gauge": "1435", "name": "Askerbanen", "operator": "Bane NOR", "passenger_lines": "2", "railway": "rail", "tunnel": "yes", "usage": "main", "voltage": "15000", "length_km": 0.372}}, {"type": "Feature", "geometry": {"type": "LineString", "coordinates": [[10.5361826, 59.8961355], [10.5371279, 59.8963725]]}, "properties": {"electrified": "contact_line", "frequency": "16.67", "gauge": "1435", "name": "Askerbanen", "operator": "Bane NOR", "passenger_lines": "2", "railway": "rail", "tunnel": "yes", "usage": "main", "voltage": "15000", "length_km": 0.059}}, {"type": "Feature", "geometry": {"type": "LineString", "coordinates": [[10.5405689, 59.8974653], [10.5399143, 59.897354], [10.5392755, 59.8972343], [10.538617, 59.8971018], [10.5379601, 59.8969504], [10.5372552, 59.8967756], [10.5366854, 59.8966228]]}, "properties": {"electrified": "contact_line", "frequency": "16.67", "gauge": "1435", "name": "Askerbanen", "operator": "Bane NOR", "passenger_lines": "2", "railway": "rail", "tunnel": "yes", "usage": "main", "voltage": "15000", "length_km": 0.237}}, {"type": "Feature", "geometry": {"type": "LineString", "coordinates": [[10.5034021, 59.8900685], [10.5028818, 59.8899669], [10.5017128, 59.8897369], [10.5011463, 59.8896195], [10.5007545, 59.8895427]]}, "properties": {"electrified": "contact_line", "frequency": "16.67", "gauge": "1435", "name": "Askerbanen", "operator": "Bane NOR", "passenger_lines": "2", "railway": "rail", "tunnel": "yes", "usage": "main", "voltage": "15000", "length_km": 0.159}}, {"type": "Feature", "geometry": {"type": "LineString", "coordinates": [[10.6331964, 59.9140394], [10.63231, 59.9142345], [10.6315041, 59.914415]]}, "properties": {"electrified": "contact_line", "frequency": "16.67", "gauge": "1435", "maxspeed": "80", "name": "Askerbanen", "operator": "Bane NOR", "passenger_lines": "4", "railway": "rail", "usage": "main", "voltage": "15000", "length_km": 0.104, "maxspeed_kmh": 80.0}}, {"type": "Feature", "geometry": {"type": "LineString", "coordinates": [[10.6314759, 59.9143747], [10.6322571, 59.9142002], [10.6331659, 59.9140001]]}, "properties": {"electrified": "contact_line", "frequency": "16.67", "gauge": "1435", "maxspeed": "80", "name": "Askerbanen", "operator": "Bane NOR", "passenger_lines": "4", "railway": "rail", "usage": "main", "voltage": "15000", "length_km": 0.103, "maxspeed_kmh": 80.0}}, {"type": "Feature", "geometry": {"type": "LineString", "coordinates": [[10.5861913, 59.9112537], [10.6046014, 59.9137391], [10.606005, 59.9139179], [10.6071416, 59.9140445], [10.6081911, 59.9141501], [10.6089393, 59.9142182], [10.6097718, 59.9142874], [10.6105952, 59.9143426], [10.6113902, 59.9143908], [10.6120774, 59.9144285], [10.6127761, 59.9144657], [10.613436, 59.9144914], [10.614362, 59.9145212], [10.6156599, 59.9145578], [10.6247854, 59.9148155], [10.6254939, 59.914834], [10.626172, 59.9148517], [10.6263211, 59.9148552], [10.6267734, 59.9148658], [10.6273044, 59.9148792]]}, "properties": {"electrified": "contact_line", "frequency": "16.67", "gauge": "1435", "maxspeed": "160", "name": "Askerbanen", "operator": "Bane NOR", "passenger_lines": "2", "railway": "rail", "tunnel": "yes", "usage": "main", "voltage": "15000", "length_km": 2.346, "maxspeed_kmh": 160.0}}, {"type": "Feature", "geometry": {"type": "LineString", "coordinates": [[10.5845418, 59.911031], [10.5861913, 59.9112537]]}, "properties": {"electrified": "contact_line", "frequency": "16.67", "gauge": "1435", "maxspeed": "160", "name": "Askerbanen", "operator": "Bane NOR", "passenger_lines": "2", "railway": "rail", "tunnel": "yes", "usage": "main", "voltage": "15000", "length_km": 0.096, "maxspeed_kmh": 160.0}}, {"type": "Feature", "geometry": {"type": "LineString", "coordinates": [[10.5861787, 59.9112939], [10.5845339, 59.9110718]]}, "properties": {"electrified": "contact_line", "frequency": "16.67", "gauge": "1435", "maxspeed": "160", "name": "Askerbanen", "operator": "Bane NOR", "passenger_lines": "2", "railway": "rail", "tunnel": "yes", "usage": "main", "voltage": "15000", "length_km": 0.095, "maxspeed_kmh": 160.0}}, {"type": "Feature", "geometry": {"type": "LineString", "coordinates": [[10.6273026, 59.9149187], [10.6267706, 59.9149097], [10.6263183, 59.9148961], [10.6261733, 59.9148917], [10.6254888, 59.9148732], [10.6247856, 59.9148541], [10.6246328, 59.9148498], [10.6156554, 59.9145981], [10.6143572, 59.9145615], [10.6134303, 59.9145318], [10.6127687, 59.914506], [10.6120687, 59.9144687], [10.611381, 59.914431], [10.610585, 59.9143827], [10.6097598, 59.9143274], [10.6089255, 59.914258], [10.6081759, 59.9141898], [10.6071249, 59.914084], [10.6059864, 59.9139572], [10.604581, 59.9137782], [10.5861787, 59.9112939]]}, "properties": {"electrified": "contact_line", "frequency": "16.67", "gauge": "1435", "maxspeed": "160", "name": "Askerbanen", "operator": "Bane NOR", "passenger_lines": "2", "railway": "rail", "tunnel": "yes", "usage": "main", "voltage": "15000", "length_km": 2.347, "maxspeed_kmh": 160.0}}]}