{"type": "FeatureCollection", "features": [{"type": "Feature", "geometry": {"type": "LineString", "coordinates": [[8.7513515, 58.465758], [8.7518978, 58.4658688], [8.7522233, 58.4659253], [8.75247, 58.4659631], [8.7621084, 58.4672406], [8.7624433, 58.4672792], [8.7626968, 58.4673016], [8.7629523, 58.4673161], [8.763209, 58.4673227], [8.7633805, 58.4673227], [8.7636373, 58.4673158], [8.7639775, 58.467294], [8.7642299, 58.4672685], [8.7643963, 58.4672469], [8.764561, 58.4672221], [8.764804, 58.4671783], [8.7651196, 58.4671082], [8.7652731, 58.4670682], [8.7654974, 58.4670022], [8.7656425, 58.4669545], [8.765831, 58.4668825]]}, "properties": {"electrified": "contact_line", "frequency": "16.67", "gauge": "1435", "maxspeed": "70", "name": "Barbu tunnel", "passenger_lines": "1", "railway": "rail", "tunnel": "yes", "usage": "branch", "voltage": "15000", "length_km": 0.879, "maxspeed_kmh": 70.0}}]}