{"type": "FeatureCollection", "features": [{"type": "Feature", "geometry": {"type": "LineString", "coordinates": [[10.2433495, 60.2013133], [10.2433804, 60.2014059], [10.243434, 60.2015186], [10.2435024, 60.2016159], [10.2435212, 60.2016409]]}, "properties": {"name": "Begna sidespor", "railway": "rail", "service": "spur", "length_km": 0.038}}, {"type": "Feature", "geometry": {"type": "LineString", "coordinates": [[10.2428841, 60.2004121], [10.2429237, 60.2004705], [10.2429747, 60.2005389], [10.2430572, 60.2006462], [10.2431014, 60.2007095], [10.2431671, 60.2008121], [10.2432154, 60.2009134], [10.2433495, 60.2013133], [10.2434105, 60.2015272], [10.243426, 60.2016209], [10.243436, 60.2017472], [10.2434313, 60.2018928], [10.2434246, 60.2020674], [10.2434099, 60.202191]]}, "properties": {"name": "Begna sidespor", "railway": "rail", "service": "spur", "length_km": 0.202}}]}