{"type": "FeatureCollection", "features": [{"type": "Feature", "geometry": {"type": "LineString", "coordinates": [[9.6751055, 59.1274094], [9.6755986, 59.1271551], [9.6764038, 59.126754], [9.6766069, 59.1266547], [9.6769142, 59.1264993]]}, "properties": {"electrified": "contact_line", "frequency": "16.67", "maxspeed": "30", "name": "Bj\u00f8rntvedt sidespor", "railway": "rail", "service": "spur", "usage": "industrial", "voltage": "15000", "length_km": 0.145, "maxspeed_kmh": 30.0}}, {"type": "Feature", "geometry": {"type": "LineString", "coordinates": [[9.6794703, 59.1258671], [9.6797162, 59.1258417], [9.6800979, 59.1257866], [9.6804062, 59.1257213], [9.6806348, 59.1256631], [9.680791, 59.1256167], [9.6809585, 59.125561]]}, "properties": {"electrified": "contact_line", "frequency": "16.67", "maxspeed": "30", "name": "Bj\u00f8rntvedt sidespor", "railway": "rail", "service": "spur", "usage": "industrial", "voltage": "15000", "length_km": 0.093, "maxspeed_kmh": 30.0}}, {"type": "Feature", "geometry": {"type": "LineString", "coordinates": [[9.6780461, 59.1260392], [9.6783596, 59.1259732], [9.6786144, 59.1259353], [9.6788289, 59.1259126]]}, "properties": {"bridge": "yes", "electrified": "contact_line", "frequency": "16.67", "maxspeed": "30", "name": "Bj\u00f8rntvedt sidespor", "railway": "rail", "service": "spur", "usage": "industrial", "voltage": "15000", "length_km": 0.047, "maxspeed_kmh": 30.0}}, {"type": "Feature", "geometry": {"type": "LineString", "coordinates": [[9.6769142, 59.1264993], [9.6773015, 59.1263056], [9.6775322, 59.1262023], [9.6777483, 59.1261251], [9.6780461, 59.1260392]]}, "properties": {"electrified": "contact_line", "frequency": "16.67", "maxspeed": "30", "name": "Bj\u00f8rntvedt sidespor", "railway": "rail", "service": "spur", "usage": "industrial", "voltage": "15000", "length_km": 0.083, "maxspeed_kmh": 30.0}}, {"type": "Feature", "geometry": {"type": "LineString", "coordinates": [[9.6788289, 59.1259126], [9.6794703, 59.1258671]]}, "properties": {"electrified": "contact_line", "frequency": "16.67", "maxspeed": "30", "name": "Bj\u00f8rntvedt sidespor", "railway": "rail", "service": "spur", "usage": "industrial", "voltage": "15000", "length_km": 0.037, "maxspeed_kmh": 30.0}}]}