{"type": "FeatureCollection", "features": [{"type": "Feature", "geometry": {"type": "LineString", "coordinates": [[11.1266155, 59.279509], [11.126563, 59.279247], [11.1265064, 59.2790405], [11.1263786, 59.2786869], [11.1262994, 59.2783288], [11.1262341, 59.2780984], [11.1261924, 59.2779941], [11.1261384, 59.277894], [11.1260414, 59.2777549], [11.125942, 59.2776558], [11.1258447, 59.2775712], [11.1255569, 59.2773933], [11.1251651, 59.2771957], [11.1250034, 59.2770983], [11.1249065, 59.2770336], [11.1248651, 59.2770043], [11.1248034, 59.2769573], [11.1247024, 59.2768562], [11.1245219, 59.2766341], [11.1243912, 59.2764883], [11.1242646, 59.2763785], [11.1240968, 59.2762652], [11.1239075, 59.2761518], [11.1237531, 59.2760645], [11.1235474, 59.2759679], [11.1234182, 59.2759212], [11.1232401, 59.2758713], [11.1227586, 59.2757251], [11.1225719, 59.2756742], [11.1223842, 59.2756315], [11.1222843, 59.275611], [11.1221683, 59.2755918], [11.1212611, 59.2754474], [11.1202989, 59.2752861]]}, "properties": {"name": "Borreg\u00e5rd industrispor", "railway": "rail", "service": "spur", "length_km": 0.647}}, {"type": "Feature", "geometry": {"type": "LineString", "coordinates": [[11.1104386, 59.2712738], [11.110616, 59.2713646], [11.1107607, 59.2714369], [11.1109729, 59.271525], [11.1111642, 59.2715823], [11.111382, 59.2716333], [11.1116282, 59.2716808], [11.1118334, 59.2716989], [11.1120983, 59.2717102], [11.112465, 59.2717069], [11.1131007, 59.2716976], [11.1139725, 59.271685], [11.1149541, 59.2716781], [11.1154157, 59.27167], [11.1156182, 59.2716737], [11.1159708, 59.271671], [11.1163063, 59.2716578], [11.1164484, 59.2716554], [11.1166523, 59.2716595], [11.1180053, 59.2717266], [11.1186797, 59.2717603], [11.1193124, 59.2717922]]}, "properties": {"name": "Borreg\u00e5rd industrispor", "railway": "rail", "service": "spur", "length_km": 0.522}}, {"type": "Feature", "geometry": {"type": "LineString", "coordinates": [[11.1198742, 59.2752126], [11.1188358, 59.2750248], [11.1184631, 59.2749663], [11.1182647, 59.274927], [11.1180542, 59.2748724], [11.1178906, 59.2748295], [11.1167797, 59.2745078], [11.1161632, 59.2743363], [11.1158384, 59.2742412], [11.1148517, 59.2739635], [11.1141082, 59.2737505], [11.1135421, 59.2735888], [11.1133378, 59.273528], [11.1131052, 59.2734425], [11.1129654, 59.2733873], [11.1128251, 59.2733199], [11.1126988, 59.2732524], [11.1124659, 59.2731185], [11.112322, 59.2730133], [11.1121961, 59.2729083], [11.1119871, 59.2726866], [11.1116719, 59.2722599], [11.1115679, 59.2721147], [11.1114768, 59.2719984], [11.1113854, 59.2718962], [11.111269, 59.2717862], [11.1110363, 59.2716279], [11.1106042, 59.2713739], [11.1104386, 59.2712738], [11.1102565, 59.2711497], [11.110082, 59.2710209], [11.1100024, 59.2709453], [11.1099184, 59.270854], [11.1098, 59.2707095]]}, "properties": {"name": "Borreg\u00e5rd industrispor", "railway": "rail", "service": "spur", "length_km": 0.797}}, {"type": "Feature", "geometry": {"type": "LineString", "coordinates": [[11.1230474, 59.2827909], [11.1231635, 59.2827123], [11.1233265, 59.2826171], [11.123479, 59.2825371], [11.1236445, 59.2824606], [11.1237937, 59.282397], [11.1239961, 59.2823232], [11.1241611, 59.2822699], [11.1243323, 59.2822204], [11.1245061, 59.2821765], [11.1247659, 59.2821218], [11.1249892, 59.282076], [11.1251473, 59.2820364], [11.1253049, 59.2819901], [11.1255003, 59.2819233], [11.1257138, 59.2818368], [11.125916, 59.2817395], [11.126087, 59.2816374], [11.1262423, 59.2815352], [11.1263932, 59.2814154], [11.1265161, 59.2812917], [11.1265985, 59.2811784], [11.1266734, 59.2810553], [11.1267242, 59.2809559], [11.126771, 59.2808036]]}, "properties": {"gauge": "1435", "name": "Borreg\u00e5rd industrispor", "operator": "Borregaard", "railway": "rail", "service": "spur", "length_km": 0.321}}, {"type": "Feature", "geometry": {"type": "LineString", "coordinates": [[11.1198442, 59.2752526], [11.1188816, 59.2750672], [11.1182647, 59.274927]]}, "properties": {"name": "Borreg\u00e5rd industrispor", "railway": "rail", "service": "spur", "length_km": 0.097}}, {"type": "Feature", "geometry": {"type": "LineString", "coordinates": [[11.1188031, 59.2755338], [11.1186134, 59.2754984], [11.1184177, 59.2754437], [11.1182314, 59.2753838], [11.1180769, 59.2753166], [11.1178792, 59.2752233], [11.117731, 59.2751408], [11.1176228, 59.2750685], [11.1175997, 59.2750504], [11.1175163, 59.274985], [11.1173021, 59.2748384], [11.1170676, 59.2746994], [11.116879, 59.2746071], [11.1166857, 59.2745243], [11.1161632, 59.2743363]]}, "properties": {"name": "Borreg\u00e5rd industrispor", "railway": "rail", "service": "spur", "length_km": 0.204}}, {"type": "Feature", "geometry": {"type": "LineString", "coordinates": [[11.1214202, 59.2755242], [11.1216486, 59.2755765], [11.1218482, 59.2756276], [11.1220707, 59.2756948], [11.1224014, 59.2758118], [11.1229693, 59.2760018], [11.12335, 59.2761409], [11.1234413, 59.2761854], [11.1235728, 59.276269], [11.1238222, 59.2764745], [11.1242747, 59.2768493]]}, "properties": {"name": "Borreg\u00e5rd industrispor", "railway": "rail", "service": "spur", "length_km": 0.225}}, {"type": "Feature", "geometry": {"type": "LineString", "coordinates": [[11.1178906, 59.2748295], [11.1177585, 59.2747863], [11.1172941, 59.2746193], [11.1171005, 59.2745544], [11.1169174, 59.2745011], [11.1166202, 59.2744217], [11.1163451, 59.2743446], [11.1156128, 59.2741184], [11.1150257, 59.2739313], [11.1148528, 59.2738832], [11.1146545, 59.273837], [11.114454, 59.273793], [11.1141307, 59.273724], [11.1139638, 59.2736884], [11.1137186, 59.2736334], [11.1135421, 59.2735888]]}, "properties": {"name": "Borreg\u00e5rd industrispor", "railway": "rail", "service": "spur", "length_km": 0.285}}, {"type": "Feature", "geometry": {"type": "LineString", "coordinates": [[11.1232401, 59.2758713], [11.1230564, 59.2758251], [11.1227144, 59.2757483], [11.1223154, 59.2756763], [11.121895, 59.2756057], [11.1214202, 59.2755242], [11.1212874, 59.275501], [11.1209254, 59.2754454], [11.1202721, 59.2753277]]}, "properties": {"name": "Borreg\u00e5rd industrispor", "railway": "rail", "service": "spur", "length_km": 0.18}}, {"type": "Feature", "geometry": {"type": "LineString", "coordinates": [[11.1255569, 59.2773933], [11.1252791, 59.2772356], [11.1250978, 59.2771186], [11.124996, 59.2770527], [11.1249165, 59.2769884], [11.1248621, 59.2769393], [11.1247873, 59.2768424], [11.1246215, 59.2766184], [11.1244771, 59.2764663], [11.1243259, 59.2763554], [11.1241513, 59.2762456], [11.1239053, 59.2761155], [11.1235474, 59.2759679]]}, "properties": {"name": "Borreg\u00e5rd industrispor", "railway": "rail", "service": "spur", "length_km": 0.199}}, {"type": "Feature", "geometry": {"type": "LineString", "coordinates": [[11.120025, 59.2749617], [11.1193021, 59.2748207], [11.1190655, 59.2747808], [11.1188113, 59.2747599], [11.1184757, 59.2747446], [11.1182994, 59.2747317]]}, "properties": {"name": "Borreg\u00e5rd industrispor", "railway": "rail", "service": "spur", "length_km": 0.102}}, {"type": "Feature", "geometry": {"type": "LineString", "coordinates": [[11.1211578, 59.2752478], [11.1208831, 59.2751781], [11.1206062, 59.2751151], [11.1203917, 59.275074], [11.1196487, 59.2749356], [11.1189734, 59.274805], [11.1187905, 59.2747796], [11.1182994, 59.2747317], [11.1181487, 59.2747198], [11.1179267, 59.2747027], [11.1175377, 59.274654]]}, "properties": {"name": "Borreg\u00e5rd industrispor", "railway": "rail", "service": "spur", "length_km": 0.218}}, {"type": "Feature", "geometry": {"type": "LineString", "coordinates": [[11.1200573, 59.2749218], [11.1191689, 59.2747502], [11.1188772, 59.2747056], [11.1185806, 59.2746878], [11.1181748, 59.2746875], [11.1179846, 59.2746895], [11.1177777, 59.2746766], [11.1175377, 59.274654], [11.1174003, 59.2746262], [11.1169174, 59.2745011]]}, "properties": {"name": "Borreg\u00e5rd industrispor", "railway": "rail", "service": "spur", "length_km": 0.188}}, {"type": "Feature", "geometry": {"type": "LineString", "coordinates": [[11.1227586, 59.2757251], [11.1220181, 59.2754979], [11.1217501, 59.2754094], [11.1211578, 59.2752478]]}, "properties": {"name": "Borreg\u00e5rd industrispor", "railway": "rail", "service": "spur", "length_km": 0.106}}, {"type": "Feature", "geometry": {"type": "LineString", "coordinates": [[11.1172138, 59.2717415], [11.116205, 59.2716921], [11.1157842, 59.2716793], [11.1156182, 59.2716737]]}, "properties": {"name": "Borreg\u00e5rd industrispor", "railway": "rail", "service": "spur", "length_km": 0.091}}, {"type": "Feature", "geometry": {"type": "LineString", "coordinates": [[11.1173593, 59.2718657], [11.1163336, 59.2717222], [11.1162008, 59.2717065], [11.115977, 59.2716895], [11.1157842, 59.2716793]]}, "properties": {"name": "Borreg\u00e5rd industrispor", "railway": "rail", "service": "spur", "length_km": 0.092}}]}