{"type": "FeatureCollection", "features": [{"type": "Feature", "geometry": {"type": "LineString", "coordinates": [[9.6879561, 59.0699323], [9.6880961, 59.0694904], [9.6888418, 59.0679543], [9.6890482, 59.0675228], [9.6891361, 59.0673057], [9.6892039, 59.0670878], [9.6893366, 59.0666818], [9.6894066, 59.0664421], [9.6894555, 59.0662747]]}, "properties": {"electrified": "contact_line", "frequency": "16.67", "maxspeed": "60", "name": "Brevikbanen", "passenger_lines": "1", "railway": "rail", "usage": "branch", "voltage": "15000", "length_km": 0.417, "maxspeed_kmh": 60.0}}, {"type": "Feature", "geometry": {"type": "LineString", "coordinates": [[9.6863824, 59.0995351], [9.686124, 59.0992991]]}, "properties": {"bridge": "yes", "electrified": "contact_line", "frequency": "16.67", "maxspeed": "60", "name": "Brevikbanen", "passenger_lines": "1", "railway": "rail", "usage": "branch", "voltage": "15000", "length_km": 0.03, "maxspeed_kmh": 60.0}}, {"type": "Feature", "geometry": {"type": "LineString", "coordinates": [[9.686124, 59.0992991], [9.6858875, 59.0990831], [9.6857024, 59.0988692], [9.6855507, 59.0986272], [9.6854871, 59.0984803], [9.6854522, 59.0983593], [9.6854165, 59.0981506], [9.6854166, 59.0979458], [9.6854383, 59.0977296], [9.6855024, 59.0975152], [9.68563, 59.0972516], [9.6857941, 59.0970327], [9.6859664, 59.0968441], [9.6861707, 59.0966573], [9.6865868, 59.0963145], [9.6871593, 59.0958317], [9.687726, 59.0953744], [9.6884047, 59.094806], [9.6891429, 59.0941878], [9.6905896, 59.0929767], [9.6917672, 59.0919982], [9.6921725, 59.0916404], [9.6924443, 59.0913325], [9.6927394, 59.0909344], [9.6935887, 59.0893065], [9.6939048, 59.0887058], [9.6944013, 59.0877016], [9.6946937, 59.087194]]}, "properties": {"electrified": "contact_line", "frequency": "16.67", "maxspeed": "60", "name": "Brevikbanen", "passenger_lines": "1", "railway": "rail", "usage": "branch", "voltage": "15000", "length_km": 1.484, "maxspeed_kmh": 60.0}}, {"type": "Feature", "geometry": {"type": "LineString", "coordinates": [[9.6894555, 59.0662747], [9.6898402, 59.0650202], [9.689936, 59.0647075], [9.6899662, 59.0645895], [9.6899932, 59.064434], [9.6899932, 59.0642717], [9.6899866, 59.0642086]]}, "properties": {"electrified": "contact_line", "frequency": "16.67", "maxspeed": "60", "name": "Brevikbanen", "passenger_lines": "1", "railway": "rail", "usage": "branch", "voltage": "15000", "length_km": 0.233, "maxspeed_kmh": 60.0}}, {"type": "Feature", "geometry": {"type": "LineString", "coordinates": [[9.6947448, 59.0870898], [9.6948558, 59.0868645], [9.6950845, 59.0864211], [9.6953399, 59.0860333], [9.6956257, 59.0857622], [9.6962723, 59.085221], [9.6964635, 59.0850218], [9.696622, 59.0847953], [9.6967465, 59.0845055], [9.6967974, 59.0841972], [9.6968277, 59.0837775], [9.6968737, 59.0835723], [9.6969355, 59.0834006], [9.6971094, 59.0830673], [9.6972688, 59.0827973], [9.6973686, 59.0825811], [9.6974463, 59.0823807], [9.6975152, 59.0821742], [9.6975749, 59.0819731], [9.6975894, 59.0817666], [9.6975912, 59.0814134], [9.6975657, 59.0812518]]}, "properties": {"electrified": "contact_line", "frequency": "16.67", "maxspeed": "60", "name": "Brevikbanen", "passenger_lines": "1", "railway": "rail", "usage": "branch", "voltage": "15000", "length_km": 0.68, "maxspeed_kmh": 60.0}}, {"type": "Feature", "geometry": {"type": "LineString", "coordinates": [[9.6946937, 59.087194], [9.6947166, 59.0871474], [9.6947448, 59.0870898]]}, "properties": {"electrified": "contact_line", "frequency": "16.67", "maxspeed": "60", "name": "Brevikbanen", "passenger_lines": "1", "railway": "rail", "usage": "branch", "voltage": "15000", "length_km": 0.012, "maxspeed_kmh": 60.0}}, {"type": "Feature", "geometry": {"type": "LineString", "coordinates": [[9.696087, 59.1235462], [9.6962548, 59.1236327], [9.6966684, 59.1238314], [9.6970689, 59.1240258], [9.6974099, 59.1241704], [9.6975988, 59.124237], [9.6977188, 59.1242741], [9.697865, 59.1243147], [9.6981025, 59.1243694], [9.698269, 59.1244037], [9.6983906, 59.1244234], [9.6985742, 59.1244487], [9.6987869, 59.1244737], [9.6990324, 59.1244921], [9.6991818, 59.1244999], [9.6993791, 59.1245054], [9.699562, 59.1245028], [9.69974, 59.1244982], [9.6999245, 59.1244857], [9.7000998, 59.1244715], [9.7002874, 59.1244516], [9.7004447, 59.1244272], [9.7005777, 59.1244063], [9.7007348, 59.1243738], [9.7008941, 59.1243388], [9.70104, 59.1243026], [9.7011968, 59.124258], [9.7013408, 59.124211], [9.7014955, 59.1241543], [9.7016396, 59.1240967], [9.7021038, 59.1238622], [9.7023196, 59.1237194], [9.7025044, 59.12356], [9.702681, 59.1233642], [9.7027163, 59.1233157], [9.7028245, 59.1231671]]}, "properties": {"electrified": "contact_line", "frequency": "16.67", "maxspeed": "60", "name": "Brevikbanen", "passenger_lines": "1", "railway": "rail", "usage": "branch", "voltage": "15000", "length_km": 0.49, "maxspeed_kmh": 60.0}}, {"type": "Feature", "geometry": {"type": "LineString", "coordinates": [[9.6895481, 59.1213852], [9.6896839, 59.1213778], [9.6898634, 59.1213692], [9.6901092, 59.121363], [9.6903813, 59.1213664], [9.6906539, 59.1213748], [9.6909022, 59.1213908], [9.6911348, 59.1214106], [9.6913881, 59.1214386], [9.6916089, 59.1214679], [9.6917483, 59.1214912], [9.6919198, 59.1215214], [9.6920931, 59.1215571], [9.6922539, 59.1215931], [9.6923995, 59.1216296], [9.6925547, 59.1216743], [9.6926889, 59.1217153], [9.692826, 59.1217612], [9.6929853, 59.1218174], [9.6931596, 59.1218845], [9.6932812, 59.1219404], [9.6934075, 59.121999]]}, "properties": {"electrified": "contact_line", "frequency": "16.67", "gauge": "1435", "maxspeed": "70", "name": "Brevikbanen", "passenger_lines": "1", "railway": "rail", "usage": "branch", "voltage": "15000", "length_km": 0.239, "maxspeed_kmh": 70.0}}, {"type": "Feature", "geometry": {"type": "LineString", "coordinates": [[9.6982967, 59.11117], [9.6976193, 59.1102629], [9.6972223, 59.1097106], [9.6967652, 59.1090952], [9.6966859, 59.1089798], [9.6965158, 59.1086605], [9.6964455, 59.1084974], [9.6963912, 59.1083392], [9.6963464, 59.1081825], [9.6963, 59.1079811], [9.696285, 59.1076016], [9.6963128, 59.1073593], [9.6963592, 59.107126], [9.6964982, 59.1066688], [9.6965574, 59.106437], [9.6965702, 59.1060966], [9.6965334, 59.1057571], [9.6964839, 59.1054499], [9.6963879, 59.1051501], [9.696239, 59.104868], [9.6960451, 59.104621], [9.6955748, 59.1042136], [9.6952221, 59.1039334], [9.6948283, 59.1036082], [9.6944237, 59.1033048], [9.6941916, 59.1031615], [9.6939114, 59.1030087], [9.6936312, 59.1028755], [9.6933511, 59.1027892], [9.6927426, 59.1026063], [9.6911348, 59.1021726], [9.6896413, 59.1017732], [9.6893729, 59.1016922]]}, "properties": {"electrified": "contact_line", "frequency": "16.67", "maxspeed": "60", "name": "Brevikbanen", "passenger_lines": "1", "railway": "rail", "usage": "branch", "voltage": "15000", "length_km": 1.272, "maxspeed_kmh": 60.0}}, {"type": "Feature", "geometry": {"type": "LineString", "coordinates": [[9.6983461, 59.1112369], [9.6982967, 59.11117]]}, "properties": {"bridge": "yes", "electrified": "contact_line", "frequency": "16.67", "maxspeed": "60", "name": "Brevikbanen", "passenger_lines": "1", "railway": "rail", "usage": "branch", "voltage": "15000", "length_km": 0.008, "maxspeed_kmh": 60.0}}, {"type": "Feature", "geometry": {"type": "LineString", "coordinates": [[9.7037314, 59.1218139], [9.7037565, 59.1217696]]}, "properties": {"bridge": "yes", "electrified": "contact_line", "frequency": "16.67", "maxspeed": "60", "name": "Brevikbanen", "passenger_lines": "1", "railway": "rail", "usage": "branch", "voltage": "15000", "length_km": 0.005, "maxspeed_kmh": 60.0}}, {"type": "Feature", "geometry": {"type": "LineString", "coordinates": [[9.7037565, 59.1217696], [9.7038892, 59.121535], [9.7047371, 59.1202601], [9.7052281, 59.119497], [9.7053564, 59.1192838], [9.7054768, 59.1190195], [9.7055146, 59.1188703], [9.7055398, 59.1186599], [9.7055361, 59.1184439], [9.7054876, 59.1181906], [9.7053887, 59.1179695], [9.7052719, 59.1177591], [9.7051356, 59.117569], [9.704742, 59.1171643], [9.7043262, 59.1168236], [9.7034899, 59.116141], [9.7030569, 59.1157918], [9.7027015, 59.1154985], [9.7019339, 59.1148639], [9.7014229, 59.1144506], [9.7001977, 59.1134322], [9.6997511, 59.1130068], [9.6993627, 59.1125809], [9.6991463, 59.1123221], [9.6989458, 59.1120564], [9.6985586, 59.1115248], [9.6983461, 59.1112369]]}, "properties": {"electrified": "contact_line", "frequency": "16.67", "maxspeed": "60", "name": "Brevikbanen", "passenger_lines": "1", "railway": "rail", "usage": "branch", "voltage": "15000", "length_km": 1.296, "maxspeed_kmh": 60.0}}, {"type": "Feature", "geometry": {"type": "LineString", "coordinates": [[9.6893824, 59.1213976], [9.6895481, 59.1213852]]}, "properties": {"bridge": "yes", "electrified": "contact_line", "frequency": "16.67", "gauge": "1435", "maxspeed": "70", "name": "Brevikbanen", "passenger_lines": "1", "railway": "rail", "usage": "branch", "voltage": "15000", "length_km": 0.01, "maxspeed_kmh": 70.0}}, {"type": "Feature", "geometry": {"type": "LineString", "coordinates": [[9.6863218, 59.1223028], [9.686424, 59.1222403], [9.6865717, 59.122158], [9.6867942, 59.1220432], [9.6870915, 59.121915], [9.6873391, 59.1218215], [9.6875498, 59.1217484], [9.6877618, 59.1216855], [9.6879351, 59.1216381], [9.6881516, 59.1215853], [9.6883615, 59.1215386], [9.6886165, 59.1214943], [9.6888525, 59.1214569], [9.6890946, 59.1214249], [9.6893824, 59.1213976]]}, "properties": {"electrified": "contact_line", "frequency": "16.67", "gauge": "1435", "maxspeed": "70", "name": "Brevikbanen", "passenger_lines": "1", "railway": "rail", "usage": "branch", "voltage": "15000", "length_km": 0.207, "maxspeed_kmh": 70.0}}, {"type": "Feature", "geometry": {"type": "LineString", "coordinates": [[9.6758751, 59.1280006], [9.6763398, 59.1276848]]}, "properties": {"electrified": "contact_line", "frequency": "16.67", "gauge": "1435", "maxspeed": "80", "name": "Brevikbanen", "passenger_lines": "1", "railway": "rail", "usage": "branch", "voltage": "15000", "length_km": 0.044, "maxspeed_kmh": 80.0}}, {"type": "Feature", "geometry": {"type": "LineString", "coordinates": [[9.6795763, 59.1260157], [9.6800368, 59.1258746], [9.6802752, 59.1258002], [9.6805488, 59.1257095], [9.6806989, 59.1256574], [9.6809585, 59.125561], [9.6811336, 59.1255021], [9.6813871, 59.1254065], [9.6816842, 59.1252872], [9.6820413, 59.1251321], [9.68234, 59.1249973], [9.6826222, 59.1248575], [9.6829219, 59.1247041], [9.683272, 59.1245099], [9.6835001, 59.1243749], [9.683776, 59.1242033], [9.6840097, 59.1240468], [9.6842325, 59.1238906], [9.6844404, 59.1237344], [9.6846776, 59.1235564], [9.6848386, 59.12343], [9.6850073, 59.1232972], [9.6852997, 59.1230691], [9.6859943, 59.122527], [9.6862705, 59.1223342], [9.6863218, 59.1223028]]}, "properties": {"electrified": "contact_line", "frequency": "16.67", "gauge": "1435", "maxspeed": "80", "name": "Brevikbanen", "passenger_lines": "1", "railway": "rail", "usage": "branch", "voltage": "15000", "length_km": 0.574, "maxspeed_kmh": 80.0}}, {"type": "Feature", "geometry": {"type": "LineString", "coordinates": [[9.6763398, 59.1276848], [9.6764217, 59.1276283], [9.6767349, 59.1274166], [9.6770547, 59.1271975], [9.6773886, 59.1269766], [9.6777427, 59.1267771], [9.6780083, 59.1266393], [9.6782161, 59.1265378], [9.6784402, 59.1264371], [9.678709, 59.1263245], [9.6789826, 59.1262178], [9.6792602, 59.1261187], [9.6795763, 59.1260157]]}, "properties": {"electrified": "contact_line", "frequency": "16.67", "gauge": "1435", "maxspeed": "80", "name": "Brevikbanen", "passenger_lines": "1", "railway": "rail", "usage": "branch", "voltage": "15000", "length_km": 0.265, "maxspeed_kmh": 80.0}}, {"type": "Feature", "geometry": {"type": "LineString", "coordinates": [[9.7028245, 59.1231671], [9.7028351, 59.1231525], [9.7033119, 59.1224351], [9.7036426, 59.1219709], [9.7037314, 59.1218139]]}, "properties": {"electrified": "contact_line", "frequency": "16.67", "maxspeed": "60", "name": "Brevikbanen", "passenger_lines": "1", "railway": "rail", "usage": "branch", "voltage": "15000", "length_km": 0.16, "maxspeed_kmh": 60.0}}, {"type": "Feature", "geometry": {"type": "LineString", "coordinates": [[9.6893729, 59.1016922], [9.6889217, 59.1015559], [9.6885855, 59.1014157], [9.6883363, 59.1012731], [9.6881405, 59.1011389], [9.6879821, 59.101015]]}, "properties": {"electrified": "contact_line", "frequency": "16.67", "maxspeed": "50", "name": "Brevikbanen", "passenger_lines": "1", "railway": "rail", "usage": "branch", "voltage": "15000", "length_km": 0.111, "maxspeed_kmh": 50.0}}, {"type": "Feature", "geometry": {"type": "LineString", "coordinates": [[9.6879821, 59.101015], [9.6878443, 59.1008937], [9.6868005, 59.0999337], [9.6865955, 59.0997464], [9.6863824, 59.0995351]]}, "properties": {"electrified": "contact_line", "frequency": "16.67", "maxspeed": "60", "name": "Brevikbanen", "passenger_lines": "1", "railway": "rail", "usage": "branch", "voltage": "15000", "length_km": 0.189, "maxspeed_kmh": 60.0}}, {"type": "Feature", "geometry": {"type": "LineString", "coordinates": [[9.6975657, 59.0812518], [9.6975441, 59.0811145], [9.6973884, 59.0808102], [9.6972851, 59.0806797], [9.6971728, 59.0805711], [9.696921, 59.08037], [9.6966404, 59.0801989], [9.6955823, 59.0797613], [9.6949863, 59.079495], [9.6945915, 59.0792741], [9.6942436, 59.0790186], [9.6939701, 59.0787542], [9.6938125, 59.0785603], [9.6937038, 59.0783973], [9.6934665, 59.0780024], [9.6933252, 59.0778249], [9.6931767, 59.0776665], [9.6929013, 59.0774553], [9.6926025, 59.0772869], [9.6922756, 59.0771345], [9.6922195, 59.0771152]]}, "properties": {"electrified": "contact_line", "frequency": "16.67", "maxspeed": "50", "name": "Brevikbanen", "passenger_lines": "1", "railway": "rail", "usage": "branch", "voltage": "15000", "length_km": 0.569, "maxspeed_kmh": 50.0}}, {"type": "Feature", "geometry": {"type": "LineString", "coordinates": [[9.6888181, 59.0751204], [9.6887941, 59.0748632], [9.6886877, 59.0738938], [9.6886209, 59.0735136], [9.6885577, 59.0732812]]}, "properties": {"electrified": "contact_line", "frequency": "16.67", "maxspeed": "60", "name": "Brevikbanen", "passenger_lines": "1", "railway": "rail", "usage": "branch", "voltage": "15000", "length_km": 0.206, "maxspeed_kmh": 60.0}}, {"type": "Feature", "geometry": {"type": "LineString", "coordinates": [[9.6733646, 59.1297211], [9.6735712, 59.1295646], [9.6737751, 59.1294239], [9.6740084, 59.1292663], [9.6741626, 59.1291628]]}, "properties": {"electrified": "contact_line", "frequency": "16.67", "gauge": "1435", "maxspeed": "60", "name": "Brevikbanen", "passenger_lines": "1", "railway": "rail", "usage": "branch", "voltage": "15000", "length_km": 0.077, "maxspeed_kmh": 60.0}}, {"type": "Feature", "geometry": {"type": "LineString", "coordinates": [[9.6908423, 59.0767017], [9.6905811, 59.0766239], [9.6902457, 59.0765061], [9.6900121, 59.0764137], [9.6897642, 59.0762928], [9.6896811, 59.0762392], [9.6894324, 59.0760786], [9.6892277, 59.0759047], [9.6891389, 59.0758087], [9.6890013, 59.0756439], [9.6889197, 59.0754845], [9.6888654, 59.0753395], [9.6888237, 59.0751801], [9.6888181, 59.0751204]]}, "properties": {"electrified": "contact_line", "frequency": "16.67", "maxspeed": "50", "name": "Brevikbanen", "passenger_lines": "1", "railway": "rail", "usage": "branch", "voltage": "15000", "length_km": 0.222, "maxspeed_kmh": 50.0}}, {"type": "Feature", "geometry": {"type": "LineString", "coordinates": [[9.6943249, 59.1225732], [9.6944207, 59.1226346], [9.6945202, 59.1226977], [9.69471, 59.1228048], [9.6949362, 59.1229257], [9.6949718, 59.1229455]]}, "properties": {"electrified": "contact_line", "frequency": "16.67", "maxspeed": "40", "name": "Brevikbanen", "passenger_lines": "1", "railway": "rail", "usage": "branch", "voltage": "15000", "length_km": 0.056, "maxspeed_kmh": 40.0}}, {"type": "Feature", "geometry": {"type": "LineString", "coordinates": [[9.6941054, 59.1224239], [9.6943249, 59.1225732]]}, "properties": {"electrified": "contact_line", "frequency": "16.67", "gauge": "1435", "maxspeed": "40", "name": "Brevikbanen", "railway": "rail", "usage": "branch", "voltage": "15000", "length_km": 0.021, "maxspeed_kmh": 40.0}}, {"type": "Feature", "geometry": {"type": "LineString", "coordinates": [[9.6741626, 59.1291628], [9.674219, 59.1291222], [9.6753515, 59.1283553], [9.6758751, 59.1280006]]}, "properties": {"electrified": "contact_line", "frequency": "16.67", "gauge": "1435", "maxspeed": "80", "name": "Brevikbanen", "passenger_lines": "1", "railway": "rail", "usage": "branch", "voltage": "15000", "length_km": 0.163, "maxspeed_kmh": 80.0}}, {"type": "Feature", "geometry": {"type": "LineString", "coordinates": [[9.6949718, 59.1229455], [9.6951916, 59.1230675], [9.6953164, 59.1231368], [9.6956478, 59.123323], [9.6958474, 59.1234248], [9.6959455, 59.1234777], [9.696087, 59.1235462]]}, "properties": {"electrified": "contact_line", "frequency": "16.67", "maxspeed": "40", "name": "Brevikbanen", "passenger_lines": "1", "railway": "rail", "usage": "branch", "voltage": "15000", "length_km": 0.093, "maxspeed_kmh": 40.0}}, {"type": "Feature", "geometry": {"type": "LineString", "coordinates": [[9.6934075, 59.121999], [9.6934857, 59.1220374], [9.6935719, 59.122086], [9.6936735, 59.1221424], [9.6937814, 59.122206], [9.6939577, 59.1223236], [9.6941054, 59.1224239]]}, "properties": {"electrified": "contact_line", "frequency": "16.67", "gauge": "1435", "maxspeed": "40", "name": "Brevikbanen", "passenger_lines": "1", "railway": "rail", "usage": "branch", "voltage": "15000", "length_km": 0.062, "maxspeed_kmh": 40.0}}, {"type": "Feature", "geometry": {"type": "LineString", "coordinates": [[9.6879418, 59.0700024], [9.6879561, 59.0699323]]}, "properties": {"bridge": "yes", "electrified": "contact_line", "frequency": "16.67", "maxspeed": "60", "name": "Brevikbanen", "passenger_lines": "1", "railway": "rail", "usage": "branch", "voltage": "15000", "length_km": 0.008, "maxspeed_kmh": 60.0}}, {"type": "Feature", "geometry": {"type": "LineString", "coordinates": [[9.6879227, 59.0709165], [9.6878893, 59.070605], [9.6878893, 59.0702954], [9.6879418, 59.0700024]]}, "properties": {"electrified": "contact_line", "frequency": "16.67", "maxspeed": "60", "name": "Brevikbanen", "passenger_lines": "1", "railway": "rail", "usage": "branch", "voltage": "15000", "length_km": 0.102, "maxspeed_kmh": 60.0}}, {"type": "Feature", "geometry": {"type": "LineString", "coordinates": [[9.688543, 59.0732273], [9.6885021, 59.0730734], [9.6879227, 59.0709165]]}, "properties": {"electrified": "contact_line", "frequency": "16.67", "maxspeed": "60", "name": "Brevikbanen", "passenger_lines": "1", "railway": "rail", "usage": "branch", "voltage": "15000", "length_km": 0.26, "maxspeed_kmh": 60.0}}, {"type": "Feature", "geometry": {"type": "LineString", "coordinates": [[9.6885577, 59.0732812], [9.688543, 59.0732273]]}, "properties": {"bridge": "yes", "electrified": "contact_line", "frequency": "16.67", "maxspeed": "60", "name": "Brevikbanen", "passenger_lines": "1", "railway": "rail", "usage": "branch", "voltage": "15000", "length_km": 0.006, "maxspeed_kmh": 60.0}}, {"type": "Feature", "geometry": {"type": "LineString", "coordinates": [[9.6921206, 59.0770811], [9.6919449, 59.0770206], [9.6916881, 59.07694], [9.6915004, 59.0768845], [9.6908423, 59.0767017]]}, "properties": {"electrified": "contact_line", "frequency": "16.67", "maxspeed": "50", "name": "Brevikbanen", "passenger_lines": "1", "railway": "rail", "usage": "branch", "voltage": "15000", "length_km": 0.085, "maxspeed_kmh": 50.0}}, {"type": "Feature", "geometry": {"type": "LineString", "coordinates": [[9.6922195, 59.0771152], [9.6921206, 59.0770811]]}, "properties": {"bridge": "yes", "electrified": "contact_line", "frequency": "16.67", "maxspeed": "50", "name": "Brevikbanen", "passenger_lines": "1", "railway": "rail", "usage": "branch", "voltage": "15000", "length_km": 0.007, "maxspeed_kmh": 50.0}}]}