{"type": "FeatureCollection", "features": [{"type": "Feature", "geometry": {"type": "LineString", "coordinates": [[9.6002274, 59.6309303], [9.599194, 59.6333], [9.597802, 59.6354751], [9.5973779, 59.6361722], [9.5927466, 59.6437835], [9.5938007, 59.6510043], [9.5900307, 59.6562162], [9.5880986, 59.6583755], [9.5861601, 59.6608215], [9.5843743, 59.6640349], [9.5816693, 59.6657543], [9.5806981, 59.6673778], [9.5792487, 59.6703807], [9.5786304, 59.6716616], [9.5785087, 59.6740461], [9.5794636, 59.6758378], [9.5796236, 59.677955]]}, "properties": {"gauge": "800", "name": "Christian VII stoll", "railway": "narrow_gauge", "tunnel": "yes", "length_km": 5.486}}, {"type": "Feature", "geometry": {"type": "LineString", "coordinates": [[9.600405, 59.6306261], [9.6002274, 59.6309303]]}, "properties": {"gauge": "800", "name": "Christian VII stoll", "railway": "narrow_gauge", "length_km": 0.035}}, {"type": "Feature", "geometry": {"type": "LineString", "coordinates": [[9.6004593, 59.6305328], [9.600405, 59.6306261]]}, "properties": {"gauge": "800", "name": "Christian VII stoll", "railway": "narrow_gauge", "length_km": 0.011}}, {"type": "Feature", "geometry": {"type": "LineString", "coordinates": [[9.6015517, 59.6305119], [9.6011717, 59.6304743]]}, "properties": {"gauge": "800", "name": "Christian VII stoll", "railway": "narrow_gauge", "length_km": 0.022}}, {"type": "Feature", "geometry": {"type": "LineString", "coordinates": [[9.6018863, 59.6305388], [9.6017896, 59.6305311], [9.6015564, 59.6305124], [9.6015517, 59.6305119]]}, "properties": {"gauge": "800", "name": "Christian VII stoll", "railway": "narrow_gauge", "length_km": 0.019}}, {"type": "Feature", "geometry": {"type": "LineString", "coordinates": [[9.6008995, 59.6304442], [9.6008791, 59.6304419], [9.6007812, 59.6304303], [9.6007166, 59.6304255], [9.6006592, 59.6304276], [9.6006015, 59.6304385], [9.6005534, 59.6304569], [9.6005291, 59.6304663]]}, "properties": {"gauge": "800", "name": "Christian VII stoll", "railway": "narrow_gauge", "length_km": 0.022}}, {"type": "Feature", "geometry": {"type": "LineString", "coordinates": [[9.6011717, 59.6304743], [9.6008995, 59.6304442]]}, "properties": {"gauge": "800", "name": "Christian VII stoll", "railway": "narrow_gauge", "length_km": 0.016}}, {"type": "Feature", "geometry": {"type": "LineString", "coordinates": [[9.6005291, 59.6304663], [9.6005116, 59.6304778], [9.6004881, 59.6304979], [9.6004692, 59.6305176], [9.6004593, 59.6305328]]}, "properties": {"gauge": "800", "name": "Christian VII stoll", "railway": "narrow_gauge", "length_km": 0.008}}]}