{"type": "FeatureCollection", "features": [{"type": "Feature", "geometry": {"type": "LineString", "coordinates": [[17.4239945, 68.4355601], [17.4240227, 68.4360922], [17.4240468, 68.4365484], [17.4240726, 68.4367416], [17.4241128, 68.4368958], [17.4241552, 68.4370117], [17.4242591, 68.4372207], [17.424411, 68.4374483], [17.4245676, 68.4376343], [17.4247695, 68.4378337], [17.4249816, 68.4380121], [17.4251444, 68.4381337], [17.4259403, 68.4386942], [17.4261219, 68.4388135], [17.426353, 68.4389645], [17.4273261, 68.4395635], [17.4273579, 68.4395832], [17.4276062, 68.439736], [17.4277459, 68.4398289], [17.4278695, 68.4399227], [17.428067, 68.4400788], [17.4282245, 68.4401949], [17.4284061, 68.440314], [17.4289067, 68.4406074], [17.4291384, 68.4407338], [17.429605, 68.4409726], [17.4299808, 68.441153]]}, "properties": {"electrified": "contact_line", "frequency": "16.67", "gauge": "1435", "maxspeed": "40", "name": "Fagerneslinja", "operator": "Bane NOR", "passenger_lines": "1", "railway": "rail", "usage": "industrial", "voltage": "15000", "length_km": 0.686, "maxspeed_kmh": 40.0}}, {"type": "Feature", "geometry": {"type": "LineString", "coordinates": [[17.4307592, 68.4257191], [17.430405, 68.4260422], [17.4293464, 68.4270079], [17.4284865, 68.4277922], [17.4281429, 68.4280944], [17.4278005, 68.4283727], [17.4273194, 68.4287325], [17.4268298, 68.4290666], [17.4264507, 68.4293131], [17.4261095, 68.429535], [17.4256069, 68.4298903], [17.4251367, 68.430253], [17.424552, 68.4307383], [17.4243315, 68.4309316], [17.4242016, 68.4310554], [17.4240133, 68.4312348]]}, "properties": {"electrified": "contact_line", "frequency": "16.67", "gauge": "1435", "maxspeed": "40", "name": "Fagerneslinja", "operator": "Bane NOR", "passenger_lines": "1", "railway": "rail", "usage": "industrial", "voltage": "15000", "length_km": 0.675, "maxspeed_kmh": 40.0}}, {"type": "Feature", "geometry": {"type": "LineString", "coordinates": [[17.4237366, 68.431493], [17.4233206, 68.4318854]]}, "properties": {"bridge": "yes", "electrified": "contact_line", "frequency": "16.67", "gauge": "1435", "maxspeed": "30", "name": "Fagerneslinja", "operator": "Bane NOR", "passenger_lines": "1", "railway": "rail", "usage": "industrial", "voltage": "15000", "length_km": 0.047, "maxspeed_kmh": 30.0}}, {"type": "Feature", "geometry": {"type": "LineString", "coordinates": [[17.4310899, 68.425412], [17.4307592, 68.4257191]]}, "properties": {"electrified": "contact_line", "frequency": "16.67", "gauge": "1435", "maxspeed": "40", "name": "Fagerneslinja", "operator": "Bane NOR", "passenger_lines": "1", "railway": "rail", "tunnel": "yes", "usage": "industrial", "voltage": "15000", "length_km": 0.037, "maxspeed_kmh": 40.0}}, {"type": "Feature", "geometry": {"type": "LineString", "coordinates": [[17.4288959, 68.4156363], [17.4291521, 68.4157692], [17.429309, 68.4158666], [17.4293546, 68.4158941], [17.4297618, 68.416206], [17.4298605, 68.4162772], [17.4301539, 68.4164877], [17.4304399, 68.4167176], [17.4309129, 68.4171124], [17.4323572, 68.4183431], [17.4325991, 68.4185492], [17.4328497, 68.4187811], [17.4330869, 68.4190421], [17.4331843, 68.4191665], [17.4333125, 68.4193525], [17.433448, 68.4195976], [17.4335283, 68.4197865], [17.4335901, 68.4199834], [17.4336376, 68.4202056], [17.4336725, 68.4204106], [17.4336869, 68.4205097], [17.4337192, 68.4208294], [17.4337314, 68.4210631], [17.4337311, 68.421408], [17.4337089, 68.4217524], [17.4336614, 68.4221161], [17.4336123, 68.4223741], [17.4336019, 68.4224182]]}, "properties": {"electrified": "contact_line", "frequency": "16.67", "gauge": "1435", "maxspeed": "40", "name": "Fagerneslinja", "operator": "Bane NOR", "passenger_lines": "1", "railway": "rail", "usage": "industrial", "voltage": "15000", "length_km": 0.797, "maxspeed_kmh": 40.0}}, {"type": "Feature", "geometry": {"type": "LineString", "coordinates": [[17.4299808, 68.441153], [17.4302295, 68.4412622], [17.430574, 68.4413987], [17.4309236, 68.4415199], [17.4311119, 68.4415786], [17.4315079, 68.4416892], [17.4319302, 68.4417906], [17.4321515, 68.4418377], [17.4325869, 68.441921], [17.4330701, 68.4419998], [17.4335461, 68.4420651], [17.43379, 68.4420934], [17.4342704, 68.4421385], [17.4347705, 68.4421702], [17.4352784, 68.4421853], [17.4355475, 68.4421864], [17.4357899, 68.442183], [17.4361055, 68.4421765], [17.4361981, 68.4421728], [17.4364278, 68.4421622], [17.4374325, 68.442092]]}, "properties": {"electrified": "contact_line", "frequency": "16.67", "gauge": "1435", "maxspeed": "40", "name": "Fagerneslinja", "operator": "Bane NOR", "passenger_lines": "1", "railway": "rail", "usage": "main", "voltage": "15000", "length_km": 0.342, "maxspeed_kmh": 40.0}}, {"type": "Feature", "geometry": {"type": "LineString", "coordinates": [[17.4169576, 68.4115635], [17.4170731, 68.4116042], [17.4239307, 68.4139066], [17.426331, 68.4147192], [17.4273155, 68.4150474], [17.428028, 68.4152735], [17.4284249, 68.4154221], [17.4286874, 68.4155331], [17.4287957, 68.4155843], [17.4288959, 68.4156363]]}, "properties": {"gauge": "1435", "maxspeed": "40", "name": "Fagerneslinja", "operator": "Bane NOR", "railway": "rail", "usage": "industrial", "length_km": 0.669, "maxspeed_kmh": 40.0}}, {"type": "Feature", "geometry": {"type": "LineString", "coordinates": [[17.4240133, 68.4312348], [17.4237366, 68.431493]]}, "properties": {"electrified": "contact_line", "frequency": "16.67", "gauge": "1435", "maxspeed": "30", "name": "Fagerneslinja", "operator": "Bane NOR", "passenger_lines": "1", "railway": "rail", "usage": "industrial", "voltage": "15000", "length_km": 0.031, "maxspeed_kmh": 30.0}}, {"type": "Feature", "geometry": {"type": "LineString", "coordinates": [[17.4233206, 68.4318854], [17.4232856, 68.4319187], [17.4232424, 68.4319691], [17.4231542, 68.4320678], [17.4230365, 68.4322264], [17.4229415, 68.4323938], [17.4228928, 68.4325247], [17.4228584, 68.4326955], [17.4228527, 68.432809], [17.4228679, 68.4329673], [17.4229075, 68.4331115], [17.422966, 68.4332456], [17.4231128, 68.4334705], [17.4235687, 68.4340337], [17.4236777, 68.4341839], [17.4237957, 68.4343887], [17.4238828, 68.4345941], [17.4239215, 68.4347255], [17.423956, 68.4349318], [17.4239737, 68.4351556], [17.4239795, 68.4353568], [17.4239945, 68.4355601]]}, "properties": {"electrified": "contact_line", "frequency": "16.67", "gauge": "1435", "maxspeed": "30", "name": "Fagerneslinja", "operator": "Bane NOR", "passenger_lines": "1", "railway": "rail", "usage": "industrial", "voltage": "15000", "length_km": 0.417, "maxspeed_kmh": 30.0}}, {"type": "Feature", "geometry": {"type": "LineString", "coordinates": [[17.4335869, 68.4225011], [17.4335627, 68.4226134], [17.4335296, 68.4227299], [17.4334726, 68.4228868], [17.4334031, 68.4230425], [17.4333244, 68.4231837], [17.433204, 68.4233723], [17.4330934, 68.4235208], [17.4329106, 68.4237326], [17.4327654, 68.4238797], [17.4310899, 68.425412]]}, "properties": {"electrified": "contact_line", "frequency": "16.67", "gauge": "1435", "maxspeed": "40", "name": "Fagerneslinja", "operator": "Bane NOR", "passenger_lines": "1", "railway": "rail", "usage": "industrial", "voltage": "15000", "length_km": 0.342, "maxspeed_kmh": 40.0}}, {"type": "Feature", "geometry": {"type": "LineString", "coordinates": [[17.4336019, 68.4224182], [17.4335869, 68.4225011]]}, "properties": {"bridge": "yes", "electrified": "contact_line", "frequency": "16.67", "gauge": "1435", "maxspeed": "40", "name": "Fagerneslinja", "operator": "Bane NOR", "passenger_lines": "1", "railway": "rail", "usage": "industrial", "voltage": "15000", "length_km": 0.009, "maxspeed_kmh": 40.0}}]}