{"type": "FeatureCollection", "features": [{"type": "Feature", "geometry": {"type": "LineString", "coordinates": [[11.1900903, 63.7004924], [11.1899716, 63.7003752], [11.1898426, 63.7002584], [11.1895909, 63.7000569], [11.1895785, 63.7000468], [11.1894261, 63.6999214], [11.1892792, 63.6998076], [11.1891366, 63.6997061], [11.1889757, 63.6995989], [11.1887966, 63.6994904], [11.1886161, 63.699393], [11.1884205, 63.6992985], [11.1881993, 63.6992023], [11.1879862, 63.6991173], [11.1875768, 63.6989593], [11.1870104, 63.6987471], [11.1865522, 63.6985739], [11.1861406, 63.6984189], [11.185859, 63.6983009], [11.185007, 63.697924], [11.1846612, 63.6977771], [11.1843153, 63.6976434], [11.1839031, 63.697506], [11.1834991, 63.6973916], [11.1830851, 63.6972952], [11.1826565, 63.6972045], [11.1821924, 63.6971099], [11.1816842, 63.6969951], [11.1810966, 63.6968507], [11.1800016, 63.6965803], [11.1796635, 63.696504], [11.1792991, 63.6964341], [11.1789466, 63.6963784], [11.1786004, 63.6963371], [11.1782457, 63.6963105], [11.1778868, 63.6962937], [11.1775112, 63.6962884], [11.1771022, 63.6962952], [11.1750505, 63.6963766], [11.1746372, 63.6964016], [11.174271, 63.6964314], [11.1738664, 63.6964785], [11.1734018, 63.6965544], [11.173019, 63.6966365], [11.1726932, 63.6967187], [11.1723499, 63.6968193], [11.1719977, 63.6969377], [11.1716867, 63.6970623], [11.1714015, 63.6972073], [11.1711917, 63.6973396], [11.170909, 63.6975479], [11.1707166, 63.6977171], [11.1705822, 63.6978622], [11.170486, 63.6979903], [11.1703995, 63.6981517], [11.1703344, 63.6983365], [11.1703031, 63.698532], [11.1702933, 63.6986975], [11.170325, 63.7000379], [11.1703124, 63.7002248], [11.1702729, 63.7004204], [11.1702148, 63.700583], [11.1701052, 63.7007946], [11.1699449, 63.701015], [11.1697391, 63.7012336], [11.1695574, 63.7014173], [11.1693917, 63.7015913], [11.1692508, 63.7017697], [11.1691218, 63.7019824], [11.169055, 63.7021583], [11.1690052, 63.7023621], [11.1689837, 63.7025696], [11.1689995, 63.7027939], [11.1690295, 63.7030476], [11.1691223, 63.7037659], [11.1691357, 63.7039672], [11.1691322, 63.7041415], [11.1691035, 63.7042989], [11.1690509, 63.7044563], [11.1689933, 63.7045899], [11.1689007, 63.704748], [11.1687505, 63.7049452], [11.1686231, 63.7050795], [11.1684059, 63.7052738], [11.168253, 63.7053955], [11.1680692, 63.7055209], [11.1678305, 63.7056706], [11.1675623, 63.7058108], [11.1662972, 63.7064328], [11.1659975, 63.7065967], [11.1658057, 63.7067118], [11.1655966, 63.7068593], [11.1654601, 63.706971], [11.1653274, 63.7070905], [11.1652083, 63.7072137], [11.1651302, 63.7073136]]}, "properties": {"electrified": "no", "gauge": "1435", "maxspeed": "20", "name": "Fiborgtangen sidespor", "operator": "Norske Skog", "railway": "rail", "service": "siding", "length_km": 2.345, "maxspeed_kmh": 20.0}}, {"type": "Feature", "geometry": {"type": "LineString", "coordinates": [[11.1651302, 63.7073136], [11.1650691, 63.7074478], [11.1650425, 63.7075924], [11.1650041, 63.7101849], [11.1649721, 63.7103754], [11.1649212, 63.710503]]}, "properties": {"electrified": "no", "gauge": "1435", "name": "Fiborgtangen sidespor", "operator": "Norske Skog", "railway": "rail", "service": "siding", "tunnel": "yes", "length_km": 0.356}}, {"type": "Feature", "geometry": {"type": "LineString", "coordinates": [[11.1594329, 63.7128388], [11.1584441, 63.7130274], [11.1526434, 63.7141282], [11.1521278, 63.7142217]]}, "properties": {"electrified": "no", "gauge": "1435", "name": "Fiborgtangen sidespor", "operator": "Norske Skog", "railway": "rail", "service": "siding", "length_km": 0.393}}, {"type": "Feature", "geometry": {"type": "LineString", "coordinates": [[11.1599172, 63.7127386], [11.1593172, 63.7128896], [11.1589725, 63.7129722], [11.1586298, 63.7130432], [11.1559757, 63.7135459], [11.1552398, 63.713695], [11.1540573, 63.7139208], [11.1530129, 63.7141096], [11.1497911, 63.7147204], [11.1496167, 63.7147533], [11.1494482, 63.7147889], [11.1492938, 63.7148234], [11.1491525, 63.7148631], [11.1490363, 63.7148958], [11.1488686, 63.7149535], [11.1486474, 63.7150419], [11.1484824, 63.7151251], [11.1483255, 63.7152118], [11.1481981, 63.7152997], [11.1480828, 63.7153929], [11.1479688, 63.7155135], [11.1478776, 63.7156394], [11.1478226, 63.7157599], [11.1477864, 63.7158734], [11.147777, 63.7159832], [11.1477931, 63.7161181], [11.1478373, 63.7162368], [11.1479057, 63.7163621], [11.148009, 63.7164833], [11.1481391, 63.7166074], [11.1482826, 63.7167173], [11.1484234, 63.7168016], [11.1485652, 63.716876], [11.1487174, 63.7169432], [11.1489201, 63.7170195], [11.1491101, 63.7170816], [11.1493058, 63.7171347], [11.1495312, 63.7171852], [11.1498678, 63.7172404], [11.1500812, 63.7172708], [11.1502989, 63.7172899], [11.1505768, 63.7173018], [11.1508275, 63.7173052], [11.1510772, 63.7172974], [11.1513646, 63.7172788], [11.1537517, 63.7170978], [11.1539915, 63.7170713], [11.1541909, 63.7170439], [11.1544124, 63.7170049], [11.154644, 63.7169553], [11.1548692, 63.7168958], [11.1550471, 63.7168397], [11.1552147, 63.7167755], [11.1553699, 63.7167099], [11.1555133, 63.7166419], [11.1556484, 63.7165636], [11.1557716, 63.716484], [11.1558898, 63.7163911], [11.1559897, 63.7162987], [11.1560771, 63.7162072], [11.1563359, 63.7158912], [11.1564325, 63.7157801], [11.1565384, 63.7156822], [11.1566233, 63.7156145], [11.1566953, 63.715561], [11.1568402, 63.715466], [11.1569984, 63.7153846], [11.1571203, 63.7153292], [11.1572756, 63.7152586], [11.1574384, 63.7151907]]}, "properties": {"electrified": "no", "gauge": "1435", "name": "Fiborgtangen sidespor", "operator": "Norske Skog", "railway": "rail", "service": "siding", "length_km": 1.405}}, {"type": "Feature", "geometry": {"type": "LineString", "coordinates": [[11.1553396, 63.7159149], [11.1559689, 63.7156795], [11.1569511, 63.7153123], [11.1572759, 63.715192], [11.1575954, 63.7150736], [11.158261, 63.7148253], [11.158342, 63.7147962], [11.1603713, 63.71404], [11.1605508, 63.7139688], [11.1607066, 63.7138975], [11.1608724, 63.7138116], [11.1609899, 63.7137376], [11.1611009, 63.7136516], [11.1611983, 63.713568], [11.161287, 63.7134816], [11.1613681, 63.7133793], [11.1614223, 63.7132833], [11.1614635, 63.7131805], [11.1614839, 63.7130709], [11.1614871, 63.712946], [11.1614673, 63.7128422], [11.1614399, 63.7127579], [11.1613798, 63.712649], [11.1613015, 63.71255]]}, "properties": {"electrified": "no", "gauge": "1435", "name": "Fiborgtangen sidespor", "operator": "Norske Skog", "railway": "rail", "service": "spur", "length_km": 0.509}}, {"type": "Feature", "geometry": {"type": "LineString", "coordinates": [[11.1548705, 63.7155801], [11.1567736, 63.7152214], [11.1570623, 63.7151622], [11.1572707, 63.7151162], [11.157479, 63.7150637], [11.1577178, 63.714997], [11.1579265, 63.7149333], [11.1580834, 63.7148847], [11.158261, 63.7148253]]}, "properties": {"electrified": "no", "gauge": "1435", "name": "Fiborgtangen sidespor", "operator": "Norske Skog", "railway": "rail", "service": "spur", "length_km": 0.188}}, {"type": "Feature", "geometry": {"type": "LineString", "coordinates": [[11.1574384, 63.7151907], [11.1572376, 63.7152679], [11.1570297, 63.7153447], [11.1568254, 63.7154164], [11.1566054, 63.7154837], [11.1563277, 63.7155634], [11.1559689, 63.7156795]]}, "properties": {"electrified": "no", "gauge": "1435", "name": "Fiborgtangen sidespor", "operator": "Norske Skog", "railway": "rail", "service": "spur", "length_km": 0.091}}, {"type": "Feature", "geometry": {"type": "LineString", "coordinates": [[11.1564861, 63.7133498], [11.1581672, 63.7130317], [11.1584561, 63.7129822], [11.1587728, 63.7129338], [11.159094, 63.712893], [11.1592675, 63.7128672], [11.1594329, 63.7128388]]}, "properties": {"electrified": "no", "gauge": "1435", "name": "Fiborgtangen sidespor", "operator": "Norske Skog", "railway": "rail", "service": "siding", "length_km": 0.157}}, {"type": "Feature", "geometry": {"type": "LineString", "coordinates": [[11.1642484, 63.7112491], [11.1640718, 63.7113724], [11.1639239, 63.7114669], [11.1637871, 63.7115459], [11.1636583, 63.711615], [11.1633767, 63.7117463], [11.1630884, 63.711868], [11.162902, 63.7119393], [11.1626539, 63.7120254], [11.1624232, 63.7120973], [11.1621067, 63.7121876], [11.1618049, 63.712263], [11.1614107, 63.7123658], [11.1611907, 63.712418], [11.1602894, 63.7126459], [11.1599172, 63.7127386], [11.1596724, 63.7127918], [11.1594329, 63.7128388]]}, "properties": {"electrified": "no", "gauge": "1435", "name": "Fiborgtangen sidespor", "operator": "Norske Skog", "railway": "rail", "service": "siding", "length_km": 0.301}}, {"type": "Feature", "geometry": {"type": "LineString", "coordinates": [[11.1574384, 63.7151907], [11.1594822, 63.7144302], [11.1601983, 63.714163], [11.1603802, 63.7140941], [11.1606784, 63.7139664], [11.1609185, 63.7138524], [11.1611103, 63.7137282], [11.1615314, 63.7133998], [11.1621912, 63.7128771], [11.1625412, 63.7125998], [11.1629194, 63.7123001], [11.1631112, 63.7121513], [11.1635241, 63.7118236], [11.1639628, 63.711472], [11.1642484, 63.7112491]]}, "properties": {"electrified": "no", "gauge": "1435", "name": "Fiborgtangen sidespor", "operator": "Norske Skog", "railway": "rail", "service": "siding", "length_km": 0.562}}, {"type": "Feature", "geometry": {"type": "LineString", "coordinates": [[11.1603802, 63.7140941], [11.1608915, 63.7139075], [11.1610785, 63.7138339], [11.161258, 63.7137551], [11.1613929, 63.7136812], [11.1615017, 63.7136125], [11.1615807, 63.7135545]]}, "properties": {"electrified": "no", "gauge": "1435", "name": "Fiborgtangen sidespor", "operator": "Norske Skog", "railway": "rail", "service": "spur", "length_km": 0.085}}, {"type": "Feature", "geometry": {"type": "LineString", "coordinates": [[11.1649212, 63.710503], [11.1648408, 63.7106409], [11.1647662, 63.7107442], [11.1646597, 63.7108743], [11.1645193, 63.7110195], [11.1643485, 63.7111656], [11.1642484, 63.7112491]]}, "properties": {"electrified": "no", "gauge": "1435", "name": "Fiborgtangen sidespor", "operator": "Norske Skog", "railway": "rail", "service": "siding", "length_km": 0.09}}]}