{"type": "FeatureCollection", "features": [{"type": "Feature", "geometry": {"type": "LineString", "coordinates": [[7.1233772, 60.8388752], [7.1231744, 60.8392109], [7.1231447, 60.8392581], [7.1231, 60.839329], [7.1230635, 60.8393889], [7.1229223, 60.8396207], [7.1228353, 60.839759], [7.1227402, 60.8399109], [7.1224619, 60.8403426], [7.1224269, 60.8403969], [7.1223632, 60.8405357], [7.1223319, 60.8406327], [7.122321, 60.8407313], [7.1223209, 60.8408355], [7.1223695, 60.8411184], [7.1224993, 60.8417267], [7.1225009, 60.8417342], [7.1225555, 60.8419902], [7.1225565, 60.8420987], [7.1225453, 60.84218], [7.1225268, 60.8422611], [7.122498, 60.8423339], [7.1224491, 60.8424245], [7.1223306, 60.8425842], [7.1222831, 60.8426343], [7.1221689, 60.8427335], [7.1219461, 60.8428958], [7.1213013, 60.8433306], [7.1210331, 60.8435416], [7.1208562, 60.8436919], [7.1207202, 60.8438227], [7.1207077, 60.8438347], [7.1206333, 60.8439062], [7.1204982, 60.8440507], [7.1204782, 60.8440749], [7.1204663, 60.8440893], [7.1203836, 60.8441895], [7.1202368, 60.8443889], [7.1200898, 60.8446336], [7.1199855, 60.8448384], [7.1199346, 60.8449673], [7.1199309, 60.8449766], [7.119893, 60.8450725], [7.1198367, 60.8452503], [7.1197761, 60.8455488], [7.1197643, 60.8456305], [7.1196568, 60.8465867], [7.1196284, 60.8466967], [7.1195923, 60.8467911], [7.1195552, 60.8468589], [7.1194892, 60.8469543], [7.119401, 60.8470597], [7.1192693, 60.847177], [7.1190913, 60.8473048], [7.1188985, 60.8474134], [7.1187913, 60.8474652], [7.118559, 60.847561], [7.1175597, 60.8478812], [7.1174697, 60.84791], [7.1172871, 60.8479757], [7.1169811, 60.8480989], [7.1167114, 60.8482222], [7.1164839, 60.8483395], [7.1162378, 60.8484873], [7.1160096, 60.8486435], [7.1158126, 60.8488023], [7.1157062, 60.8488992], [7.115604, 60.8490029], [7.1154915, 60.8491297], [7.1154149, 60.8492237], [7.1151815, 60.8495102], [7.114983, 60.8497436], [7.1147939, 60.8499529], [7.114609, 60.8501432], [7.1138539, 60.850874], [7.1136918, 60.8510312], [7.1134452, 60.8512674], [7.1130227, 60.8516721], [7.1129541, 60.8517378], [7.1127884, 60.8519071], [7.1126764, 60.8520323], [7.1125376, 60.8522041], [7.1124155, 60.8523776], [7.1123955, 60.8524099], [7.1122924, 60.8525761], [7.1122471, 60.8526651], [7.1122298, 60.8526983], [7.1122045, 60.8527521], [7.1121049, 60.8529855], [7.1120344, 60.8532174], [7.1119869, 60.8534453], [7.1119441, 60.8537257], [7.1119391, 60.8537586], [7.1118772, 60.8541646], [7.1118583, 60.8542888], [7.1117976, 60.8546869], [7.1117697, 60.8547948], [7.1117194, 60.8549416], [7.1116252, 60.855141], [7.1116118, 60.8551629], [7.1115945, 60.8551892], [7.111482, 60.8553553], [7.1113736, 60.8554884], [7.1113032, 60.8555601], [7.1112337, 60.8556309], [7.1110815, 60.8557679], [7.1108243, 60.8559688], [7.1106927, 60.8560717], [7.1097919, 60.856762], [7.1093226, 60.8571215], [7.109235, 60.8571887], [7.1091997, 60.8572157], [7.1090782, 60.8573088], [7.1087697, 60.8575452], [7.1086594, 60.8576419], [7.1085704, 60.8577356], [7.1084992, 60.8578307], [7.1084443, 60.8579223], [7.1083983, 60.8580245], [7.108381, 60.8580826], [7.1083543, 60.8582648], [7.1083464, 60.8583662], [7.1083311, 60.8585625], [7.1083228, 60.8586131], [7.1083184, 60.8586399], [7.1082797, 60.8587626], [7.1082293, 60.8588767], [7.1081583, 60.8590025], [7.1078563, 60.8594547], [7.1077959, 60.8595915], [7.1077514, 60.8597498], [7.1077412, 60.8598409], [7.1077418, 60.8599183], [7.1077848, 60.8602682], [7.1078075, 60.8604299], [7.107814, 60.8604765], [7.1078379, 60.8606623], [7.107839, 60.8606708], [7.1079088, 60.8612129], [7.1079398, 60.8613588], [7.1079681, 60.8614409], [7.1080251, 60.8615512], [7.1080995, 60.8616589], [7.1081688, 60.8617393], [7.1082531, 60.8618213], [7.1083608, 60.8619084], [7.108482, 60.8619896], [7.1086942, 60.862106], [7.1087755, 60.8621426], [7.108786, 60.8621473]]}, "properties": {"electrified": "contact_line", "frequency": "16.67", "gauge": "1435", "name": "Fl\u00e5msbana", "passenger_lines": "1", "railway": "rail", "usage": "branch", "voltage": "15000", "length_km": 2.839}}, {"type": "Feature", "geometry": {"type": "LineString", "coordinates": [[7.1324872, 60.7455788], [7.1331006, 60.7457944], [7.1344326, 60.7463199], [7.1349678, 60.7465433], [7.1352599, 60.7466857]]}, "properties": {"electrified": "contact_line", "frequency": "16.67", "gauge": "1435", "name": "Fl\u00e5msbana", "passenger_lines": "1", "railway": "rail", "tunnel": "yes", "usage": "branch", "voltage": "15000", "length_km": 0.196}}, {"type": "Feature", "geometry": {"type": "LineString", "coordinates": [[7.118875, 60.8242825], [7.1202617, 60.8271468], [7.1205568, 60.8275319], [7.1209216, 60.8277881], [7.1216271, 60.8281039]]}, "properties": {"electrified": "contact_line", "frequency": "16.67", "gauge": "1435", "name": "Fl\u00e5msbana", "passenger_lines": "1", "railway": "rail", "tunnel": "yes", "usage": "branch", "voltage": "15000", "length_km": 0.461}}, {"type": "Feature", "geometry": {"type": "LineString", "coordinates": [[7.1066674, 60.7563692], [7.1059863, 60.7564366], [7.1058119, 60.7564537], [7.1056382, 60.7564764], [7.1054731, 60.7565004], [7.1052759, 60.7565349], [7.104997, 60.7565905], [7.10486, 60.7566232], [7.1047181, 60.7566609], [7.1043761, 60.7567634], [7.1038559, 60.7569396], [7.1036955, 60.7570006], [7.1034005, 60.7571285], [7.1031288, 60.7572667], [7.1028816, 60.7574117], [7.1026382, 60.7575682], [7.1021118, 60.7579125], [7.1017773, 60.7581376], [7.1016561, 60.7582191]]}, "properties": {"electrified": "contact_line", "frequency": "16.67", "gauge": "1435", "name": "Fl\u00e5msbana", "passenger_lines": "1", "railway": "rail", "usage": "branch", "voltage": "15000", "length_km": 0.356}}, {"type": "Feature", "geometry": {"type": "LineString", "coordinates": [[7.1235241, 60.7481848], [7.1230947, 60.7482503], [7.1226865, 60.7483406], [7.1223025, 60.7484548], [7.1220691, 60.7485566], [7.1208357, 60.7493546], [7.1112267, 60.755571], [7.1108547, 60.7558245], [7.1105601, 60.7560252], [7.1099784, 60.7562275], [7.1096171, 60.7563062], [7.1090951, 60.7563844], [7.1086367, 60.7563933], [7.1072232, 60.7563528], [7.1066674, 60.7563692]]}, "properties": {"electrified": "contact_line", "frequency": "16.67", "gauge": "1435", "name": "Fl\u00e5msbana", "passenger_lines": "1", "railway": "rail", "tunnel": "yes", "usage": "branch", "voltage": "15000", "length_km": 1.358}}, {"type": "Feature", "geometry": {"type": "LineString", "coordinates": [[7.1016561, 60.7582191], [7.1012805, 60.7584997], [7.1008452, 60.7589452], [7.1005506, 60.7591959], [7.1000297, 60.7594897], [7.0993046, 60.7597479], [7.0989882, 60.7598376], [7.0986058, 60.7599775], [7.0981054, 60.7602202], [7.0976564, 60.7605423], [7.0974566, 60.7608439], [7.0971886, 60.761355], [7.0970894, 60.7619078], [7.0972335, 60.7623067], [7.0976175, 60.762733], [7.0979605, 60.7629637], [7.0987045, 60.76333], [7.1006964, 60.7641212], [7.1013016, 60.7643521], [7.1019425, 60.7646232], [7.1021341, 60.7647043], [7.1025699, 60.7649213], [7.1028813, 60.7651357], [7.1029991, 60.7652828], [7.1030742, 60.7654191], [7.1031063, 60.7655401], [7.1031171, 60.7656562], [7.1031119, 60.7657685]]}, "properties": {"electrified": "contact_line", "frequency": "16.67", "gauge": "1435", "name": "Fl\u00e5msbana", "passenger_lines": "1", "railway": "rail", "tunnel": "yes", "usage": "branch", "voltage": "15000", "length_km": 1.066}}, {"type": "Feature", "geometry": {"type": "LineString", "coordinates": [[7.135805, 60.7472993], [7.1358213, 60.7473943], [7.1358189, 60.7474937], [7.1357692, 60.7477462], [7.1356796, 60.7479639], [7.1354174, 60.7482083], [7.1350837, 60.7484192], [7.1345956, 60.7486365], [7.1342629, 60.7487259], [7.1339193, 60.7487878], [7.1334057, 60.748844], [7.1329995, 60.7488396], [7.1329111, 60.7488386], [7.1325621, 60.7488049], [7.1322888, 60.7487783], [7.131871, 60.7487303], [7.1314037, 60.7486171], [7.1310062, 60.7484548], [7.1304995, 60.7481535], [7.1302128, 60.7480155], [7.1298435, 60.7478946], [7.1295342, 60.7478334], [7.1292087, 60.7477902]]}, "properties": {"electrified": "contact_line", "frequency": "16.67", "gauge": "1435", "name": "Fl\u00e5msbana", "passenger_lines": "1", "railway": "rail", "tunnel": "yes", "usage": "branch", "voltage": "15000", "length_km": 0.509}}, {"type": "Feature", "geometry": {"type": "LineString", "coordinates": [[7.1352599, 60.7466857], [7.1353599, 60.7467523], [7.1353794, 60.7467675], [7.1354748, 60.746842], [7.1355978, 60.7469593], [7.1356834, 60.7470646], [7.1356987, 60.7470893], [7.1357415, 60.7471578], [7.1357715, 60.7472247], [7.135805, 60.7472993]]}, "properties": {"electrified": "contact_line", "frequency": "16.67", "gauge": "1435", "name": "Fl\u00e5msbana", "passenger_lines": "1", "railway": "rail", "usage": "branch", "voltage": "15000", "length_km": 0.075}}, {"type": "Feature", "geometry": {"type": "LineString", "coordinates": [[7.1280687, 60.7423742], [7.1280829, 60.7426948], [7.1281057, 60.7428295], [7.1281551, 60.7429683], [7.1282056, 60.743064], [7.128245, 60.7431217], [7.1283469, 60.7432431], [7.1284074, 60.7433004], [7.1284718, 60.7433547], [7.1286301, 60.7434724], [7.1288032, 60.7435743], [7.1288985, 60.7436235], [7.1289998, 60.7436667], [7.1290908, 60.7437055], [7.1291205, 60.7437182], [7.1291353, 60.7437235], [7.1293259, 60.7437911], [7.1294506, 60.743829], [7.1295837, 60.7438644], [7.1297351, 60.7438985], [7.1298898, 60.743929], [7.1300765, 60.743958], [7.1302363, 60.7439771], [7.1303821, 60.7439906], [7.1305339, 60.7440023], [7.1306558, 60.7440067], [7.1309174, 60.7440097], [7.1312104, 60.7439974], [7.1312698, 60.7439921], [7.1313818, 60.7439821], [7.1315422, 60.743964], [7.131782, 60.743926], [7.1319521, 60.743892], [7.1321519, 60.7438436], [7.1322883, 60.7438053], [7.1324225, 60.7437624], [7.1326264, 60.7436908], [7.1329789, 60.7435458], [7.1332086, 60.7434435], [7.1334921, 60.7433082], [7.1339227, 60.7430794], [7.1341245, 60.74296], [7.1343267, 60.7428328], [7.1343736, 60.7428009], [7.1345238, 60.7426988], [7.1346763, 60.7425871], [7.1347472, 60.742531], [7.1348838, 60.7424229], [7.135367, 60.7420105], [7.1355068, 60.7419086], [7.1357348, 60.7417667], [7.1358774, 60.7416854]]}, "properties": {"electrified": "contact_line", "frequency": "16.67", "gauge": "1435", "name": "Fl\u00e5msbana", "passenger_lines": "1", "railway": "rail", "usage": "branch", "voltage": "15000", "length_km": 0.662}}, {"type": "Feature", "geometry": {"type": "LineString", "coordinates": [[7.1025618, 60.7747073], [7.1024261, 60.775277], [7.1023924, 60.7755129], [7.102409, 60.7757713], [7.1024948, 60.7760489], [7.1026415, 60.7762629]]}, "properties": {"electrified": "contact_line", "frequency": "16.67", "gauge": "1435", "name": "Fl\u00e5msbana", "passenger_lines": "1", "railway": "rail", "tunnel": "yes", "usage": "branch", "voltage": "15000", "length_km": 0.176}}, {"type": "Feature", "geometry": {"type": "LineString", "coordinates": [[7.1279517, 60.7414074], [7.1280002, 60.7415323], [7.1280536, 60.7417368], [7.1280654, 60.7419234]]}, "properties": {"electrified": "contact_line", "frequency": "16.67", "gauge": "1435", "name": "Fl\u00e5msbana", "passenger_lines": "1", "railway": "rail", "tunnel": "yes", "usage": "branch", "voltage": "15000", "length_km": 0.058}}, {"type": "Feature", "geometry": {"type": "LineString", "coordinates": [[7.1292087, 60.7477902], [7.1289581, 60.7477701], [7.1288016, 60.7477638], [7.1284995, 60.7477655], [7.1282969, 60.7477774], [7.1281422, 60.7477909], [7.1280307, 60.7478051], [7.1275508, 60.7478827], [7.1262762, 60.7481043], [7.1260326, 60.7481408], [7.1257509, 60.7481689], [7.1255207, 60.7481841], [7.1251382, 60.7481889], [7.1250198, 60.7481869], [7.1243904, 60.7481582], [7.1242628, 60.7481541], [7.1240305, 60.7481532], [7.1236999, 60.7481681], [7.1235241, 60.7481848]]}, "properties": {"electrified": "contact_line", "frequency": "16.67", "gauge": "1435", "maxspeed": "20", "name": "Fl\u00e5msbana", "passenger_lines": "1", "railway": "rail", "usage": "branch", "voltage": "15000", "length_km": 0.318, "maxspeed_kmh": 20.0}}, {"type": "Feature", "geometry": {"type": "LineString", "coordinates": [[7.0978546, 60.7819677], [7.0979221, 60.7820614], [7.0980036, 60.7822171], [7.0980197, 60.7822832], [7.0980432, 60.7823797], [7.0980488, 60.7824871], [7.0980424, 60.7825764], [7.0979883, 60.7827707], [7.0979349, 60.7828873], [7.0978952, 60.7829958], [7.0977168, 60.7833248], [7.0975425, 60.7835909]]}, "properties": {"electrified": "contact_line", "frequency": "16.67", "gauge": "1435", "name": "Fl\u00e5msbana", "passenger_lines": "1", "railway": "rail", "usage": "branch", "voltage": "15000", "length_km": 0.186}}, {"type": "Feature", "geometry": {"type": "LineString", "coordinates": [[7.0971256, 60.783973], [7.0970127, 60.7840387], [7.0969024, 60.7841028], [7.0966184, 60.7842264]]}, "properties": {"electrified": "contact_line", "frequency": "16.67", "gauge": "1435", "name": "Fl\u00e5msbana", "passenger_lines": "1", "railway": "rail", "tunnel": "yes", "usage": "branch", "voltage": "15000", "length_km": 0.04}}, {"type": "Feature", "geometry": {"type": "LineString", "coordinates": [[7.1185429, 60.8063782], [7.1187545, 60.8063715], [7.1189483, 60.8063654]]}, "properties": {"electrified": "contact_line", "frequency": "16.67", "gauge": "1435", "name": "Fl\u00e5msbana", "passenger_lines": "1", "railway": "rail", "usage": "branch", "voltage": "15000", "length_km": 0.022}}, {"type": "Feature", "geometry": {"type": "LineString", "coordinates": [[7.1234669, 60.8089266], [7.1234588, 60.8091358], [7.1234679, 60.8092603], [7.1235042, 60.8094369], [7.1235064, 60.8094477], [7.1235536, 60.8095903], [7.1235746, 60.8096421]]}, "properties": {"electrified": "contact_line", "frequency": "16.67", "gauge": "1435", "name": "Fl\u00e5msbana", "passenger_lines": "1", "railway": "rail", "usage": "branch", "voltage": "15000", "length_km": 0.08}}, {"type": "Feature", "geometry": {"type": "LineString", "coordinates": [[7.1189483, 60.8063654], [7.1193096, 60.8063657], [7.1196024, 60.8063828], [7.1199113, 60.8064219]]}, "properties": {"electrified": "contact_line", "frequency": "16.67", "gauge": "1435", "name": "Fl\u00e5msbana", "passenger_lines": "1", "railway": "rail", "tunnel": "yes", "usage": "branch", "voltage": "15000", "length_km": 0.053}}, {"type": "Feature", "geometry": {"type": "LineString", "coordinates": [[7.1235746, 60.8096421], [7.1237326, 60.8099763], [7.1240115, 60.8102955], [7.124387, 60.8106932], [7.1245255, 60.8110175], [7.1244943, 60.8113054], [7.1242613, 60.81185]]}, "properties": {"electrified": "contact_line", "frequency": "16.67", "gauge": "1435", "name": "Fl\u00e5msbana", "passenger_lines": "1", "railway": "rail", "tunnel": "yes", "usage": "branch", "voltage": "15000", "length_km": 0.257}}, {"type": "Feature", "geometry": {"type": "LineString", "coordinates": [[7.1187045, 60.8232092], [7.1186515, 60.8233133], [7.1186141, 60.8234148], [7.1185993, 60.8235043], [7.1185952, 60.823605], [7.1186016, 60.8236907], [7.1186166, 60.8237506], [7.1186362, 60.8238179], [7.1186675, 60.8238895], [7.1187014, 60.8239614], [7.118739, 60.8240287]]}, "properties": {"electrified": "contact_line", "frequency": "16.67", "gauge": "1435", "name": "Fl\u00e5msbana", "passenger_lines": "1", "railway": "rail", "usage": "branch", "voltage": "15000", "length_km": 0.093}}, {"type": "Feature", "geometry": {"type": "LineString", "coordinates": [[7.1212825, 60.7333249], [7.1214402, 60.7333909], [7.1215737, 60.7334546], [7.1217243, 60.7335418], [7.1218819, 60.7336444], [7.1220027, 60.7337305], [7.1220262, 60.7337501], [7.1221338, 60.7338401], [7.1221472, 60.7338502], [7.1222026, 60.7339034], [7.1222147, 60.7339152], [7.1222776, 60.7339768], [7.1223658, 60.7340803], [7.122421, 60.7341535], [7.1224973, 60.7342748], [7.1225186, 60.7343205], [7.1225782, 60.7344485], [7.1226279, 60.734636], [7.1226417, 60.734767], [7.1226408, 60.7348608], [7.1226061, 60.7350466], [7.1225469, 60.7352607], [7.1225187, 60.7353624], [7.1225153, 60.735516], [7.1225182, 60.7355395], [7.1225234, 60.7355719]]}, "properties": {"electrified": "contact_line", "frequency": "16.67", "gauge": "1435", "maxspeed": "40", "name": "Fl\u00e5msbana", "passenger_lines": "1", "railway": "rail", "usage": "branch", "voltage": "15000", "length_km": 0.273, "maxspeed_kmh": 40.0}}, {"type": "Feature", "geometry": {"type": "LineString", "coordinates": [[7.1261319, 60.7436441], [7.1273687, 60.7446595], [7.1275956, 60.7447927], [7.127789, 60.7448843], [7.1279899, 60.7449592], [7.1282207, 60.7450323], [7.1285123, 60.7450966], [7.1288234, 60.7451418]]}, "properties": {"electrified": "contact_line", "frequency": "16.67", "gauge": "1435", "name": "Fl\u00e5msbana", "passenger_lines": "1", "railway": "rail", "tunnel": "avalanche_protector", "usage": "branch", "voltage": "15000", "length_km": 0.23}}, {"type": "Feature", "geometry": {"type": "LineString", "coordinates": [[7.0946238, 60.7862993], [7.0945293, 60.7866281], [7.0945032, 60.7867521], [7.0944911, 60.7868503], [7.0945046, 60.7869765], [7.0945493, 60.7871299], [7.0946784, 60.7874377], [7.0947361, 60.7875443], [7.0948239, 60.7876568], [7.0949318, 60.787764], [7.0950225, 60.7878359], [7.0951457, 60.7879176], [7.0952717, 60.7879892], [7.0953959, 60.7880511], [7.0957802, 60.7882013], [7.0961079, 60.7883219], [7.0962238, 60.7883624], [7.0963287, 60.7883946], [7.0964391, 60.7884267], [7.0966433, 60.7884838], [7.0966969, 60.788499], [7.0967983, 60.78853], [7.0968581, 60.7885502], [7.0969838, 60.7885943]]}, "properties": {"electrified": "contact_line", "frequency": "16.67", "gauge": "1435", "maxspeed": "20", "name": "Fl\u00e5msbana", "passenger_lines": "1", "railway": "rail", "usage": "branch", "voltage": "15000", "length_km": 0.314, "maxspeed_kmh": 20.0}}, {"type": "Feature", "geometry": {"type": "LineString", "coordinates": [[7.0975479, 60.7805137], [7.0973563, 60.7807374], [7.0972645, 60.7809069], [7.0972431, 60.7811006], [7.0973128, 60.7813258], [7.0974897, 60.7815344], [7.0977317, 60.7818223]]}, "properties": {"electrified": "contact_line", "frequency": "16.67", "gauge": "1435", "name": "Fl\u00e5msbana", "passenger_lines": "1", "railway": "rail", "tunnel": "yes", "usage": "branch", "voltage": "15000", "length_km": 0.154}}, {"type": "Feature", "geometry": {"type": "LineString", "coordinates": [[7.1275169, 60.7408515], [7.1276099, 60.7409271], [7.1277244, 60.7410429], [7.1277486, 60.7410674], [7.1278132, 60.7411407], [7.1278655, 60.7412186], [7.1279517, 60.7414074]]}, "properties": {"electrified": "contact_line", "frequency": "16.67", "gauge": "1435", "name": "Fl\u00e5msbana", "passenger_lines": "1", "railway": "rail", "tunnel": "avalanche_protector", "usage": "branch", "voltage": "15000", "length_km": 0.067}}, {"type": "Feature", "geometry": {"type": "LineString", "coordinates": [[7.1262494, 60.7402041], [7.1268976, 60.7405], [7.127147, 60.7406271], [7.1273321, 60.7407287], [7.1275169, 60.7408515]]}, "properties": {"electrified": "contact_line", "frequency": "16.67", "gauge": "1435", "name": "Fl\u00e5msbana", "passenger_lines": "1", "railway": "rail", "tunnel": "yes", "usage": "branch", "voltage": "15000", "length_km": 0.1}}, {"type": "Feature", "geometry": {"type": "LineString", "coordinates": [[7.1193263, 60.8226714], [7.1190518, 60.8228406]]}, "properties": {"electrified": "contact_line", "frequency": "16.67", "gauge": "1435", "name": "Fl\u00e5msbana", "passenger_lines": "1", "railway": "rail", "tunnel": "yes", "usage": "branch", "voltage": "15000", "length_km": 0.024}}, {"type": "Feature", "geometry": {"type": "LineString", "coordinates": [[7.1242613, 60.81185], [7.1242104, 60.8119746], [7.1241615, 60.8121634], [7.1241375, 60.8122956], [7.124128, 60.8125566], [7.1241376, 60.8127129], [7.124182, 60.8129698], [7.124206, 60.8131964], [7.1242133, 60.8134613], [7.1242028, 60.8137012], [7.1241862, 60.8138493], [7.1241393, 60.8141041], [7.1240704, 60.8143854], [7.1239869, 60.8146686], [7.1239288, 60.8148095], [7.1238424, 60.8150192], [7.1236826, 60.8152996], [7.1235859, 60.8154405], [7.123534, 60.8155092], [7.1235293, 60.8155154], [7.1234585, 60.8156092], [7.1232534, 60.8158455], [7.123002, 60.8161111], [7.1229168, 60.8162176], [7.1228419, 60.8163447], [7.1228031, 60.8164364], [7.1227734, 60.8165563], [7.1227652, 60.8166501], [7.1227824, 60.8168232], [7.1228265, 60.8169534], [7.1229651, 60.8172967], [7.1230997, 60.8176857], [7.1231359, 60.8177667], [7.1231464, 60.8178581], [7.1231403, 60.8179565], [7.1231167, 60.818045], [7.1230856, 60.8181263], [7.1230397, 60.8182098], [7.1229331, 60.8183537], [7.1227901, 60.8184869], [7.1226408, 60.8185975], [7.1221142, 60.818941], [7.1217577, 60.8192183], [7.1215687, 60.8194405], [7.1210841, 60.8200461], [7.1209685, 60.820245], [7.120925, 60.8203417], [7.1208797, 60.8205012], [7.1208614, 60.820673], [7.1208597, 60.8207741], [7.1208974, 60.8213824], [7.1208886, 60.8214732], [7.1208443, 60.8216505], [7.120808, 60.8217298], [7.1207144, 60.8218686], [7.1206555, 60.8219372], [7.1205614, 60.8220243], [7.1204748, 60.8221002], [7.1203701, 60.822173], [7.120137, 60.822302], [7.1199781, 60.8223808], [7.119606, 60.8225373], [7.1193789, 60.8226462], [7.1193263, 60.8226714]]}, "properties": {"electrified": "contact_line", "frequency": "16.67", "gauge": "1435", "name": "Fl\u00e5msbana", "passenger_lines": "1", "railway": "rail", "usage": "branch", "voltage": "15000", "length_km": 1.282}}, {"type": "Feature", "geometry": {"type": "LineString", "coordinates": [[7.1234348, 60.8075551], [7.1234791, 60.8076275], [7.1235099, 60.807712], [7.1235394, 60.8078309], [7.1235555, 60.8080114], [7.1235, 60.8085844], [7.1234669, 60.8089266]]}, "properties": {"electrified": "contact_line", "frequency": "16.67", "gauge": "1435", "name": "Fl\u00e5msbana", "passenger_lines": "1", "railway": "rail", "tunnel": "yes", "usage": "branch", "voltage": "15000", "length_km": 0.154}}, {"type": "Feature", "geometry": {"type": "LineString", "coordinates": [[7.1225631, 60.806974], [7.1226969, 60.8070221], [7.1228018, 60.8070677], [7.1229977, 60.8071696], [7.1230855, 60.8072236], [7.1231706, 60.807288], [7.1232382, 60.8073468], [7.1233531, 60.807456], [7.1234348, 60.8075551]]}, "properties": {"electrified": "contact_line", "frequency": "16.67", "gauge": "1435", "name": "Fl\u00e5msbana", "passenger_lines": "1", "railway": "rail", "usage": "branch", "voltage": "15000", "length_km": 0.082}}, {"type": "Feature", "geometry": {"type": "LineString", "coordinates": [[7.1080032, 60.8004103], [7.1081757, 60.8006846], [7.1084458, 60.8009921], [7.1088141, 60.8012708], [7.1092039, 60.8014766]]}, "properties": {"electrified": "contact_line", "frequency": "16.67", "gauge": "1435", "name": "Fl\u00e5msbana", "passenger_lines": "1", "railway": "rail", "tunnel": "yes", "usage": "branch", "voltage": "15000", "length_km": 0.138}}, {"type": "Feature", "geometry": {"type": "LineString", "coordinates": [[7.097852, 60.7901455], [7.0977912, 60.790235], [7.0977867, 60.7902417], [7.0977822, 60.7902498], [7.0976914, 60.7904114], [7.0976832, 60.7904337], [7.0976589, 60.7904993], [7.0976547, 60.7905174], [7.0976377, 60.7905903], [7.0976379, 60.7907084], [7.0976486, 60.7907794], [7.0976677, 60.7908568], [7.097706, 60.7909489], [7.0977498, 60.7910188], [7.0978671, 60.7911658], [7.0979613, 60.7912497], [7.0980905, 60.7913453], [7.0982678, 60.7914548], [7.0990039, 60.7918625], [7.0990713, 60.7919013], [7.0992042, 60.7919778], [7.0994074, 60.792098], [7.0996467, 60.792252], [7.0997397, 60.7923118], [7.1000053, 60.7925015], [7.1001813, 60.7926385], [7.1004242, 60.7928479], [7.1005441, 60.7929751], [7.1006545, 60.7931222], [7.1006906, 60.7931831], [7.1007387, 60.7932682], [7.1008588, 60.7935235], [7.1009717, 60.7936982], [7.1010251, 60.7937627], [7.101132, 60.793874], [7.1012401, 60.7939701], [7.1015823, 60.7942509], [7.1017653, 60.7944291], [7.1018289, 60.7944992], [7.1019328, 60.794639], [7.1020152, 60.7947957], [7.1021056, 60.795035], [7.1022189, 60.7954667], [7.1022692, 60.7958006], [7.1023426, 60.7965535], [7.1023813, 60.7967667], [7.1024424, 60.796917], [7.1024965, 60.7970062], [7.1025202, 60.7970382], [7.1025591, 60.7970908], [7.1026508, 60.7971942], [7.1027331, 60.7972691], [7.1039594, 60.7982973], [7.104173, 60.7984515], [7.1043168, 60.7985438], [7.1044624, 60.7986269], [7.1045716, 60.7986892], [7.1047277, 60.7987689], [7.1048633, 60.7988318], [7.1050378, 60.7989106], [7.1051732, 60.7989619], [7.10715, 60.7997613], [7.1072584, 60.7998108], [7.1074477, 60.7999084], [7.1076646, 60.8000497], [7.1078194, 60.8001834], [7.1078849, 60.8002502], [7.1079793, 60.8003707], [7.1080032, 60.8004103]]}, "properties": {"electrified": "contact_line", "frequency": "16.67", "gauge": "1435", "maxspeed": "20", "name": "Fl\u00e5msbana", "passenger_lines": "1", "railway": "rail", "usage": "branch", "voltage": "15000", "length_km": 1.328, "maxspeed_kmh": 20.0}}, {"type": "Feature", "geometry": {"type": "LineString", "coordinates": [[7.1117094, 60.8029254], [7.1117914, 60.8031026], [7.1120113, 60.8036967], [7.1121079, 60.80394], [7.1122137, 60.8041133], [7.1123278, 60.8042488], [7.1124816, 60.804368], [7.112491, 60.8043753]]}, "properties": {"electrified": "contact_line", "frequency": "16.67", "gauge": "1435", "name": "Fl\u00e5msbana", "passenger_lines": "1", "railway": "rail", "tunnel": "yes", "usage": "branch", "voltage": "15000", "length_km": 0.169}}, {"type": "Feature", "geometry": {"type": "LineString", "coordinates": [[7.1092039, 60.8014766], [7.1100455, 60.8018862], [7.1106655, 60.8021994], [7.1111914, 60.8024802], [7.1113701, 60.8025968], [7.1113943, 60.8026155], [7.1114742, 60.8026769], [7.1115542, 60.8027486], [7.1116297, 60.8028346], [7.1117094, 60.8029254]]}, "properties": {"electrified": "contact_line", "frequency": "16.67", "gauge": "1435", "name": "Fl\u00e5msbana", "passenger_lines": "1", "railway": "rail", "usage": "branch", "voltage": "15000", "length_km": 0.213}}, {"type": "Feature", "geometry": {"type": "LineString", "coordinates": [[7.129264, 60.7451655], [7.1302034, 60.7451318], [7.1305702, 60.7451336], [7.1309222, 60.7451521], [7.1312642, 60.745204], [7.1315313, 60.7452564], [7.1320508, 60.7454075], [7.1324872, 60.7455788]]}, "properties": {"electrified": "contact_line", "frequency": "16.67", "gauge": "1435", "name": "Fl\u00e5msbana", "passenger_lines": "1", "railway": "rail", "tunnel": "avalanche_protector", "usage": "branch", "voltage": "15000", "length_km": 0.19}}, {"type": "Feature", "geometry": {"type": "LineString", "coordinates": [[7.1288234, 60.7451418], [7.1290433, 60.7451634], [7.129264, 60.7451655]]}, "properties": {"electrified": "contact_line", "frequency": "16.67", "gauge": "1435", "name": "Fl\u00e5msbana", "passenger_lines": "1", "railway": "rail", "tunnel": "yes", "usage": "branch", "voltage": "15000", "length_km": 0.024}}, {"type": "Feature", "geometry": {"type": "LineString", "coordinates": [[7.1034384, 60.7774377], [7.1034309, 60.777492], [7.1034192, 60.7775444]]}, "properties": {"electrified": "contact_line", "frequency": "16.67", "gauge": "1435", "name": "Fl\u00e5msbana", "passenger_lines": "1", "railway": "rail", "tunnel": "yes", "usage": "branch", "voltage": "15000", "length_km": 0.012}}, {"type": "Feature", "geometry": {"type": "LineString", "coordinates": [[7.1026415, 60.7762629], [7.1027273, 60.7763648], [7.1028273, 60.7764592], [7.1030765, 60.7766944], [7.1032143, 60.7768351], [7.1032764, 60.7769126], [7.1033577, 60.7770389], [7.1033765, 60.7770841], [7.1033979, 60.7771357], [7.1034258, 60.7772373], [7.1034405, 60.7773243], [7.1034384, 60.7774377]]}, "properties": {"electrified": "contact_line", "frequency": "16.67", "gauge": "1435", "name": "Fl\u00e5msbana", "passenger_lines": "1", "railway": "rail", "usage": "branch", "voltage": "15000", "length_km": 0.14}}, {"type": "Feature", "geometry": {"type": "LineString", "coordinates": [[7.102112, 60.7785181], [7.1017574, 60.778607], [7.1015712, 60.7786405], [7.1013758, 60.7786684], [7.1012867, 60.7786788], [7.1005872, 60.7787607], [7.100411, 60.778787], [7.1003045, 60.7788079], [7.0999696, 60.7788858], [7.0997978, 60.7789376], [7.0996157, 60.7790015], [7.0994547, 60.7790677], [7.0992972, 60.779143], [7.0990636, 60.7792834], [7.0989329, 60.7793782], [7.0985613, 60.7796783], [7.0985028, 60.7797229], [7.0984512, 60.7797674], [7.0978184, 60.7802817], [7.0975479, 60.7805137]]}, "properties": {"electrified": "contact_line", "frequency": "16.67", "gauge": "1435", "name": "Fl\u00e5msbana", "passenger_lines": "1", "railway": "rail", "usage": "branch", "voltage": "15000", "length_km": 0.352}}, {"type": "Feature", "geometry": {"type": "LineString", "coordinates": [[7.1178323, 60.8063861], [7.1181464, 60.8063896], [7.1182966, 60.8063863], [7.1185429, 60.8063782]]}, "properties": {"electrified": "contact_line", "frequency": "16.67", "gauge": "1435", "name": "Fl\u00e5msbana", "passenger_lines": "1", "railway": "rail", "usage": "branch", "voltage": "15000", "length_km": 0.039}}, {"type": "Feature", "geometry": {"type": "LineString", "coordinates": [[7.112491, 60.8043753], [7.1131746, 60.8048662], [7.1137407, 60.8052727], [7.1138999, 60.8053729], [7.114159, 60.8055097], [7.1143291, 60.8055866], [7.1144359, 60.8056295], [7.1146676, 60.8057092], [7.1148894, 60.8057739], [7.1155546, 60.8059439], [7.116597, 60.8062032], [7.1167736, 60.8062461], [7.1169684, 60.8062885], [7.1170288, 60.8063017], [7.1170723, 60.8063102], [7.1171091, 60.8063165], [7.1171576, 60.8063232], [7.1172926, 60.806342], [7.1175275, 60.8063676], [7.1178323, 60.8063861]]}, "properties": {"electrified": "contact_line", "frequency": "16.67", "gauge": "1435", "name": "Fl\u00e5msbana", "passenger_lines": "1", "railway": "rail", "usage": "branch", "voltage": "15000", "length_km": 0.382}}, {"type": "Feature", "geometry": {"type": "LineString", "coordinates": [[7.1320566, 60.744969], [7.1318144, 60.7448344], [7.1316169, 60.7447014], [7.1314362, 60.7445469], [7.1313393, 60.7443979], [7.1312958, 60.7442575], [7.1312818, 60.744076], [7.1312859, 60.7439461], [7.1313044, 60.7437479], [7.1313664, 60.7434631], [7.1314051, 60.7432173], [7.131417, 60.7428924], [7.1312689, 60.7425568], [7.1310362, 60.7423215], [7.1307513, 60.7421408], [7.1304462, 60.7419808], [7.1301153, 60.7418445], [7.1296656, 60.7417473], [7.1292418, 60.741687], [7.1288234, 60.7416452], [7.1284103, 60.7416359], [7.1280263, 60.7416511], [7.127727, 60.7416914], [7.1273857, 60.74175], [7.1270758, 60.7418311], [7.1267201, 60.7419973], [7.1263746, 60.742197], [7.1261263, 60.7424149], [7.126007, 60.7425692], [7.1259213, 60.742724], [7.1258827, 60.7428768], [7.1258837, 60.7430241], [7.125917, 60.7431926]]}, "properties": {"electrified": "contact_line", "frequency": "16.67", "gauge": "1435", "name": "Fl\u00e5msbana", "passenger_lines": "1", "railway": "rail", "tunnel": "yes", "usage": "branch", "voltage": "15000", "length_km": 0.732}}, {"type": "Feature", "geometry": {"type": "LineString", "coordinates": [[7.1348271, 60.7452896], [7.1346438, 60.7453168], [7.1344518, 60.745333], [7.134043, 60.7453626], [7.1336359, 60.745361], [7.1331838, 60.7453239], [7.1327307, 60.745244], [7.1325187, 60.7451674]]}, "properties": {"electrified": "contact_line", "frequency": "16.67", "gauge": "1435", "name": "Fl\u00e5msbana", "passenger_lines": "1", "railway": "rail", "tunnel": "yes", "usage": "branch", "voltage": "15000", "length_km": 0.132}}, {"type": "Feature", "geometry": {"type": "LineString", "coordinates": [[7.1325187, 60.7451674], [7.1321899, 60.7450298], [7.1320566, 60.744969]]}, "properties": {"electrified": "contact_line", "frequency": "16.67", "gauge": "1435", "name": "Fl\u00e5msbana", "passenger_lines": "1", "railway": "rail", "tunnel": "avalanche_protector", "usage": "branch", "voltage": "15000", "length_km": 0.034}}, {"type": "Feature", "geometry": {"type": "LineString", "coordinates": [[7.1019646, 60.7712586], [7.1019166, 60.7714224], [7.1018931, 60.771609], [7.1019039, 60.7717222], [7.1019285, 60.7718491], [7.1019343, 60.771866], [7.1019593, 60.7719389], [7.1020351, 60.7721142], [7.102198, 60.7723652], [7.1023589, 60.7726505], [7.1024329, 60.772816], [7.1025051, 60.7729948], [7.1025416, 60.7731098], [7.1025991, 60.7733085], [7.1026218, 60.7734214], [7.1026598, 60.7737197], [7.1026808, 60.773905], [7.1026776, 60.7740222], [7.1026483, 60.7743131], [7.1025996, 60.7745563], [7.1025618, 60.7747073]]}, "properties": {"electrified": "contact_line", "frequency": "16.67", "gauge": "1435", "name": "Fl\u00e5msbana", "passenger_lines": "1", "railway": "rail", "usage": "branch", "voltage": "15000", "length_km": 0.39}}, {"type": "Feature", "geometry": {"type": "LineString", "coordinates": [[7.1199113, 60.8064219], [7.1201807, 60.8064695], [7.1216995, 60.806766], [7.1217154, 60.8067691], [7.1219911, 60.8068229], [7.1223404, 60.8069046], [7.1224504, 60.8069364], [7.1225631, 60.806974]]}, "properties": {"electrified": "contact_line", "frequency": "16.67", "gauge": "1435", "name": "Fl\u00e5msbana", "passenger_lines": "1", "railway": "rail", "usage": "branch", "voltage": "15000", "length_km": 0.157}}, {"type": "Feature", "geometry": {"type": "LineString", "coordinates": [[7.0966184, 60.7842264], [7.0964169, 60.7842985], [7.0962361, 60.7843541], [7.0958498, 60.7844631], [7.0957353, 60.7845001], [7.0955949, 60.7845472], [7.0953696, 60.7846424], [7.0952515, 60.7847062], [7.0951711, 60.7847496], [7.0950647, 60.7848207]]}, "properties": {"electrified": "contact_line", "frequency": "16.67", "gauge": "1435", "name": "Fl\u00e5msbana", "passenger_lines": "1", "railway": "rail", "usage": "branch", "voltage": "15000", "length_km": 0.109}}, {"type": "Feature", "geometry": {"type": "LineString", "coordinates": [[7.0958326, 60.7881681], [7.0955788, 60.7880661], [7.0954363, 60.7879993], [7.095305, 60.7879291], [7.0952039, 60.7878665], [7.0951167, 60.7878052], [7.0950076, 60.7877153], [7.0949243, 60.7876272], [7.0948713, 60.7875582], [7.0948293, 60.7874917], [7.0947909, 60.7874178], [7.0947358, 60.787298], [7.0946856, 60.7871733], [7.0946531, 60.787082], [7.0946165, 60.7869534], [7.094597, 60.7868458], [7.0945844, 60.7867476], [7.094579, 60.7866648], [7.0945783, 60.7865824], [7.094583, 60.7864923], [7.0945981, 60.7863975], [7.0946238, 60.7862993]]}, "properties": {"electrified": "contact_line", "frequency": "16.67", "gauge": "1435", "maxspeed": "20", "name": "Fl\u00e5msbana", "railway": "rail", "service": "siding", "usage": "branch", "voltage": "15000", "length_km": 0.23, "maxspeed_kmh": 20.0}}, {"type": "Feature", "geometry": {"type": "LineString", "coordinates": [[7.094675, 60.7857455], [7.0946805, 60.7858212]]}, "properties": {"bridge": "yes", "electrified": "contact_line", "frequency": "16.67", "gauge": "1435", "name": "Fl\u00e5msbana", "passenger_lines": "1", "railway": "rail", "usage": "branch", "voltage": "15000", "length_km": 0.008}}, {"type": "Feature", "geometry": {"type": "LineString", "coordinates": [[7.1138636, 60.8629302], [7.1131902, 60.8628479], [7.1125813, 60.8627996], [7.1124662, 60.8627902], [7.1123392, 60.8627772], [7.1121703, 60.8627575], [7.1115327, 60.8626774]]}, "properties": {"electrified": "contact_line", "frequency": "16.67", "gauge": "1435", "maxspeed": "20", "name": "Fl\u00e5msbana", "railway": "rail", "service": "siding", "voltage": "15000", "length_km": 0.13, "maxspeed_kmh": 20.0}}, {"type": "Feature", "geometry": {"type": "LineString", "coordinates": [[7.1223928, 60.736869], [7.1223866, 60.7368843], [7.1223567, 60.7369586], [7.1222957, 60.7371366], [7.1222342, 60.7374488], [7.1222032, 60.7377595], [7.1222013, 60.7378733], [7.1221998, 60.737964], [7.1222051, 60.7380664], [7.1222241, 60.7381988], [7.1222623, 60.7383304], [7.1222885, 60.7383956], [7.1223391, 60.7385012], [7.1223888, 60.7385818], [7.1224886, 60.7386984], [7.1225835, 60.7387851], [7.1227054, 60.7388804], [7.1229146, 60.7390142], [7.1230709, 60.7390965], [7.1231725, 60.7391431], [7.1233855, 60.7392308], [7.1234965, 60.7392719], [7.1237933, 60.7393697], [7.1241654, 60.7394819], [7.1246334, 60.7396097], [7.1249028, 60.7396922], [7.1253647, 60.7398532], [7.1257776, 60.7400072], [7.1260146, 60.7401031], [7.1262494, 60.7402041]]}, "properties": {"electrified": "contact_line", "frequency": "16.67", "gauge": "1435", "name": "Fl\u00e5msbana", "passenger_lines": "1", "railway": "rail", "tunnel": "avalanche_protector", "usage": "branch", "voltage": "15000", "length_km": 0.476}}, {"type": "Feature", "geometry": {"type": "LineString", "coordinates": [[7.1280654, 60.7419234], [7.1280624, 60.7421663], [7.1280687, 60.7423742]]}, "properties": {"electrified": "contact_line", "frequency": "16.67", "gauge": "1435", "name": "Fl\u00e5msbana", "passenger_lines": "1", "railway": "rail", "tunnel": "avalanche_protector", "usage": "branch", "voltage": "15000", "length_km": 0.05}}, {"type": "Feature", "geometry": {"type": "LineString", "coordinates": [[7.1366226, 60.7413982], [7.1367689, 60.7413576], [7.1369498, 60.7413121], [7.1371507, 60.7412693], [7.1374439, 60.7412188], [7.1376703, 60.7411891], [7.137927, 60.7411642], [7.1381828, 60.7411501], [7.1383263, 60.741146], [7.1385887, 60.7411503], [7.1387287, 60.7411568], [7.1390331, 60.7411847], [7.1393152, 60.7412271], [7.1395806, 60.741281], [7.1397494, 60.7413246], [7.1399197, 60.7413757], [7.1401279, 60.7414519], [7.1403308, 60.7415424], [7.1404076, 60.741582], [7.1405845, 60.7416863], [7.1406792, 60.7417525], [7.1408102, 60.7418589], [7.1409509, 60.7420117], [7.141042, 60.7421491], [7.1411102, 60.7423255], [7.1411286, 60.7424537], [7.1411189, 60.7426003], [7.1410826, 60.7427418], [7.1410564, 60.7427978], [7.1410253, 60.7428571], [7.1409257, 60.7429973], [7.1408416, 60.7430897], [7.1407586, 60.7431677], [7.140663, 60.7432435], [7.1404549, 60.7433721], [7.140253, 60.7434751], [7.1401231, 60.7435318], [7.1398557, 60.7436312], [7.1391692, 60.7438637], [7.1386897, 60.7440293], [7.1386188, 60.7440539], [7.1383875, 60.7441328], [7.1356409, 60.7450804], [7.1355642, 60.7451046], [7.1353364, 60.7451765], [7.1351472, 60.7452252], [7.1348271, 60.7452896]]}, "properties": {"electrified": "contact_line", "frequency": "16.67", "gauge": "1435", "name": "Fl\u00e5msbana", "passenger_lines": "1", "railway": "rail", "usage": "branch", "voltage": "15000", "length_km": 0.82}}, {"type": "Feature", "geometry": {"type": "LineString", "coordinates": [[7.1358774, 60.7416854], [7.1360202, 60.7416155], [7.1361343, 60.7415648], [7.1364317, 60.7414542], [7.1366226, 60.7413982]]}, "properties": {"electrified": "contact_line", "frequency": "16.67", "gauge": "1435", "name": "Fl\u00e5msbana", "passenger_lines": "1", "railway": "rail", "tunnel": "avalanche_protector", "usage": "branch", "voltage": "15000", "length_km": 0.052}}, {"type": "Feature", "geometry": {"type": "LineString", "coordinates": [[7.1225234, 60.7355719], [7.1226055, 60.7359917], [7.1226078, 60.7360124], [7.1226145, 60.7360734], [7.1226154, 60.7361313], [7.1226149, 60.736187], [7.1226075, 60.7362544], [7.1225964, 60.7363316]]}, "properties": {"electrified": "contact_line", "frequency": "16.67", "gauge": "1435", "maxspeed": "40", "name": "Fl\u00e5msbana", "passenger_lines": "1", "railway": "rail", "usage": "branch", "voltage": "15000", "length_km": 0.085, "maxspeed_kmh": 40.0}}, {"type": "Feature", "geometry": {"type": "LineString", "coordinates": [[7.1031119, 60.7657685], [7.1030948, 60.7659284], [7.1030475, 60.7662194], [7.1030302, 60.766583], [7.1030641, 60.7672549], [7.1030548, 60.7676058], [7.1030473, 60.7677325], [7.102995, 60.7680646], [7.1027213, 60.7691924], [7.1024945, 60.7701271], [7.102388, 60.7704432], [7.1022833, 60.7706766], [7.1021205, 60.7709625], [7.1019856, 60.7711995], [7.1019646, 60.7712586]]}, "properties": {"electrified": "contact_line", "frequency": "16.67", "gauge": "1435", "name": "Fl\u00e5msbana", "passenger_lines": "1", "railway": "rail", "usage": "branch", "voltage": "15000", "length_km": 0.618}}, {"type": "Feature", "geometry": {"type": "LineString", "coordinates": [[7.0946805, 60.7858212], [7.0946879, 60.7859625], [7.0946808, 60.7860455], [7.0946805, 60.7860495], [7.0946782, 60.786077], [7.0946655, 60.7861424]]}, "properties": {"electrified": "contact_line", "frequency": "16.67", "gauge": "1435", "name": "Fl\u00e5msbana", "passenger_lines": "1", "railway": "rail", "usage": "branch", "voltage": "15000", "length_km": 0.036}}, {"type": "Feature", "geometry": {"type": "LineString", "coordinates": [[7.0969838, 60.7885943], [7.0966959, 60.7884889], [7.0962426, 60.7883189], [7.0958326, 60.7881681]]}, "properties": {"electrified": "contact_line", "frequency": "16.67", "gauge": "1435", "maxspeed": "20", "name": "Fl\u00e5msbana", "railway": "rail", "service": "siding", "usage": "branch", "voltage": "15000", "length_km": 0.079, "maxspeed_kmh": 20.0}}, {"type": "Feature", "geometry": {"type": "LineString", "coordinates": [[7.0977898, 60.7890206], [7.0978996, 60.7891248], [7.0979991, 60.7892558], [7.0980544, 60.789376], [7.0980952, 60.7895225], [7.0981019, 60.7896265], [7.0980673, 60.7897885], [7.0980097, 60.7899132], [7.097852, 60.7901455]]}, "properties": {"electrified": "contact_line", "frequency": "16.67", "gauge": "1435", "maxspeed": "20", "name": "Fl\u00e5msbana", "passenger_lines": "1", "railway": "rail", "usage": "branch", "voltage": "15000", "length_km": 0.13, "maxspeed_kmh": 20.0}}, {"type": "Feature", "geometry": {"type": "LineString", "coordinates": [[7.108786, 60.8621473], [7.1088824, 60.8621878], [7.1090602, 60.8622512], [7.1092519, 60.8623076], [7.1093564, 60.8623343], [7.1094609, 60.8623568], [7.109569, 60.8623804], [7.1097411, 60.8624123], [7.1102064, 60.8624985]]}, "properties": {"electrified": "contact_line", "frequency": "16.67", "gauge": "1435", "maxspeed": "20", "name": "Fl\u00e5msbana", "passenger_lines": "1", "railway": "rail", "usage": "branch", "voltage": "15000", "length_km": 0.087, "maxspeed_kmh": 20.0}}, {"type": "Feature", "geometry": {"type": "LineString", "coordinates": [[7.1102064, 60.8624985], [7.1108056, 60.862611], [7.1108255, 60.8626148], [7.1111464, 60.8626744], [7.1112858, 60.8626974], [7.1114088, 60.8627161], [7.1115515, 60.8627346], [7.1120152, 60.8627847], [7.112559, 60.8628377], [7.1132143, 60.8628877], [7.1138636, 60.8629302], [7.1144193, 60.8629712], [7.1144265, 60.8629717]]}, "properties": {"electrified": "contact_line", "frequency": "16.67", "gauge": "1435", "maxspeed": "20", "name": "Fl\u00e5msbana", "passenger_lines": "1", "railway": "rail", "usage": "branch", "voltage": "15000", "length_km": 0.237, "maxspeed_kmh": 20.0}}, {"type": "Feature", "geometry": {"type": "LineString", "coordinates": [[7.1225964, 60.7363316], [7.1225853, 60.736386], [7.1225625, 60.7364607], [7.1225179, 60.7365795], [7.1223928, 60.736869]]}, "properties": {"electrified": "contact_line", "frequency": "16.67", "gauge": "1435", "name": "Fl\u00e5msbana", "passenger_lines": "1", "railway": "rail", "usage": "branch", "voltage": "15000", "length_km": 0.061}}, {"type": "Feature", "geometry": {"type": "LineString", "coordinates": [[7.0946655, 60.7861424], [7.0946545, 60.7862034], [7.0946238, 60.7862993]]}, "properties": {"electrified": "contact_line", "frequency": "16.67", "gauge": "1435", "maxspeed": "20", "name": "Fl\u00e5msbana", "passenger_lines": "1", "railway": "rail", "usage": "branch", "voltage": "15000", "length_km": 0.018, "maxspeed_kmh": 20.0}}, {"type": "Feature", "geometry": {"type": "LineString", "coordinates": [[7.0969838, 60.7885943], [7.0972266, 60.7886885], [7.0973107, 60.7887276], [7.097401, 60.7887696], [7.0974816, 60.7888136], [7.0974961, 60.7888215], [7.0975938, 60.7888749], [7.0976704, 60.7889245], [7.0977457, 60.7889851], [7.0977898, 60.7890206]]}, "properties": {"electrified": "contact_line", "frequency": "16.67", "gauge": "1435", "maxspeed": "20", "name": "Fl\u00e5msbana", "passenger_lines": "1", "railway": "rail", "usage": "branch", "voltage": "15000", "length_km": 0.065, "maxspeed_kmh": 20.0}}, {"type": "Feature", "geometry": {"type": "LineString", "coordinates": [[7.0946561, 60.7854577], [7.094654, 60.7855247], [7.094675, 60.7857455]]}, "properties": {"electrified": "contact_line", "frequency": "16.67", "gauge": "1435", "name": "Fl\u00e5msbana", "passenger_lines": "1", "railway": "rail", "usage": "branch", "voltage": "15000", "length_km": 0.032}}, {"type": "Feature", "geometry": {"type": "LineString", "coordinates": [[7.0950647, 60.7848207], [7.094987, 60.7848823], [7.0948547, 60.7850161], [7.0947967, 60.7850863], [7.0947533, 60.7851513], [7.0947139, 60.7852303], [7.0946801, 60.7853204], [7.0946561, 60.7854577]]}, "properties": {"electrified": "contact_line", "frequency": "16.67", "gauge": "1435", "name": "Fl\u00e5msbana", "passenger_lines": "1", "railway": "rail", "usage": "branch", "voltage": "15000", "length_km": 0.075}}, {"type": "Feature", "geometry": {"type": "LineString", "coordinates": [[7.0975425, 60.7835909], [7.0974194, 60.7837367], [7.0974047, 60.7837507], [7.0973618, 60.7837917], [7.0973512, 60.7838018], [7.0972149, 60.7839165], [7.0971256, 60.783973]]}, "properties": {"electrified": "contact_line", "frequency": "16.67", "gauge": "1435", "name": "Fl\u00e5msbana", "passenger_lines": "1", "railway": "rail", "usage": "branch", "voltage": "15000", "length_km": 0.049}}, {"type": "Feature", "geometry": {"type": "LineString", "coordinates": [[7.0977317, 60.7818223], [7.0978546, 60.7819677]]}, "properties": {"electrified": "contact_line", "frequency": "16.67", "gauge": "1435", "name": "Fl\u00e5msbana", "passenger_lines": "1", "railway": "rail", "usage": "branch", "voltage": "15000", "length_km": 0.018}}, {"type": "Feature", "geometry": {"type": "LineString", "coordinates": [[7.1034192, 60.7775444], [7.1033678, 60.777669], [7.1032902, 60.777802], [7.1032265, 60.777885], [7.1031433, 60.7779723], [7.1030604, 60.7780467], [7.103047, 60.7780588], [7.1029427, 60.7781368], [7.1028694, 60.7781861], [7.1026287, 60.7783192], [7.1024707, 60.7783911], [7.1023307, 60.7784456], [7.102112, 60.7785181]]}, "properties": {"electrified": "contact_line", "frequency": "16.67", "gauge": "1435", "name": "Fl\u00e5msbana", "passenger_lines": "1", "railway": "rail", "usage": "branch", "voltage": "15000", "length_km": 0.134}}, {"type": "Feature", "geometry": {"type": "LineString", "coordinates": [[7.1223953, 60.8284044], [7.1228412, 60.8285465], [7.1230666, 60.828627], [7.1232895, 60.8287252], [7.1234001, 60.8287806], [7.1235176, 60.8288476], [7.123654, 60.8289366], [7.1237351, 60.8290001], [7.1237867, 60.8290497], [7.123856, 60.8291226], [7.1239756, 60.829294], [7.1240176, 60.8293848], [7.1240602, 60.8295209], [7.1240745, 60.8296756], [7.1240551, 60.829827], [7.1240213, 60.8299306], [7.1239615, 60.8300596], [7.1237141, 60.8304895], [7.1235709, 60.8308048], [7.1235257, 60.830929], [7.1234496, 60.8311882], [7.1234105, 60.8314003], [7.1233876, 60.8315712], [7.1233788, 60.8318914], [7.1233908, 60.8320371], [7.1234228, 60.8322575], [7.1235315, 60.8326849], [7.1236191, 60.832904], [7.1237138, 60.8330682], [7.1238457, 60.8332347], [7.1240029, 60.8333872], [7.1241115, 60.8334745], [7.1242933, 60.8336004], [7.1245217, 60.8337327], [7.1249166, 60.8339456], [7.1250604, 60.8340292], [7.1251566, 60.8340914], [7.125348, 60.8342299], [7.1254306, 60.8342956], [7.1255521, 60.8344036], [7.1256432, 60.8344942], [7.1257935, 60.8346785], [7.1258068, 60.8346949], [7.1258684, 60.8347899], [7.1259224, 60.834889], [7.125959, 60.8349722], [7.1260009, 60.8351107], [7.1260201, 60.8352203], [7.1260181, 60.8353408], [7.1259937, 60.8354497], [7.1259604, 60.8355328], [7.1258958, 60.8356575], [7.1258159, 60.8357665], [7.1257461, 60.8358425], [7.1256859, 60.8359003], [7.1255447, 60.8360147], [7.1251809, 60.8362811], [7.1250693, 60.8363698], [7.1249534, 60.8364618], [7.1248581, 60.8365499], [7.1247754, 60.836636], [7.1246529, 60.8367891], [7.1245729, 60.8369076], [7.1241886, 60.837532], [7.1236823, 60.8383702]]}, "properties": {"electrified": "contact_line", "frequency": "16.67", "gauge": "1435", "name": "Fl\u00e5msbana", "passenger_lines": "1", "railway": "rail", "usage": "branch", "voltage": "15000", "length_km": 1.216}}, {"type": "Feature", "geometry": {"type": "LineString", "coordinates": [[7.1236823, 60.8383702], [7.1234802, 60.8387048], [7.1233772, 60.8388752]]}, "properties": {"electrified": "contact_line", "frequency": "16.67", "gauge": "1435", "name": "Fl\u00e5msbana", "passenger_lines": "1", "railway": "rail", "usage": "branch", "voltage": "15000", "length_km": 0.059}}, {"type": "Feature", "geometry": {"type": "LineString", "coordinates": [[7.1216271, 60.8281039], [7.121843, 60.8282017], [7.1221175, 60.8283107], [7.1223953, 60.8284044]]}, "properties": {"electrified": "contact_line", "frequency": "16.67", "gauge": "1435", "name": "Fl\u00e5msbana", "passenger_lines": "1", "railway": "rail", "usage": "branch", "voltage": "15000", "length_km": 0.054}}, {"type": "Feature", "geometry": {"type": "LineString", "coordinates": [[7.118739, 60.8240287], [7.1188475, 60.8242228], [7.118875, 60.8242825]]}, "properties": {"electrified": "contact_line", "frequency": "16.67", "gauge": "1435", "name": "Fl\u00e5msbana", "passenger_lines": "1", "railway": "rail", "usage": "branch", "voltage": "15000", "length_km": 0.029}}, {"type": "Feature", "geometry": {"type": "LineString", "coordinates": [[7.1190518, 60.8228406], [7.1189636, 60.822903], [7.1188939, 60.8229662], [7.1188279, 60.8230378], [7.1187045, 60.8232092]]}, "properties": {"electrified": "contact_line", "frequency": "16.67", "gauge": "1435", "name": "Fl\u00e5msbana", "passenger_lines": "1", "railway": "rail", "usage": "branch", "voltage": "15000", "length_km": 0.046}}, {"type": "Feature", "geometry": {"type": "LineString", "coordinates": [[7.125917, 60.7431926], [7.1260141, 60.743455]]}, "properties": {"electrified": "contact_line", "frequency": "16.67", "gauge": "1435", "name": "Fl\u00e5msbana", "passenger_lines": "1", "railway": "rail", "tunnel": "avalanche_protector", "usage": "branch", "voltage": "15000", "length_km": 0.03}}, {"type": "Feature", "geometry": {"type": "LineString", "coordinates": [[7.1260141, 60.743455], [7.1260567, 60.7435564], [7.1261319, 60.7436441]]}, "properties": {"electrified": "contact_line", "frequency": "16.67", "gauge": "1435", "name": "Fl\u00e5msbana", "passenger_lines": "1", "railway": "rail", "tunnel": "yes", "usage": "branch", "voltage": "15000", "length_km": 0.022}}]}