{"type": "FeatureCollection", "features": [{"type": "Feature", "geometry": {"type": "LineString", "coordinates": [[6.6689961, 58.2957393], [6.6688352, 58.2956522], [6.6684815, 58.2954584], [6.6678082, 58.2951071], [6.6674303, 58.2949083], [6.666989, 58.2946761], [6.6664405, 58.2943832]]}, "properties": {"electrified": "no", "gauge": "1435", "name": "Flekkefjordbanen", "passenger_lines": "1", "railway": "rail", "length_km": 0.213}}, {"type": "Feature", "geometry": {"type": "LineString", "coordinates": [[6.6514516, 58.3456327], [6.651494, 58.3455586], [6.6515383, 58.3454523], [6.6515593, 58.3450599], [6.6514999, 58.3448319], [6.6514705, 58.344765], [6.651412, 58.3446649]]}, "properties": {"electrified": "no", "gauge": "1435", "maxspeed": "30", "name": "Flekkefjordbanen", "passenger_lines": "1", "railway": "rail", "tunnel": "yes", "length_km": 0.11, "maxspeed_kmh": 30.0}}, {"type": "Feature", "geometry": {"type": "LineString", "coordinates": [[6.6208705, 58.3839525], [6.6215098, 58.383605], [6.6223358, 58.3830274], [6.6233328, 58.382021], [6.6238293, 58.3811682], [6.6247946, 58.3752111], [6.6248019, 58.3742557], [6.6248254, 58.3740796], [6.6248752, 58.3738616], [6.6248931, 58.3738076]]}, "properties": {"electrified": "no", "gauge": "1435", "maxspeed": "50", "name": "Flekkefjordbanen", "passenger_lines": "1", "railway": "rail", "tunnel": "yes", "length_km": 1.186, "maxspeed_kmh": 50.0}}, {"type": "Feature", "geometry": {"type": "LineString", "coordinates": [[6.6548248, 58.4120648], [6.6547079, 58.4120739], [6.6545173, 58.412086], [6.6543792, 58.4120942], [6.654254, 58.4120983]]}, "properties": {"electrified": "no", "gauge": "1435", "maxspeed": "70", "name": "Flekkefjordbanen", "passenger_lines": "1", "railway": "rail", "length_km": 0.034, "maxspeed_kmh": 70.0}}, {"type": "Feature", "geometry": {"type": "LineString", "coordinates": [[6.6611635, 58.3213838], [6.6615631, 58.3213285]]}, "properties": {"bridge": "yes", "electrified": "no", "gauge": "1435", "maxspeed": "50", "name": "Flekkefjordbanen", "passenger_lines": "1", "railway": "rail", "length_km": 0.024, "maxspeed_kmh": 50.0}}, {"type": "Feature", "geometry": {"type": "LineString", "coordinates": [[6.6238801, 58.3671732], [6.6238296, 58.367079], [6.6237022, 58.3668304], [6.6234354, 58.3661774], [6.6233046, 58.3658078], [6.6232352, 58.3655809], [6.6231625, 58.3653376], [6.6230446, 58.3648564], [6.6230238, 58.3647383], [6.6230082, 58.3645233], [6.6230261, 58.3643502], [6.6230684, 58.3641031], [6.6231316, 58.363967], [6.6232099, 58.3638327], [6.6233052, 58.36372], [6.6234664, 58.3635575], [6.6236781, 58.3633638], [6.6237787, 58.3632882], [6.6240975, 58.363073], [6.6245167, 58.3628051], [6.624648, 58.3627157], [6.6247808, 58.3626165], [6.6249004, 58.3625161], [6.6250208, 58.3623996], [6.6251467, 58.362256], [6.6252372, 58.3621326]]}, "properties": {"electrified": "no", "gauge": "1435", "maxspeed": "50", "name": "Flekkefjordbanen", "passenger_lines": "1", "railway": "rail", "length_km": 0.605, "maxspeed_kmh": 50.0}}, {"type": "Feature", "geometry": {"type": "LineString", "coordinates": [[6.6319266, 58.3558111], [6.6433365, 58.3519683]]}, "properties": {"electrified": "no", "gauge": "1435", "maxspeed": "50", "name": "Flekkefjordbanen", "passenger_lines": "1", "railway": "rail", "tunnel": "yes", "length_km": 0.795, "maxspeed_kmh": 50.0}}, {"type": "Feature", "geometry": {"type": "LineString", "coordinates": [[6.6472031, 58.3389462], [6.6470784, 58.3380128]]}, "properties": {"electrified": "no", "gauge": "1435", "maxspeed": "50", "name": "Flekkefjordbanen", "passenger_lines": "1", "railway": "rail", "tunnel": "yes", "length_km": 0.104, "maxspeed_kmh": 50.0}}, {"type": "Feature", "geometry": {"type": "LineString", "coordinates": [[6.654254, 58.4120983], [6.6536942, 58.4121043], [6.6531279, 58.4120899]]}, "properties": {"electrified": "no", "gauge": "1435", "maxspeed": "70", "name": "Flekkefjordbanen", "passenger_lines": "1", "railway": "rail", "tunnel": "yes", "length_km": 0.066, "maxspeed_kmh": 70.0}}, {"type": "Feature", "geometry": {"type": "LineString", "coordinates": [[6.6233333, 58.3965227], [6.6232706, 58.3964234], [6.6231766, 58.3963016], [6.6230715, 58.3961867], [6.6229374, 58.3960597], [6.6227738, 58.3959263], [6.6222588, 58.3955409], [6.6220235, 58.3953503], [6.6217877, 58.3951291], [6.6217017, 58.3950415], [6.6215845, 58.3949089], [6.6214246, 58.3946942], [6.6213156, 58.3945244], [6.620924, 58.3938803], [6.6207728, 58.3936654], [6.6206205, 58.3934801], [6.6204114, 58.3932583], [6.6201779, 58.3930398], [6.6197971, 58.3927103], [6.619633, 58.3925558], [6.6195128, 58.3924245], [6.6194131, 58.3922969], [6.6193283, 58.392149], [6.6192673, 58.392015], [6.6192101, 58.391808], [6.6191857, 58.3916114], [6.6192035, 58.391424], [6.6192542, 58.3912346]]}, "properties": {"electrified": "no", "gauge": "1435", "maxspeed": "20", "name": "Flekkefjordbanen", "passenger_lines": "1", "railway": "rail", "length_km": 0.648, "maxspeed_kmh": 20.0}}, {"type": "Feature", "geometry": {"type": "LineString", "coordinates": [[6.6254925, 58.3607021], [6.6255484, 58.3601909]]}, "properties": {"electrified": "no", "gauge": "1435", "maxspeed": "30", "name": "Flekkefjordbanen", "passenger_lines": "1", "railway": "rail", "tunnel": "yes", "length_km": 0.057, "maxspeed_kmh": 30.0}}, {"type": "Feature", "geometry": {"type": "LineString", "coordinates": [[6.6751472, 58.2992948], [6.6751031, 58.2992574], [6.6725437, 58.2978287], [6.6699343, 58.2962537], [6.6689961, 58.2957393]]}, "properties": {"electrified": "no", "gauge": "1435", "maxspeed": "50", "name": "Flekkefjordbanen", "passenger_lines": "1", "railway": "rail", "tunnel": "yes", "length_km": 0.537, "maxspeed_kmh": 50.0}}, {"type": "Feature", "geometry": {"type": "LineString", "coordinates": [[6.6201492, 58.3851311], [6.6201793, 58.3849883], [6.6202276, 58.3848407], [6.6202872, 58.3847011], [6.620351, 58.3845746], [6.6204073, 58.384486], [6.6204704, 58.3843923], [6.6205434, 58.3842966], [6.6206229, 58.3841975], [6.6207372, 58.3840734], [6.6208291, 58.3839848], [6.6208705, 58.3839525]]}, "properties": {"electrified": "no", "gauge": "1435", "maxspeed": "20", "name": "Flekkefjordbanen", "passenger_lines": "1", "railway": "rail", "length_km": 0.139, "maxspeed_kmh": 20.0}}, {"type": "Feature", "geometry": {"type": "LineString", "coordinates": [[6.647737, 58.3407082], [6.6475382, 58.3402526]]}, "properties": {"electrified": "no", "gauge": "1435", "maxspeed": "50", "name": "Flekkefjordbanen", "passenger_lines": "1", "railway": "rail", "tunnel": "yes", "length_km": 0.052, "maxspeed_kmh": 50.0}}, {"type": "Feature", "geometry": {"type": "LineString", "coordinates": [[6.6433365, 58.3519683], [6.6441028, 58.3517102], [6.644253, 58.351659], [6.6444666, 58.351584], [6.6449003, 58.3514165], [6.6452646, 58.3512558], [6.6455818, 58.3511022], [6.6457274, 58.3510248], [6.6460153, 58.3508593], [6.6461523, 58.3507737], [6.6464259, 58.350595], [6.6471179, 58.3501271], [6.647689, 58.3497363], [6.6480972, 58.3494502], [6.6482059, 58.3493654], [6.6483624, 58.3492532], [6.648474, 58.3491595], [6.6486048, 58.3490315], [6.6487147, 58.3488995], [6.6489528, 58.3485556]]}, "properties": {"electrified": "no", "gauge": "1435", "maxspeed": "50", "name": "Flekkefjordbanen", "passenger_lines": "1", "railway": "rail", "length_km": 0.513, "maxspeed_kmh": 50.0}}, {"type": "Feature", "geometry": {"type": "LineString", "coordinates": [[6.6616624, 58.4153953], [6.6616791, 58.4153044], [6.6616947, 58.415083], [6.6616754, 58.4148514], [6.6616293, 58.4146562], [6.6615597, 58.4144669], [6.6615237, 58.4143923], [6.6614289, 58.4142211], [6.6612609, 58.41396], [6.6609297, 58.4134809], [6.6607585, 58.4132638], [6.6606564, 58.4131529], [6.6605395, 58.413041], [6.6603882, 58.4129177], [6.6602302, 58.4128054], [6.6600824, 58.4127104], [6.6599292, 58.4126218], [6.6596908, 58.4125044], [6.6596273, 58.4124745]]}, "properties": {"electrified": "no", "gauge": "1435", "maxspeed": "70", "name": "Flekkefjordbanen", "passenger_lines": "1", "railway": "rail", "length_km": 0.358, "maxspeed_kmh": 70.0}}, {"type": "Feature", "geometry": {"type": "LineString", "coordinates": [[6.6556133, 58.3229055], [6.655712, 58.3228483], [6.6557691, 58.3228171], [6.6559114, 58.3227391], [6.6562126, 58.3225866], [6.6564462, 58.3224797], [6.6568884, 58.3222953], [6.6570664, 58.32223], [6.6574618, 58.3220944], [6.6578331, 58.321981], [6.6579998, 58.3219344], [6.6583193, 58.3218512], [6.6586541, 58.3217735], [6.6590404, 58.321695], [6.6593925, 58.3216321], [6.6599374, 58.3215519], [6.6611635, 58.3213838]]}, "properties": {"electrified": "no", "gauge": "1435", "maxspeed": "50", "name": "Flekkefjordbanen", "passenger_lines": "1", "railway": "rail", "length_km": 0.375, "maxspeed_kmh": 50.0}}, {"type": "Feature", "geometry": {"type": "LineString", "coordinates": [[6.6754811, 58.3003281], [6.6754725, 58.3001016], [6.675443, 58.2998827], [6.6753854, 58.2996991], [6.6753411, 58.2996021], [6.6752949, 58.2995084], [6.6751472, 58.2992948]]}, "properties": {"electrified": "no", "gauge": "1435", "maxspeed": "50", "name": "Flekkefjordbanen", "passenger_lines": "1", "railway": "rail", "length_km": 0.118, "maxspeed_kmh": 50.0}}, {"type": "Feature", "geometry": {"type": "LineString", "coordinates": [[6.6255484, 58.3601909], [6.6255857, 58.3599729], [6.6256358, 58.3597501], [6.6256929, 58.3595414], [6.6257645, 58.359322], [6.6259094, 58.3589515], [6.625974, 58.3588045], [6.6261369, 58.3584786], [6.6262108, 58.3583491], [6.6262853, 58.3582339], [6.6263622, 58.3581362], [6.626543, 58.3579452], [6.6266673, 58.3578352], [6.6268258, 58.3577112], [6.6269379, 58.3576317], [6.6270838, 58.3575396], [6.6272111, 58.3574669]]}, "properties": {"electrified": "no", "gauge": "1435", "maxspeed": "30", "name": "Flekkefjordbanen", "passenger_lines": "1", "railway": "rail", "length_km": 0.325, "maxspeed_kmh": 30.0}}, {"type": "Feature", "geometry": {"type": "LineString", "coordinates": [[6.6308135, 58.3561835], [6.6306876, 58.3562288], [6.6305447, 58.3562875], [6.6303436, 58.3563748], [6.6302323, 58.3564212], [6.6301021, 58.3564694], [6.6289362, 58.3568617], [6.6287825, 58.3569127], [6.6286445, 58.3569507], [6.6283695, 58.3570217], [6.6282018, 58.357066], [6.6280578, 58.3571099]]}, "properties": {"electrified": "no", "gauge": "1435", "name": "Flekkefjordbanen", "railway": "rail", "service": "siding", "length_km": 0.192}}, {"type": "Feature", "geometry": {"type": "LineString", "coordinates": [[6.6244504, 58.4039436], [6.6243077, 58.4039084], [6.6240992, 58.4038548], [6.6239163, 58.4038024], [6.6237887, 58.4037634], [6.6235293, 58.4036728], [6.6233051, 58.4035814], [6.6231129, 58.4034918], [6.6229541, 58.4034118], [6.6226708, 58.4032375], [6.6225981, 58.4031882], [6.6224469, 58.4030724], [6.6223065, 58.4029507], [6.6221661, 58.4028064], [6.6221013, 58.4027308], [6.6220482, 58.4026687]]}, "properties": {"electrified": "no", "gauge": "1435", "maxspeed": "70", "name": "Flekkefjordbanen", "passenger_lines": "1", "railway": "rail", "length_km": 0.206, "maxspeed_kmh": 70.0}}, {"type": "Feature", "geometry": {"type": "LineString", "coordinates": [[6.6212767, 58.4012111], [6.6213548, 58.4009668], [6.6214789, 58.4007398], [6.6230151, 58.3980884], [6.6233692, 58.3972191], [6.623404, 58.3968544], [6.6233333, 58.3965227]]}, "properties": {"electrified": "no", "gauge": "1435", "maxspeed": "50", "name": "Flekkefjordbanen", "passenger_lines": "1", "railway": "rail", "tunnel": "yes", "length_km": 0.541, "maxspeed_kmh": 50.0}}, {"type": "Feature", "geometry": {"type": "LineString", "coordinates": [[6.644955, 58.3356025], [6.6438607, 58.3346006]]}, "properties": {"electrified": "no", "gauge": "1435", "maxspeed": "50", "name": "Flekkefjordbanen", "passenger_lines": "1", "railway": "rail", "tunnel": "yes", "length_km": 0.129, "maxspeed_kmh": 50.0}}, {"type": "Feature", "geometry": {"type": "LineString", "coordinates": [[6.6484642, 58.3418398], [6.6483823, 58.3417333], [6.6481317, 58.3413757], [6.6479051, 58.3410164], [6.6477735, 58.3407697], [6.647737, 58.3407082]]}, "properties": {"electrified": "no", "gauge": "1435", "maxspeed": "50", "name": "Flekkefjordbanen", "passenger_lines": "1", "railway": "rail", "length_km": 0.133, "maxspeed_kmh": 50.0}}, {"type": "Feature", "geometry": {"type": "LineString", "coordinates": [[6.6475382, 58.3402526], [6.6474785, 58.3400791], [6.6474068, 58.3398578], [6.6473105, 58.3394991], [6.6472844, 58.3393727]]}, "properties": {"electrified": "no", "gauge": "1435", "maxspeed": "50", "name": "Flekkefjordbanen", "passenger_lines": "1", "railway": "rail", "length_km": 0.099, "maxspeed_kmh": 50.0}}, {"type": "Feature", "geometry": {"type": "LineString", "coordinates": [[6.6740955, 58.3034354], [6.6742033, 58.303319], [6.6744895, 58.3029489], [6.6746449, 58.3027158], [6.6747587, 58.3025257], [6.674839, 58.3023763]]}, "properties": {"electrified": "no", "gauge": "1435", "maxspeed": "50", "name": "Flekkefjordbanen", "passenger_lines": "1", "railway": "rail", "length_km": 0.126, "maxspeed_kmh": 50.0}}, {"type": "Feature", "geometry": {"type": "LineString", "coordinates": [[6.6730774, 58.3044658], [6.6740955, 58.3034354]]}, "properties": {"electrified": "no", "gauge": "1435", "maxspeed": "50", "name": "Flekkefjordbanen", "passenger_lines": "1", "railway": "rail", "tunnel": "yes", "length_km": 0.13, "maxspeed_kmh": 50.0}}, {"type": "Feature", "geometry": {"type": "LineString", "coordinates": [[6.674839, 58.3023763], [6.6751379, 58.3016343], [6.6754228, 58.300776]]}, "properties": {"electrified": "no", "gauge": "1435", "maxspeed": "50", "name": "Flekkefjordbanen", "passenger_lines": "1", "railway": "rail", "tunnel": "yes", "length_km": 0.182, "maxspeed_kmh": 50.0}}, {"type": "Feature", "geometry": {"type": "LineString", "coordinates": [[6.6544929, 58.3260218], [6.6545489, 58.3258214], [6.6544748, 58.3248593]]}, "properties": {"electrified": "no", "gauge": "1435", "maxspeed": "50", "name": "Flekkefjordbanen", "passenger_lines": "1", "railway": "rail", "tunnel": "yes", "length_km": 0.13, "maxspeed_kmh": 50.0}}, {"type": "Feature", "geometry": {"type": "LineString", "coordinates": [[6.6470784, 58.3380128], [6.6470449, 58.3378171], [6.6469948, 58.3376264], [6.6469553, 58.337523], [6.6469055, 58.3374188], [6.646874, 58.3373648], [6.6468277, 58.3372851], [6.6466988, 58.3371034], [6.646629, 58.3370169], [6.6465342, 58.3369146], [6.6464075, 58.3367903], [6.6461305, 58.3365549], [6.6455465, 58.3360843], [6.6451557, 58.3357593], [6.644955, 58.3356025]]}, "properties": {"electrified": "no", "gauge": "1435", "maxspeed": "50", "name": "Flekkefjordbanen", "passenger_lines": "1", "railway": "rail", "length_km": 0.301, "maxspeed_kmh": 50.0}}, {"type": "Feature", "geometry": {"type": "LineString", "coordinates": [[6.6458632, 58.3317544], [6.6466278, 58.3313751], [6.646709, 58.3313342], [6.6471314, 58.3311166], [6.6475938, 58.33087], [6.6482122, 58.3305196], [6.6486237, 58.3302784], [6.6492598, 58.3298825], [6.6494464, 58.3297637], [6.6498717, 58.3294812], [6.6502858, 58.3291967], [6.650747, 58.3288673], [6.6512163, 58.3285118], [6.6514166, 58.3283538], [6.6515304, 58.3282664], [6.6520634, 58.3278212], [6.6524088, 58.3275643], [6.6527473, 58.3273371], [6.6531598, 58.3270891], [6.6535833, 58.3268481], [6.6539139, 58.3266404], [6.6540567, 58.3265343], [6.6542151, 58.3263993], [6.6543286, 58.3262816], [6.6544115, 58.326168], [6.6544929, 58.3260218]]}, "properties": {"electrified": "no", "gauge": "1435", "maxspeed": "50", "name": "Flekkefjordbanen", "passenger_lines": "1", "railway": "rail", "length_km": 0.821, "maxspeed_kmh": 50.0}}, {"type": "Feature", "geometry": {"type": "LineString", "coordinates": [[6.6680723, 58.3159924], [6.6677214, 58.3145181], [6.6674042, 58.3130216], [6.6673986, 58.3128121], [6.6674102, 58.3126771], [6.6674204, 58.3126196]]}, "properties": {"electrified": "no", "gauge": "1435", "maxspeed": "50", "name": "Flekkefjordbanen", "passenger_lines": "1", "railway": "rail", "tunnel": "yes", "length_km": 0.379, "maxspeed_kmh": 50.0}}, {"type": "Feature", "geometry": {"type": "LineString", "coordinates": [[6.6688959, 58.310992], [6.6692174, 58.3107432], [6.6693599, 58.3106325], [6.6696088, 58.3104392], [6.6700204, 58.3101197], [6.6707409, 58.3095528], [6.6709662, 58.309346], [6.6711343, 58.3091597], [6.6712157, 58.3090462], [6.6713339, 58.3088499], [6.6713778, 58.3087585], [6.6714471, 58.3085878], [6.6714811, 58.3084752], [6.6715167, 58.3083048], [6.6715256, 58.3082201], [6.6715644, 58.3077219]]}, "properties": {"electrified": "no", "gauge": "1435", "maxspeed": "50", "name": "Flekkefjordbanen", "passenger_lines": "1", "railway": "rail", "length_km": 0.407, "maxspeed_kmh": 50.0}}, {"type": "Feature", "geometry": {"type": "LineString", "coordinates": [[6.6615631, 58.3213285], [6.6621362, 58.3212484], [6.6625145, 58.321188], [6.6626707, 58.3211584], [6.6628217, 58.3211262], [6.6631592, 58.3210405], [6.6634893, 58.3209371], [6.6636874, 58.320865], [6.6639058, 58.3207775], [6.6641226, 58.3206803], [6.6643185, 58.3205806], [6.6644547, 58.3205045], [6.6646342, 58.3203907], [6.66476, 58.3203039], [6.6649576, 58.3201445], [6.6650701, 58.3200404], [6.6651541, 58.3199574], [6.666265, 58.3187582], [6.6673501, 58.3175868], [6.6676184, 58.3172972], [6.6677314, 58.3171691], [6.6678387, 58.3170306], [6.6679208, 58.3169039], [6.6679764, 58.3167951], [6.6680533, 58.3165822], [6.6680795, 58.316467], [6.6680903, 58.3163932], [6.6680983, 58.3162513], [6.6680896, 58.3160934], [6.6680723, 58.3159924]]}, "properties": {"electrified": "no", "gauge": "1435", "maxspeed": "50", "name": "Flekkefjordbanen", "passenger_lines": "1", "railway": "rail", "length_km": 0.751, "maxspeed_kmh": 50.0}}, {"type": "Feature", "geometry": {"type": "LineString", "coordinates": [[6.6531279, 58.4120899], [6.6529332, 58.4120802], [6.6526398, 58.4120561], [6.6524925, 58.4120417], [6.6521449, 58.4119986], [6.651903, 58.4119619], [6.6515827, 58.4119033], [6.6511011, 58.4117963], [6.65097, 58.4117625], [6.6506245, 58.4116621], [6.6504738, 58.411614], [6.6501933, 58.4115166], [6.6497956, 58.4113557], [6.6494662, 58.4112005], [6.6492496, 58.411085], [6.6489985, 58.4109355], [6.6472056, 58.4097954], [6.6468079, 58.4095601], [6.6465106, 58.4094125], [6.6462259, 58.4092909], [6.6459282, 58.409181], [6.645625, 58.4090859], [6.6452595, 58.4089876], [6.6447422, 58.4088614], [6.6407291, 58.4078895]]}, "properties": {"electrified": "no", "gauge": "1435", "maxspeed": "70", "name": "Flekkefjordbanen", "passenger_lines": "1", "railway": "rail", "length_km": 0.886, "maxspeed_kmh": 70.0}}, {"type": "Feature", "geometry": {"type": "LineString", "coordinates": [[6.6246175, 58.4039837], [6.6244504, 58.4039436]]}, "properties": {"bridge": "yes", "electrified": "no", "gauge": "1435", "maxspeed": "70", "name": "Flekkefjordbanen", "passenger_lines": "1", "railway": "rail", "length_km": 0.011, "maxspeed_kmh": 70.0}}, {"type": "Feature", "geometry": {"type": "LineString", "coordinates": [[6.667464, 58.3124717], [6.667498, 58.3123831], [6.6675931, 58.3121962], [6.6677035, 58.3120318], [6.6678312, 58.311874], [6.6679509, 58.3117514], [6.6680762, 58.3116371], [6.6681129, 58.3116056], [6.6682034, 58.3115279]]}, "properties": {"electrified": "no", "gauge": "1435", "maxspeed": "50", "name": "Flekkefjordbanen", "passenger_lines": "1", "railway": "rail", "length_km": 0.115, "maxspeed_kmh": 50.0}}, {"type": "Feature", "geometry": {"type": "LineString", "coordinates": [[6.6682034, 58.3115279], [6.6688959, 58.310992]]}, "properties": {"bridge": "yes", "electrified": "no", "gauge": "1435", "maxspeed": "50", "name": "Flekkefjordbanen", "passenger_lines": "1", "railway": "rail", "length_km": 0.072, "maxspeed_kmh": 50.0}}, {"type": "Feature", "geometry": {"type": "LineString", "coordinates": [[6.6595188, 58.4124281], [6.6594251, 58.4123901], [6.659163, 58.4122948], [6.6588821, 58.4122104], [6.6587309, 58.4121697], [6.6585595, 58.4121287], [6.6582138, 58.4120594], [6.6580537, 58.4120337], [6.6577469, 58.4119928], [6.6573823, 58.4119611], [6.6572241, 58.4119526], [6.6569193, 58.4119449], [6.6565224, 58.4119511], [6.6560149, 58.4119803], [6.6551216, 58.4120443]]}, "properties": {"electrified": "no", "gauge": "1435", "maxspeed": "70", "name": "Flekkefjordbanen", "passenger_lines": "1", "railway": "rail", "length_km": 0.271, "maxspeed_kmh": 70.0}}, {"type": "Feature", "geometry": {"type": "LineString", "coordinates": [[6.6596273, 58.4124745], [6.6595188, 58.4124281]]}, "properties": {"bridge": "yes", "electrified": "no", "gauge": "1435", "maxspeed": "70", "name": "Flekkefjordbanen", "passenger_lines": "1", "railway": "rail", "length_km": 0.008, "maxspeed_kmh": 70.0}}, {"type": "Feature", "geometry": {"type": "LineString", "coordinates": [[6.6192542, 58.3912346], [6.6203927, 58.3869806], [6.6203865, 58.3863645], [6.6201478, 58.3854885], [6.6201259, 58.3852826]]}, "properties": {"electrified": "no", "gauge": "1435", "maxspeed": "50", "name": "Flekkefjordbanen", "passenger_lines": "1", "railway": "rail", "tunnel": "yes", "length_km": 0.67, "maxspeed_kmh": 50.0}}, {"type": "Feature", "geometry": {"type": "LineString", "coordinates": [[6.6472683, 58.3392952], [6.6472518, 58.3392027], [6.6472309, 58.33906], [6.6472031, 58.3389462]]}, "properties": {"electrified": "no", "gauge": "1435", "maxspeed": "50", "name": "Flekkefjordbanen", "passenger_lines": "1", "railway": "rail", "length_km": 0.039, "maxspeed_kmh": 50.0}}, {"type": "Feature", "geometry": {"type": "LineString", "coordinates": [[6.6472844, 58.3393727], [6.6472683, 58.3392952]]}, "properties": {"bridge": "yes", "electrified": "no", "gauge": "1435", "maxspeed": "50", "name": "Flekkefjordbanen", "passenger_lines": "1", "railway": "rail", "length_km": 0.009, "maxspeed_kmh": 50.0}}, {"type": "Feature", "geometry": {"type": "LineString", "coordinates": [[6.6554991, 58.3229726], [6.6556133, 58.3229055]]}, "properties": {"bridge": "yes", "electrified": "no", "gauge": "1435", "maxspeed": "50", "name": "Flekkefjordbanen", "passenger_lines": "1", "railway": "rail", "length_km": 0.01, "maxspeed_kmh": 50.0}}, {"type": "Feature", "geometry": {"type": "LineString", "coordinates": [[6.6544748, 58.3248593], [6.6544237, 58.3245639], [6.6544111, 58.3244495], [6.6544232, 58.3241966], [6.6544483, 58.3240848], [6.6545112, 58.3239282], [6.6545716, 58.3238113], [6.6546507, 58.3236873], [6.6547436, 58.3235639], [6.6549507, 58.3233573], [6.6551104, 58.3232312], [6.6552376, 58.323141], [6.6553758, 58.3230487], [6.6554991, 58.3229726]]}, "properties": {"electrified": "no", "gauge": "1435", "maxspeed": "50", "name": "Flekkefjordbanen", "passenger_lines": "1", "railway": "rail", "length_km": 0.227, "maxspeed_kmh": 50.0}}, {"type": "Feature", "geometry": {"type": "LineString", "coordinates": [[6.6674491, 58.3125157], [6.667464, 58.3124717]]}, "properties": {"bridge": "yes", "electrified": "no", "gauge": "1435", "maxspeed": "50", "name": "Flekkefjordbanen", "passenger_lines": "1", "railway": "rail", "length_km": 0.005, "maxspeed_kmh": 50.0}}, {"type": "Feature", "geometry": {"type": "LineString", "coordinates": [[6.6674204, 58.3126196], [6.6674491, 58.3125157]]}, "properties": {"electrified": "no", "gauge": "1435", "maxspeed": "50", "name": "Flekkefjordbanen", "passenger_lines": "1", "railway": "rail", "length_km": 0.012, "maxspeed_kmh": 50.0}}, {"type": "Feature", "geometry": {"type": "LineString", "coordinates": [[6.6436855, 58.3329835], [6.6438094, 58.3328847], [6.6445529, 58.3324283], [6.6451889, 58.3320827], [6.6458632, 58.3317544]]}, "properties": {"electrified": "no", "gauge": "1435", "maxspeed": "50", "name": "Flekkefjordbanen", "passenger_lines": "1", "railway": "rail", "tunnel": "yes", "length_km": 0.188, "maxspeed_kmh": 50.0}}, {"type": "Feature", "geometry": {"type": "LineString", "coordinates": [[6.6438607, 58.3346006], [6.6437328, 58.3344633], [6.6436507, 58.3343598], [6.6435698, 58.3342464], [6.6434973, 58.3341104], [6.6434507, 58.3339774], [6.6434191, 58.3338309], [6.6434106, 58.3336806], [6.6434235, 58.3335486], [6.6434577, 58.3334131], [6.6435122, 58.3332661], [6.6435836, 58.3331355], [6.6436855, 58.3329835]]}, "properties": {"electrified": "no", "gauge": "1435", "maxspeed": "50", "name": "Flekkefjordbanen", "passenger_lines": "1", "railway": "rail", "length_km": 0.187, "maxspeed_kmh": 50.0}}, {"type": "Feature", "geometry": {"type": "LineString", "coordinates": [[6.651412, 58.3446649], [6.6513549, 58.3445709], [6.6513, 58.3444966], [6.6512091, 58.3443913], [6.6511489, 58.3443278]]}, "properties": {"electrified": "no", "gauge": "1435", "maxspeed": "30", "name": "Flekkefjordbanen", "passenger_lines": "1", "railway": "rail", "length_km": 0.041, "maxspeed_kmh": 30.0}}, {"type": "Feature", "geometry": {"type": "LineString", "coordinates": [[6.6511489, 58.3443278], [6.6509891, 58.3441937], [6.6507795, 58.3440097], [6.6485527, 58.3419481], [6.6484642, 58.3418398]]}, "properties": {"electrified": "no", "gauge": "1435", "maxspeed": "50", "name": "Flekkefjordbanen", "passenger_lines": "1", "railway": "rail", "tunnel": "yes", "length_km": 0.32, "maxspeed_kmh": 50.0}}, {"type": "Feature", "geometry": {"type": "LineString", "coordinates": [[6.625244, 58.373247], [6.6252762, 58.3731953]]}, "properties": {"bridge": "yes", "electrified": "no", "gauge": "1435", "maxspeed": "50", "name": "Flekkefjordbanen", "passenger_lines": "1", "railway": "rail", "length_km": 0.006, "maxspeed_kmh": 50.0}}, {"type": "Feature", "geometry": {"type": "LineString", "coordinates": [[6.6248931, 58.3738076], [6.625244, 58.373247]]}, "properties": {"electrified": "no", "gauge": "1435", "maxspeed": "50", "name": "Flekkefjordbanen", "passenger_lines": "1", "railway": "rail", "length_km": 0.066, "maxspeed_kmh": 50.0}}, {"type": "Feature", "geometry": {"type": "LineString", "coordinates": [[6.6550685, 58.4120481], [6.6548248, 58.4120648]]}, "properties": {"bridge": "yes", "electrified": "no", "gauge": "1435", "maxspeed": "70", "name": "Flekkefjordbanen", "passenger_lines": "1", "railway": "rail", "length_km": 0.014, "maxspeed_kmh": 70.0}}, {"type": "Feature", "geometry": {"type": "LineString", "coordinates": [[6.6718073, 58.3065727], [6.6719184, 58.3062714], [6.6720394, 58.3060012], [6.672174, 58.3057404], [6.67233, 58.3054706], [6.672506, 58.3051971], [6.6726274, 58.3050224], [6.6727006, 58.3049273], [6.6730774, 58.3044658]]}, "properties": {"electrified": "no", "gauge": "1435", "maxspeed": "50", "name": "Flekkefjordbanen", "passenger_lines": "1", "railway": "rail", "length_km": 0.248, "maxspeed_kmh": 50.0}}, {"type": "Feature", "geometry": {"type": "LineString", "coordinates": [[6.6715644, 58.3077219], [6.6715671, 58.3076669]]}, "properties": {"bridge": "yes", "electrified": "no", "gauge": "1435", "maxspeed": "50", "name": "Flekkefjordbanen", "passenger_lines": "1", "railway": "rail", "length_km": 0.006, "maxspeed_kmh": 50.0}}, {"type": "Feature", "geometry": {"type": "LineString", "coordinates": [[6.6551216, 58.4120443], [6.6550685, 58.4120481]]}, "properties": {"electrified": "no", "gauge": "1435", "maxspeed": "70", "name": "Flekkefjordbanen", "passenger_lines": "1", "railway": "rail", "length_km": 0.003, "maxspeed_kmh": 70.0}}, {"type": "Feature", "geometry": {"type": "LineString", "coordinates": [[6.6272111, 58.3574669], [6.6273908, 58.3573741], [6.6275748, 58.3572914], [6.6279114, 58.3571616], [6.6280578, 58.3571099], [6.6286105, 58.3569262], [6.6288691, 58.3568392], [6.6308135, 58.3561835], [6.6319266, 58.3558111]]}, "properties": {"electrified": "no", "gauge": "1435", "maxspeed": "50", "name": "Flekkefjordbanen", "passenger_lines": "1", "railway": "rail", "length_km": 0.333, "maxspeed_kmh": 50.0}}, {"type": "Feature", "geometry": {"type": "LineString", "coordinates": [[6.6252372, 58.3621326], [6.6253323, 58.3619715], [6.625428, 58.3617518], [6.6254714, 58.3615625], [6.6254856, 58.3613392], [6.6254925, 58.3607021]]}, "properties": {"electrified": "no", "gauge": "1435", "maxspeed": "30", "name": "Flekkefjordbanen", "passenger_lines": "1", "railway": "rail", "length_km": 0.161, "maxspeed_kmh": 30.0}}, {"type": "Feature", "geometry": {"type": "LineString", "coordinates": [[6.6240424, 58.3674032], [6.6238801, 58.3671732]]}, "properties": {"electrified": "no", "gauge": "1435", "maxspeed": "50", "name": "Flekkefjordbanen", "passenger_lines": "1", "railway": "rail", "tunnel": "yes", "length_km": 0.027, "maxspeed_kmh": 50.0}}, {"type": "Feature", "geometry": {"type": "LineString", "coordinates": [[6.6252762, 58.3731953], [6.625397, 58.3730052], [6.6261023, 58.3718781], [6.6261711, 58.3717572], [6.6262342, 58.3716176], [6.6262901, 58.3714341], [6.6263136, 58.3712632], [6.6263159, 58.3711294], [6.626301, 58.3709798], [6.6262615, 58.3708063], [6.6261475, 58.3704611], [6.6260267, 58.3701546], [6.625872, 58.3698272], [6.6257788, 58.3696489], [6.6256684, 58.369455], [6.6254681, 58.3691394], [6.6253327, 58.3689432], [6.6251775, 58.3687364], [6.6249528, 58.3684622], [6.6242876, 58.3677028], [6.6240767, 58.3674504], [6.6240424, 58.3674032]]}, "properties": {"electrified": "no", "gauge": "1435", "maxspeed": "50", "name": "Flekkefjordbanen", "passenger_lines": "1", "railway": "rail", "length_km": 0.679, "maxspeed_kmh": 50.0}}, {"type": "Feature", "geometry": {"type": "LineString", "coordinates": [[6.6220482, 58.4026687], [6.6218908, 58.4024591], [6.6217638, 58.4022874], [6.6215415, 58.4019858], [6.6214024, 58.401777], [6.6213377, 58.4016499], [6.6213013, 58.4015497], [6.6212694, 58.4014084], [6.6212604, 58.4012885], [6.6212767, 58.4012111]]}, "properties": {"electrified": "no", "gauge": "1435", "maxspeed": "50", "name": "Flekkefjordbanen", "passenger_lines": "1", "railway": "rail", "length_km": 0.171, "maxspeed_kmh": 50.0}}, {"type": "Feature", "geometry": {"type": "LineString", "coordinates": [[6.6407291, 58.4078895], [6.6404618, 58.4078248], [6.6401476, 58.4077491], [6.6399172, 58.4076933]]}, "properties": {"electrified": "no", "gauge": "1435", "maxspeed": "20", "name": "Flekkefjordbanen", "passenger_lines": "1", "railway": "rail", "length_km": 0.052, "maxspeed_kmh": 20.0}}, {"type": "Feature", "geometry": {"type": "LineString", "coordinates": [[6.6613264, 58.4163154], [6.6615007, 58.4158757], [6.6615852, 58.4156623], [6.6616216, 58.4155569], [6.6616624, 58.4153953]]}, "properties": {"electrified": "no", "gauge": "1435", "maxspeed": "40", "name": "Flekkefjordbanen", "passenger_lines": "1", "railway": "rail", "length_km": 0.105, "maxspeed_kmh": 40.0}}, {"type": "Feature", "geometry": {"type": "LineString", "coordinates": [[6.6399172, 58.4076933], [6.6345145, 58.4063857], [6.6285289, 58.4049333], [6.6258985, 58.404295], [6.6255976, 58.404222], [6.6246175, 58.4039837]]}, "properties": {"electrified": "no", "gauge": "1435", "maxspeed": "70", "name": "Flekkefjordbanen", "passenger_lines": "1", "railway": "rail", "length_km": 0.988, "maxspeed_kmh": 70.0}}, {"type": "Feature", "geometry": {"type": "LineString", "coordinates": [[6.6201259, 58.3852826], [6.6201492, 58.3851311]]}, "properties": {"electrified": "no", "gauge": "1435", "maxspeed": "50", "name": "Flekkefjordbanen", "passenger_lines": "1", "railway": "rail", "length_km": 0.017, "maxspeed_kmh": 50.0}}, {"type": "Feature", "geometry": {"type": "LineString", "coordinates": [[6.6715671, 58.3076669], [6.671577, 58.3075123], [6.6716475, 58.3071331], [6.6716741, 58.3070305], [6.6716895, 58.3069711], [6.6717377, 58.3067744], [6.6718073, 58.3065727]]}, "properties": {"electrified": "no", "gauge": "1435", "name": "Flekkefjordbanen", "passenger_lines": "1", "railway": "rail", "length_km": 0.123}}, {"type": "Feature", "geometry": {"type": "LineString", "coordinates": [[6.6489528, 58.3485556], [6.6493338, 58.3478858], [6.6494272, 58.3477425], [6.6496059, 58.3474965], [6.6497261, 58.3473471], [6.6499976, 58.3470518], [6.6501476, 58.3469012], [6.6503603, 58.3467043], [6.6505757, 58.3465201], [6.6510113, 58.3461699], [6.6511168, 58.3460747], [6.6512077, 58.3459847], [6.6512919, 58.3458883], [6.6513716, 58.3457836], [6.6514516, 58.3456327]]}, "properties": {"electrified": "no", "gauge": "1435", "maxspeed": "30", "name": "Flekkefjordbanen", "passenger_lines": "1", "railway": "rail", "length_km": 0.36, "maxspeed_kmh": 30.0}}, {"type": "Feature", "geometry": {"type": "LineString", "coordinates": [[6.6754784, 58.3003946], [6.6754811, 58.3003281]]}, "properties": {"bridge": "yes", "electrified": "no", "gauge": "1435", "maxspeed": "50", "name": "Flekkefjordbanen", "passenger_lines": "1", "railway": "rail", "length_km": 0.007, "maxspeed_kmh": 50.0}}, {"type": "Feature", "geometry": {"type": "LineString", "coordinates": [[6.6754228, 58.300776], [6.6754393, 58.3007035], [6.6754739, 58.3004298], [6.6754784, 58.3003946]]}, "properties": {"electrified": "no", "gauge": "1435", "maxspeed": "50", "name": "Flekkefjordbanen", "passenger_lines": "1", "railway": "rail", "length_km": 0.043, "maxspeed_kmh": 50.0}}]}