{"type": "FeatureCollection", "features": [{"type": "Feature", "geometry": {"type": "LineString", "coordinates": [[10.7645463, 59.908773], [10.7643879, 59.9088259], [10.7642375, 59.9088728], [10.7640789, 59.9089171], [10.7638709, 59.9089696]]}, "properties": {"electrified": "contact_line", "frequency": "16.67", "gauge": "1435", "name": "Follobanen", "operator": "Bane NOR", "railway": "rail", "usage": "main", "voltage": "15000", "length_km": 0.044}}, {"type": "Feature", "geometry": {"type": "LineString", "coordinates": [[10.8331815, 59.7155615], [10.8332993, 59.7160359], [10.8333947, 59.7164147], [10.833471, 59.7167225], [10.833598, 59.7172274], [10.8337096, 59.7176813], [10.8337907, 59.7180026], [10.8339, 59.7184133], [10.8339923, 59.7187026], [10.8340424, 59.7188498]]}, "properties": {"electrified": "contact_line", "frequency": "16.67", "gauge": "1435", "name": "Follobanen", "operator": "Bane NOR", "railway": "rail", "usage": "main", "voltage": "15000", "length_km": 0.37}}, {"type": "Feature", "geometry": {"type": "LineString", "coordinates": [[10.8391524, 59.7281925], [10.839052, 59.7280364], [10.8389984, 59.7279446], [10.8389342, 59.7278303], [10.8388566, 59.7276857], [10.8387671, 59.7275188], [10.8387011, 59.7273898], [10.8386088, 59.7272321], [10.8384999, 59.7270501]]}, "properties": {"electrified": "contact_line", "frequency": "16.67", "gauge": "1435", "name": "Follobanen", "operator": "Bane NOR", "railway": "rail", "usage": "branch", "voltage": "15000", "length_km": 0.133}}, {"type": "Feature", "geometry": {"type": "LineString", "coordinates": [[10.7642174, 59.9083383], [10.7643365, 59.9083089], [10.7645063, 59.9082651], [10.7646762, 59.9082143], [10.7648422, 59.908156], [10.7649967, 59.9080981], [10.7651512, 59.9080299], [10.7652931, 59.9079614], [10.765428, 59.9078899], [10.7655632, 59.9078088], [10.7656719, 59.907735], [10.765747, 59.9076801], [10.7658092, 59.9076265], [10.7658856, 59.9075614], [10.7659506, 59.9074992], [10.7660121, 59.9074335], [10.7660688, 59.9073665], [10.7661053, 59.9073115], [10.766176, 59.9072095], [10.7662336, 59.9070956], [10.7662508, 59.9070505], [10.7662624, 59.9070199], [10.766287, 59.9069431], [10.7663019, 59.9068758], [10.7663149, 59.9068069], [10.766319, 59.9067284], [10.7663187, 59.906652], [10.7663052, 59.9065587], [10.766293, 59.9064911], [10.7662775, 59.9064256], [10.7662551, 59.9063594]]}, "properties": {"electrified": "contact_line", "frequency": "16.67", "gauge": "1435", "name": "Follobanen", "operator": "Bane NOR", "railway": "rail", "usage": "main", "voltage": "15000", "length_km": 0.268}}, {"type": "Feature", "geometry": {"type": "LineString", "coordinates": [[10.833652, 59.718814], [10.8335879, 59.7186453], [10.8335193, 59.7184322], [10.8334474, 59.7181957], [10.8333837, 59.7179425], [10.8333269, 59.7176948], [10.8332913, 59.717472], [10.8332538, 59.7172116], [10.8332336, 59.7169925], [10.8332169, 59.7167477], [10.8332106, 59.7166339], [10.8332047, 59.7163908], [10.8332007, 59.7162905], [10.8331941, 59.7161738], [10.8331838, 59.7160438], [10.8331725, 59.715951], [10.8331602, 59.7158749], [10.8331468, 59.7157912], [10.8331326, 59.7157171], [10.8330989, 59.7155674]]}, "properties": {"electrified": "contact_line", "frequency": "16.67", "gauge": "1435", "maxspeed": "80", "name": "Follobanen", "operator": "Bane NOR", "railway": "rail", "service": "siding", "voltage": "15000", "length_km": 0.364, "maxspeed_kmh": 80.0}}, {"type": "Feature", "geometry": {"type": "LineString", "coordinates": [[10.8410317, 59.7307802], [10.8411487, 59.7309479], [10.8413585, 59.7312605], [10.841654, 59.7316889], [10.8418954, 59.7320542], [10.84207, 59.7323185], [10.8422766, 59.7326507], [10.8425314, 59.7330576], [10.8427799, 59.7334784], [10.8430149, 59.7339028], [10.8432549, 59.7343716], [10.8434816, 59.7348529], [10.8437367, 59.7354496], [10.8439446, 59.7359831], [10.8441595, 59.7365751], [10.8444183, 59.7373052]]}, "properties": {"electrified": "contact_line", "frequency": "16.67", "gauge": "1435", "maxspeed": "200", "name": "Follobanen", "operator": "Bane NOR", "railway": "rail", "ref": "FB2", "tunnel": "yes", "usage": "main", "voltage": "15000", "length_km": 0.753, "maxspeed_kmh": 200.0}}, {"type": "Feature", "geometry": {"type": "LineString", "coordinates": [[10.8439782, 59.7373284], [10.8437196, 59.7366048], [10.8435191, 59.7360262], [10.8433163, 59.7354911], [10.8430843, 59.7349153], [10.8428773, 59.734435], [10.8426551, 59.7339459], [10.842452, 59.733521], [10.8422337, 59.7330914], [10.8420271, 59.7326946], [10.8418332, 59.732348], [10.8416848, 59.732081], [10.8414704, 59.7317135], [10.8411754, 59.7312316]]}, "properties": {"electrified": "contact_line", "frequency": "16.67", "gauge": "1435", "maxspeed": "180", "name": "Follobanen", "operator": "Bane NOR", "railway": "rail", "ref": "FB1", "tunnel": "yes", "usage": "main", "voltage": "15000", "length_km": 0.698, "maxspeed_kmh": 180.0}}, {"type": "Feature", "geometry": {"type": "LineString", "coordinates": [[10.8369763, 59.7249853], [10.8366797, 59.7245436], [10.8365258, 59.7243052], [10.8363766, 59.7240644], [10.8361784, 59.7237267]]}, "properties": {"electrified": "contact_line", "frequency": "16.67", "gauge": "1435", "maxspeed": "130", "name": "Follobanen", "operator": "Bane NOR", "railway": "rail", "usage": "main", "voltage": "15000", "length_km": 0.147, "maxspeed_kmh": 130.0}}, {"type": "Feature", "geometry": {"type": "LineString", "coordinates": [[10.765997, 59.906385], [10.7660222, 59.9064507], [10.7660517, 59.9065456], [10.7660695, 59.906618], [10.7660872, 59.9066895], [10.7661002, 59.9067863], [10.7661076, 59.9068627], [10.7661101, 59.9069375], [10.7661104, 59.9069932]]}, "properties": {"electrified": "contact_line", "frequency": "16.67", "gauge": "1435", "name": "Follobanen", "operator": "Bane NOR", "railway": "rail", "usage": "main", "voltage": "15000", "length_km": 0.068}}, {"type": "Feature", "geometry": {"type": "LineString", "coordinates": [[10.7645407, 59.8959916], [10.7648624, 59.8956836], [10.7652152, 59.8953646], [10.7655139, 59.895119], [10.7663541, 59.8944881], [10.7669295, 59.8940674], [10.7674458, 59.8936931], [10.7678709, 59.8933808], [10.7683721, 59.8930082], [10.7691261, 59.8924621], [10.7700658, 59.8917771], [10.7724858, 59.8900041], [10.7731866, 59.8894971], [10.7739882, 59.888909], [10.7746846, 59.8884002], [10.7753661, 59.8878952], [10.7760644, 59.8873877], [10.7766423, 59.8869613], [10.7777721, 59.8861341], [10.7788372, 59.8853534], [10.7794626, 59.8848913], [10.7801508, 59.8843639], [10.7806711, 59.8839486], [10.7812322, 59.8834908], [10.7819475, 59.8828994], [10.7826177, 59.8822975], [10.7832998, 59.8816746], [10.7840666, 59.8809214], [10.7847638, 59.8802289], [10.7858608, 59.8791066], [10.7871289, 59.8778206], [10.7909239, 59.8739568], [10.7947256, 59.8700894], [10.7985367, 59.8662235], [10.8014244, 59.8633012], [10.8023245, 59.8623625], [10.80306, 59.8615799], [10.8038162, 59.8607715], [10.8046175, 59.8598989], [10.8053267, 59.8591103], [10.8059394, 59.8584481], [10.8067459, 59.857494], [10.8075044, 59.8566166], [10.8083412, 59.8556445], [10.8093075, 59.8544944], [10.8104714, 59.8530787], [10.8117262, 59.8515157], [10.812522, 59.8505001], [10.8136011, 59.8490813], [10.814745, 59.847556], [10.815515, 59.8464676], [10.8161191, 59.8456214], [10.816693, 59.8448074], [10.817371, 59.8438027], [10.8180535, 59.8427813], [10.8183133, 59.8423977], [10.8189718, 59.8413856], [10.819641, 59.8403407], [10.8202548, 59.8393575], [10.820908, 59.8382891], [10.8215531, 59.837203], [10.8221219, 59.8362309], [10.8227108, 59.8351945], [10.8232916, 59.8341501], [10.8237412, 59.8333271], [10.8242098, 59.8324465], [10.8246067, 59.8316611], [10.8248564, 59.8311352], [10.8251311, 59.8305251], [10.8253545, 59.8300022], [10.8255106, 59.8296216], [10.8257377, 59.8290264], [10.8260046, 59.8282956], [10.8263253, 59.8273557], [10.8266089, 59.8265764], [10.8269112, 59.8257304], [10.8276679, 59.8236001], [10.8284278, 59.8214788], [10.8291787, 59.8193604]]}, "properties": {"electrified": "contact_line", "frequency": "16.67", "gauge": "1435", "maxspeed": "200", "name": "Follobanen", "operator": "Bane NOR", "railway": "rail", "ref": "FB1", "tunnel": "yes", "usage": "main", "voltage": "15000", "length_km": 9.356, "maxspeed_kmh": 200.0}}, {"type": "Feature", "geometry": {"type": "LineString", "coordinates": [[10.7662551, 59.9063594], [10.7662176, 59.9062757], [10.7661663, 59.9061785], [10.7660847, 59.9060623], [10.7659522, 59.9058899], [10.7658204, 59.9057177], [10.7653367, 59.9050851], [10.7651302, 59.9048082], [10.7649794, 59.9045879], [10.7647216, 59.9041649], [10.764537, 59.9038121], [10.7643741, 59.9034542], [10.7641804, 59.9030235], [10.7637643, 59.9020943], [10.7635192, 59.9015856], [10.7634098, 59.9013587]]}, "properties": {"electrified": "contact_line", "frequency": "16.67", "gauge": "1435", "name": "Follobanen", "operator": "Bane NOR", "railway": "rail", "tunnel": "yes", "usage": "main", "voltage": "15000", "length_km": 0.581}}, {"type": "Feature", "geometry": {"type": "LineString", "coordinates": [[10.7661104, 59.9069932], [10.7661026, 59.9071364], [10.7660943, 59.9072291], [10.7660643, 59.9074063], [10.7660421, 59.9075102], [10.7660079, 59.9076144], [10.7659645, 59.9077151], [10.7659195, 59.9078121], [10.7658695, 59.9078945], [10.7658077, 59.9079782], [10.7657452, 59.9080551], [10.765676, 59.9081291], [10.7655858, 59.908212], [10.7654783, 59.9083018], [10.7653801, 59.9083788], [10.7652766, 59.9084491], [10.7650909, 59.9085455], [10.7648996, 59.9086367], [10.7647264, 59.9087073], [10.7645463, 59.908773]]}, "properties": {"electrified": "contact_line", "frequency": "16.67", "gauge": "1435", "name": "Follobanen", "operator": "Bane NOR", "railway": "rail", "tunnel": "yes", "usage": "main", "voltage": "15000", "length_km": 0.227}}, {"type": "Feature", "geometry": {"type": "LineString", "coordinates": [[10.7651925, 59.9051081], [10.7652442, 59.9052039], [10.7652861, 59.905284], [10.7655406, 59.9057754], [10.765605, 59.9059043], [10.7656812, 59.9060519], [10.7657375, 59.9061576], [10.7657784, 59.90624], [10.7658111, 59.9063188], [10.7658417, 59.9064031]]}, "properties": {"electrified": "contact_line", "frequency": "16.67", "gauge": "1435", "name": "Follobanen", "operator": "Bane NOR", "railway": "rail", "tunnel": "yes", "voltage": "15000", "length_km": 0.149}}, {"type": "Feature", "geometry": {"type": "LineString", "coordinates": [[10.7658417, 59.9064031], [10.7658647, 59.906488], [10.7658782, 59.9065564], [10.7658844, 59.906626], [10.7658857, 59.9066952], [10.7658767, 59.9068031], [10.7658665, 59.9068704], [10.7658519, 59.9069267], [10.7658314, 59.9069939], [10.7658057, 59.907059], [10.7657724, 59.9071342], [10.7657353, 59.9072035], [10.7656797, 59.9072915], [10.7656089, 59.9073864], [10.7655554, 59.907449], [10.7654852, 59.9075222], [10.7654177, 59.9075857], [10.7653433, 59.9076494], [10.7652491, 59.907723], [10.7651496, 59.9077921], [10.7650097, 59.9078794], [10.7649366, 59.9079196], [10.7648357, 59.9079751], [10.7646663, 59.9080569], [10.7644863, 59.9081339], [10.7643345, 59.9081917], [10.7641959, 59.9082379], [10.7640676, 59.9082774], [10.7639324, 59.9083152], [10.7637727, 59.9083557], [10.7636363, 59.9083868], [10.7634783, 59.9084172], [10.7633193, 59.9084453], [10.7631615, 59.9084686], [10.7629493, 59.9084954], [10.7628429, 59.9085077], [10.7626849, 59.9085258], [10.7615186, 59.9086596]]}, "properties": {"electrified": "contact_line", "frequency": "16.67", "gauge": "1435", "name": "Follobanen", "operator": "Bane NOR", "railway": "rail", "voltage": "15000", "length_km": 0.395}}, {"type": "Feature", "geometry": {"type": "LineString", "coordinates": [[10.7632367, 59.9009156], [10.7632108, 59.9008465], [10.7631416, 59.9006509], [10.7630691, 59.9003917], [10.7630104, 59.9000948], [10.7629735, 59.8997831], [10.7629584, 59.8994559], [10.7629631, 59.8991599], [10.7630022, 59.8988736], [10.7630827, 59.8984295], [10.7631349, 59.8982419], [10.763237, 59.8979929], [10.7633261, 59.8977531], [10.7634187, 59.8975488], [10.7635708, 59.8972605], [10.7638378, 59.8968388], [10.7640182, 59.8965924], [10.7641426, 59.8964378], [10.7643375, 59.8962071], [10.7645407, 59.8959916]]}, "properties": {"electrified": "contact_line", "frequency": "16.67", "gauge": "1435", "name": "Follobanen", "operator": "Bane NOR", "railway": "rail", "ref": "FB1", "tunnel": "yes", "usage": "main", "voltage": "15000", "length_km": 0.563}}, {"type": "Feature", "geometry": {"type": "LineString", "coordinates": [[10.7651925, 59.9051081], [10.7656515, 59.9057543], [10.7657435, 59.905883], [10.7658329, 59.9060254], [10.7658877, 59.9061251], [10.7659303, 59.9062196], [10.7659645, 59.9062984], [10.765997, 59.906385]]}, "properties": {"electrified": "contact_line", "frequency": "16.67", "gauge": "1435", "name": "Follobanen", "operator": "Bane NOR", "railway": "rail", "tunnel": "yes", "usage": "main", "voltage": "15000", "length_km": 0.149}}, {"type": "Feature", "geometry": {"type": "LineString", "coordinates": [[10.7640105, 59.8959022], [10.7638366, 59.8961052], [10.7636661, 59.8963348], [10.763538, 59.8965061], [10.7633611, 59.8967798], [10.7632514, 59.8969705], [10.7631245, 59.897217], [10.7629983, 59.8974992], [10.7629181, 59.8976985], [10.762835, 59.8979585], [10.7627656, 59.8982281], [10.76272, 59.898426], [10.7627001, 59.8986123], [10.7626721, 59.8988666], [10.7626665, 59.8991592], [10.7626844, 59.8994713], [10.7627294, 59.8997857], [10.7627897, 59.9000807], [10.7628783, 59.9004], [10.7629643, 59.9006286], [10.7630717, 59.9008966]]}, "properties": {"electrified": "contact_line", "frequency": "16.67", "gauge": "1435", "maxspeed": "130", "name": "Follobanen", "operator": "Bane NOR", "railway": "rail", "ref": "FB2", "tunnel": "yes", "usage": "main", "voltage": "15000", "length_km": 0.569, "maxspeed_kmh": 130.0}}, {"type": "Feature", "geometry": {"type": "LineString", "coordinates": [[10.8291787, 59.8193604], [10.8297634, 59.8177153], [10.8317453, 59.8121342], [10.8346034, 59.804077], [10.8361121, 59.7998344], [10.8376184, 59.7955911], [10.8378246, 59.7950095], [10.8391218, 59.7913494], [10.8406245, 59.7871083], [10.8421316, 59.7828638], [10.843637, 59.7786222], [10.8451374, 59.7743818], [10.8466431, 59.7701376], [10.8477221, 59.767089], [10.8481483, 59.7658952], [10.8484624, 59.7649666], [10.8486677, 59.7643076], [10.8488749, 59.7635785], [10.8490485, 59.7628949], [10.849195, 59.7622244], [10.8493138, 59.7616262], [10.8494319, 59.7608753], [10.84954, 59.7600408], [10.8496117, 59.7592685], [10.8496685, 59.7581575], [10.8496714, 59.7573253], [10.8496476, 59.7565331], [10.8496104, 59.7559089], [10.84955, 59.7552272], [10.8494675, 59.7545086], [10.8493352, 59.7537012], [10.8492109, 59.7530199], [10.8490339, 59.7522119], [10.8488238, 59.7513841], [10.8486213, 59.7507047], [10.8484, 59.7500088], [10.8479702, 59.7487565], [10.8464872, 59.7445152], [10.8450025, 59.7402698], [10.8445138, 59.7388655], [10.8439782, 59.7373284]]}, "properties": {"electrified": "contact_line", "frequency": "16.67", "gauge": "1435", "maxspeed": "200", "name": "Follobanen", "operator": "Bane NOR", "railway": "rail", "ref": "FB1", "tunnel": "yes", "usage": "main", "voltage": "15000", "length_km": 9.267, "maxspeed_kmh": 200.0}}, {"type": "Feature", "geometry": {"type": "LineString", "coordinates": [[10.817388, 59.8426588], [10.8166941, 59.843697], [10.8154251, 59.8455494], [10.8148558, 59.8463506], [10.8140597, 59.847462], [10.8129366, 59.848987], [10.8118917, 59.8503756], [10.8110669, 59.8514282], [10.8098529, 59.8529488], [10.8087036, 59.8543661], [10.807718, 59.8555328], [10.8068787, 59.8565085], [10.806118, 59.8573991], [10.8053315, 59.858311], [10.8047124, 59.859009], [10.8040269, 59.8597734], [10.803231, 59.8606435], [10.8024678, 59.8614527], [10.8017462, 59.8622273], [10.800811, 59.8631921], [10.7979733, 59.8660868]]}, "properties": {"electrified": "contact_line", "frequency": "16.67", "gauge": "1435", "maxspeed": "200", "name": "Follobanen", "operator": "Bane NOR", "railway": "rail", "ref": "FB2", "tunnel": "yes", "usage": "main", "voltage": "15000", "length_km": 2.831, "maxspeed_kmh": 200.0}}, {"type": "Feature", "geometry": {"type": "LineString", "coordinates": [[10.8444183, 59.7373052], [10.8447175, 59.7381536], [10.8449562, 59.738837], [10.8454427, 59.7402329], [10.8469216, 59.7444776], [10.8484023, 59.7487193], [10.8488362, 59.7499675], [10.8490753, 59.7506487], [10.8493046, 59.7513485], [10.8495489, 59.7521725], [10.8497508, 59.7529876], [10.8499085, 59.7536878], [10.8500505, 59.7544765], [10.8501577, 59.755231], [10.8502308, 59.7558814], [10.8502824, 59.7565274], [10.8503148, 59.7573317], [10.8503188, 59.7581669], [10.8502741, 59.759264], [10.8502069, 59.7600633], [10.850101, 59.7608881], [10.8499691, 59.7616573], [10.8498527, 59.7622656], [10.8496975, 59.7629425], [10.8495181, 59.7636269], [10.8493033, 59.7643433], [10.8490822, 59.7650171], [10.8487551, 59.7659501], [10.8483396, 59.7671373], [10.8472542, 59.7701917], [10.8457546, 59.7744325], [10.8442489, 59.7786753], [10.8427418, 59.782921], [10.8412399, 59.7871604], [10.8397364, 59.7914048], [10.8382285, 59.7956473], [10.8367235, 59.7998896], [10.8352188, 59.8041319], [10.8323677, 59.81217], [10.8303756, 59.8177771], [10.8298025, 59.8194206], [10.8290366, 59.8215417], [10.8282822, 59.823663], [10.8280079, 59.8244261], [10.8277003, 59.8252106], [10.8274668, 59.8257909], [10.8270812, 59.8266699], [10.8267949, 59.8273112], [10.8265107, 59.8278865], [10.8262359, 59.8284281], [10.8259258, 59.8290338], [10.8256007, 59.8296335], [10.8253935, 59.8300075], [10.8250984, 59.8305194], [10.8247408, 59.8311225], [10.8244228, 59.8316425], [10.8241682, 59.8320412], [10.8239338, 59.8324097], [10.8233474, 59.8332863], [10.8228103, 59.8340837], [10.8221181, 59.8351087], [10.8214623, 59.836125], [10.8208494, 59.8371095], [10.8202093, 59.8381831], [10.8195625, 59.8392424], [10.8189474, 59.8402359], [10.8182577, 59.8413206], [10.8178325, 59.8419903], [10.817388, 59.8426588]]}, "properties": {"electrified": "contact_line", "frequency": "16.67", "gauge": "1435", "maxspeed": "200", "name": "Follobanen", "operator": "Bane NOR", "railway": "rail", "ref": "FB2", "tunnel": "yes", "usage": "main", "voltage": "15000", "length_km": 11.964, "maxspeed_kmh": 200.0}}, {"type": "Feature", "geometry": {"type": "LineString", "coordinates": [[10.8359322, 59.7230931], [10.8360757, 59.7233625], [10.8361361, 59.7234709], [10.8362751, 59.7237074], [10.8364799, 59.7240483], [10.8366342, 59.7242926], [10.8367886, 59.7245258], [10.8370863, 59.724964]]}, "properties": {"electrified": "contact_line", "frequency": "16.67", "gauge": "1435", "maxspeed": "130", "name": "Follobanen", "operator": "Bane NOR", "railway": "rail", "usage": "main", "voltage": "15000", "length_km": 0.218, "maxspeed_kmh": 130.0}}, {"type": "Feature", "geometry": {"type": "LineString", "coordinates": [[10.8411754, 59.7312316], [10.8410092, 59.7309667], [10.8408404, 59.7306962], [10.8407807, 59.7306009]]}, "properties": {"electrified": "contact_line", "frequency": "16.67", "gauge": "1435", "maxspeed": "180", "name": "Follobanen", "operator": "Bane NOR", "railway": "rail", "usage": "main", "voltage": "15000", "length_km": 0.074, "maxspeed_kmh": 180.0}}, {"type": "Feature", "geometry": {"type": "LineString", "coordinates": [[10.8377035, 59.7258777], [10.8379049, 59.7261655], [10.8380221, 59.7263455], [10.8384999, 59.7270501]]}, "properties": {"electrified": "contact_line", "frequency": "16.67", "gauge": "1435", "maxspeed": "200", "name": "Follobanen", "operator": "Bane NOR", "railway": "rail", "usage": "main", "voltage": "15000", "length_km": 0.138, "maxspeed_kmh": 200.0}}, {"type": "Feature", "geometry": {"type": "LineString", "coordinates": [[10.7634552, 59.9084795], [10.7637381, 59.9084313], [10.764025, 59.9083781], [10.7642174, 59.9083383]]}, "properties": {"electrified": "contact_line", "frequency": "16.67", "gauge": "1435", "name": "Follobanen", "railway": "rail", "usage": "main", "voltage": "15000", "length_km": 0.045}}, {"type": "Feature", "geometry": {"type": "LineString", "coordinates": [[10.8350065, 59.7212948], [10.8347965, 59.7208295], [10.83476, 59.7207482], [10.8345436, 59.7202724], [10.8344851, 59.7201439], [10.8343627, 59.7198759], [10.8342528, 59.7196295], [10.8341345, 59.7193319], [10.8340408, 59.7190927], [10.8339532, 59.7188416]]}, "properties": {"electrified": "contact_line", "frequency": "16.67", "gauge": "1435", "name": "Follobanen", "operator": "Bane NOR", "railway": "rail", "usage": "main", "voltage": "15000", "length_km": 0.28}}, {"type": "Feature", "geometry": {"type": "LineString", "coordinates": [[10.8340424, 59.7188498], [10.8341233, 59.7190874], [10.834212, 59.7193177], [10.8343342, 59.7196105], [10.8344496, 59.7198749], [10.8345666, 59.7201407], [10.8345929, 59.7201977]]}, "properties": {"electrified": "contact_line", "frequency": "16.67", "gauge": "1435", "name": "Follobanen", "operator": "Bane NOR", "railway": "rail", "usage": "main", "voltage": "15000", "length_km": 0.153}}, {"type": "Feature", "geometry": {"type": "LineString", "coordinates": [[10.8350065, 59.7212948], [10.8348096, 59.7209101], [10.834712, 59.7207557], [10.8346071, 59.720593], [10.8344894, 59.7204131], [10.8343108, 59.7201308], [10.8341528, 59.7198755], [10.8340624, 59.7197031], [10.8339753, 59.7195392], [10.8338816, 59.7193533], [10.8337767, 59.7191214], [10.8336931, 59.7189221], [10.833652, 59.718814]]}, "properties": {"electrified": "contact_line", "frequency": "16.67", "gauge": "1435", "maxspeed": "80", "name": "Follobanen", "operator": "Bane NOR", "railway": "rail", "service": "siding", "voltage": "15000", "length_km": 0.287, "maxspeed_kmh": 80.0}}, {"type": "Feature", "geometry": {"type": "LineString", "coordinates": [[10.8339532, 59.7188416], [10.8339062, 59.718707], [10.833821, 59.7184182], [10.8337066, 59.7180054], [10.8336289, 59.7176876], [10.8335167, 59.7172371], [10.8333869, 59.7167233], [10.833312, 59.7164199], [10.8332177, 59.7160419], [10.8330989, 59.7155674]]}, "properties": {"electrified": "contact_line", "frequency": "16.67", "gauge": "1435", "name": "Follobanen", "operator": "Bane NOR", "railway": "rail", "usage": "main", "voltage": "15000", "length_km": 0.368}}, {"type": "Feature", "geometry": {"type": "LineString", "coordinates": [[10.8361784, 59.7237267], [10.8360346, 59.7234713], [10.8359829, 59.7233745], [10.8357708, 59.722966], [10.8355506, 59.722491], [10.8354206, 59.7222014], [10.8353167, 59.7219777], [10.8352094, 59.7217424], [10.8351313, 59.7215746], [10.8350444, 59.7213765]]}, "properties": {"electrified": "contact_line", "frequency": "16.67", "gauge": "1435", "maxspeed": "130", "name": "Follobanen", "operator": "Bane NOR", "railway": "rail", "usage": "main", "voltage": "15000", "length_km": 0.27, "maxspeed_kmh": 130.0}}, {"type": "Feature", "geometry": {"type": "LineString", "coordinates": [[10.8354223, 59.7220173], [10.8355058, 59.722191], [10.835633, 59.7224816], [10.8358601, 59.7229535], [10.8359322, 59.7230931]]}, "properties": {"electrified": "contact_line", "frequency": "16.67", "gauge": "1435", "maxspeed": "130", "name": "Follobanen", "operator": "Bane NOR", "railway": "rail", "usage": "main", "voltage": "15000", "length_km": 0.123, "maxspeed_kmh": 130.0}}, {"type": "Feature", "geometry": {"type": "LineString", "coordinates": [[10.7630717, 59.9008966], [10.7631469, 59.9010868], [10.7632422, 59.9012949], [10.7633852, 59.9015909], [10.7635182, 59.9018663]]}, "properties": {"electrified": "contact_line", "frequency": "16.67", "gauge": "1435", "maxspeed": "70", "name": "Follobanen", "operator": "Bane NOR", "railway": "rail", "tunnel": "yes", "usage": "main", "voltage": "15000", "length_km": 0.111, "maxspeed_kmh": 70.0}}, {"type": "Feature", "geometry": {"type": "LineString", "coordinates": [[10.8349626, 59.7207429], [10.8350525, 59.7209597], [10.8351027, 59.7210927], [10.8351458, 59.7212298], [10.8352465, 59.7215544], [10.8352837, 59.7216698], [10.8353371, 59.7218149], [10.8354223, 59.7220173]]}, "properties": {"electrified": "contact_line", "frequency": "16.67", "gauge": "1435", "name": "Follobanen", "operator": "Bane NOR", "railway": "rail", "usage": "main", "voltage": "15000", "length_km": 0.144}}, {"type": "Feature", "geometry": {"type": "LineString", "coordinates": [[10.8392493, 59.7281538], [10.8400161, 59.7292834], [10.8407055, 59.7302985], [10.8407958, 59.7304293], [10.8410317, 59.7307802]]}, "properties": {"electrified": "contact_line", "frequency": "16.67", "gauge": "1435", "maxspeed": "200", "name": "Follobanen", "operator": "Bane NOR", "railway": "rail", "usage": "main", "voltage": "15000", "length_km": 0.309, "maxspeed_kmh": 200.0}}, {"type": "Feature", "geometry": {"type": "LineString", "coordinates": [[10.7636353, 59.9021088], [10.7640494, 59.9030387], [10.764099, 59.9031499]]}, "properties": {"electrified": "contact_line", "frequency": "16.67", "gauge": "1435", "name": "Follobanen", "operator": "Bane NOR", "railway": "rail", "tunnel": "yes", "usage": "main", "voltage": "15000", "length_km": 0.119}}, {"type": "Feature", "geometry": {"type": "LineString", "coordinates": [[10.8391524, 59.7281925], [10.838389, 59.7270639], [10.8379121, 59.7263657], [10.8377986, 59.7261854], [10.8373357, 59.7255133], [10.8372096, 59.7253274]]}, "properties": {"electrified": "contact_line", "frequency": "16.67", "gauge": "1435", "maxspeed": "160", "name": "Follobanen", "operator": "Bane NOR", "railway": "rail", "usage": "main", "voltage": "15000", "length_km": 0.337, "maxspeed_kmh": 160.0}}, {"type": "Feature", "geometry": {"type": "LineString", "coordinates": [[10.8384999, 59.7270501], [10.8391761, 59.7280468], [10.8392493, 59.7281538]]}, "properties": {"electrified": "contact_line", "frequency": "16.67", "gauge": "1435", "maxspeed": "200", "name": "Follobanen", "operator": "Bane NOR", "railway": "rail", "usage": "main", "voltage": "15000", "length_km": 0.13, "maxspeed_kmh": 200.0}}, {"type": "Feature", "geometry": {"type": "LineString", "coordinates": [[10.8372529, 59.7252144], [10.8377035, 59.7258777]]}, "properties": {"electrified": "contact_line", "frequency": "16.67", "gauge": "1435", "maxspeed": "200", "name": "Follobanen", "operator": "Bane NOR", "railway": "rail", "usage": "main", "voltage": "15000", "length_km": 0.078, "maxspeed_kmh": 200.0}}, {"type": "Feature", "geometry": {"type": "LineString", "coordinates": [[10.7634098, 59.9013587], [10.7633895, 59.901307], [10.7633795, 59.9012815], [10.7632844, 59.901043], [10.7632367, 59.9009156]]}, "properties": {"electrified": "contact_line", "frequency": "16.67", "gauge": "1435", "name": "Follobanen", "operator": "Bane NOR", "railway": "rail", "tunnel": "yes", "usage": "main", "voltage": "15000", "length_km": 0.05}}, {"type": "Feature", "geometry": {"type": "LineString", "coordinates": [[10.7635182, 59.9018663], [10.7636353, 59.9021088]]}, "properties": {"electrified": "contact_line", "frequency": "16.67", "gauge": "1435", "name": "Follobanen", "operator": "Bane NOR", "railway": "rail", "tunnel": "yes", "usage": "main", "voltage": "15000", "length_km": 0.028}}, {"type": "Feature", "geometry": {"type": "LineString", "coordinates": [[10.7979733, 59.8660868], [10.794169, 59.8699523], [10.7903571, 59.8738164], [10.7865638, 59.8776828], [10.785287, 59.8789885], [10.7841928, 59.8801018], [10.7834812, 59.880812], [10.7827352, 59.8815303], [10.7820676, 59.8821553], [10.781383, 59.8827602], [10.7806935, 59.8833401], [10.7801252, 59.8837952], [10.7795537, 59.8842406], [10.7788943, 59.884748], [10.7783233, 59.8851744], [10.7772616, 59.8859526], [10.7765949, 59.8864408], [10.7760862, 59.8868087], [10.774795, 59.8877553], [10.7734605, 59.8887294], [10.771917, 59.8898678]]}, "properties": {"electrified": "contact_line", "frequency": "16.67", "gauge": "1435", "maxspeed": "180", "name": "Follobanen", "operator": "Bane NOR", "railway": "rail", "ref": "FB2", "tunnel": "yes", "usage": "main", "voltage": "15000", "length_km": 3.031, "maxspeed_kmh": 180.0}}, {"type": "Feature", "geometry": {"type": "LineString", "coordinates": [[10.771917, 59.8898678], [10.7686153, 59.8922815], [10.7678432, 59.8928528], [10.7672862, 59.8932551], [10.7668683, 59.8935673], [10.7663223, 59.8939695], [10.7657738, 59.894354], [10.7652752, 59.8947322], [10.7649289, 59.8950115], [10.7646431, 59.8952623], [10.7643551, 59.8955446], [10.7640105, 59.8959022]]}, "properties": {"electrified": "contact_line", "frequency": "16.67", "gauge": "1435", "maxspeed": "130", "name": "Follobanen", "operator": "Bane NOR", "railway": "rail", "ref": "FB2", "tunnel": "yes", "usage": "main", "voltage": "15000", "length_km": 0.806, "maxspeed_kmh": 130.0}}, {"type": "Feature", "geometry": {"type": "LineString", "coordinates": [[10.8407807, 59.7306009], [10.8405443, 59.7302424], [10.8397589, 59.7290869], [10.8391524, 59.7281925]]}, "properties": {"electrified": "contact_line", "frequency": "16.67", "gauge": "1435", "maxspeed": "160", "name": "Follobanen", "operator": "Bane NOR", "railway": "rail", "usage": "main", "voltage": "15000", "length_km": 0.284, "maxspeed_kmh": 160.0}}, {"type": "Feature", "geometry": {"type": "LineString", "coordinates": [[10.8370863, 59.724964], [10.8372529, 59.7252144]]}, "properties": {"electrified": "contact_line", "frequency": "16.67", "gauge": "1435", "maxspeed": "200", "name": "Follobanen", "operator": "Bane NOR", "railway": "rail", "usage": "main", "voltage": "15000", "length_km": 0.029, "maxspeed_kmh": 200.0}}, {"type": "Feature", "geometry": {"type": "LineString", "coordinates": [[10.8372096, 59.7253274], [10.8369763, 59.7249853]]}, "properties": {"electrified": "contact_line", "frequency": "16.67", "gauge": "1435", "maxspeed": "160", "name": "Follobanen", "operator": "Bane NOR", "railway": "rail", "usage": "main", "voltage": "15000", "length_km": 0.04, "maxspeed_kmh": 160.0}}, {"type": "Feature", "geometry": {"type": "LineString", "coordinates": [[10.8350444, 59.7213765], [10.8350065, 59.7212948]]}, "properties": {"electrified": "contact_line", "frequency": "16.67", "gauge": "1435", "name": "Follobanen", "operator": "Bane NOR", "railway": "rail", "usage": "main", "voltage": "15000", "length_km": 0.009}}, {"type": "Feature", "geometry": {"type": "LineString", "coordinates": [[10.8345929, 59.7201977], [10.8348794, 59.7208181], [10.8349182, 59.7209052], [10.8350283, 59.7211535], [10.8352102, 59.7215543], [10.8354223, 59.7220173]]}, "properties": {"electrified": "contact_line", "frequency": "16.67", "gauge": "1435", "maxspeed": "130", "name": "Follobanen", "operator": "Bane NOR", "railway": "rail", "usage": "main", "voltage": "15000", "length_km": 0.208, "maxspeed_kmh": 130.0}}, {"type": "Feature", "geometry": {"type": "LineString", "coordinates": [[10.764099, 59.9031499], [10.7642405, 59.9034667], [10.7644056, 59.9038276], [10.7645873, 59.9041755], [10.7647427, 59.9044293], [10.7648526, 59.9046088], [10.7651925, 59.9051081]]}, "properties": {"electrified": "contact_line", "frequency": "16.67", "gauge": "1435", "name": "Follobanen", "operator": "Bane NOR", "railway": "rail", "tunnel": "yes", "usage": "main", "voltage": "15000", "length_km": 0.227}}]}