{"type": "FeatureCollection", "features": [{"type": "Feature", "geometry": {"type": "LineString", "coordinates": [[5.5026233, 60.4279511], [5.5025961, 60.4279741], [5.5018451, 60.4286346], [5.5016305, 60.4288305], [5.5013328, 60.4291231], [5.5010967, 60.4293759], [5.5009727, 60.4295314], [5.5007454, 60.4298498], [5.5005442, 60.4301966], [5.5003591, 60.4305566], [5.5002691, 60.4307367], [5.5002116, 60.4308517], [5.4999756, 60.4313693], [5.4997798, 60.4319013], [5.4996648, 60.4322432], [5.499482, 60.4328569], [5.499364, 60.4333149], [5.4992755, 60.4335557], [5.4991468, 60.4338178], [5.4989885, 60.4340375], [5.498723, 60.4343075], [5.498443, 60.4345263], [5.4984179, 60.4345432]]}, "properties": {"electrified": "no", "gauge": "1435", "name": "Gamle Vossebanen", "railway": "rail", "length_km": 0.78}}, {"type": "Feature", "geometry": {"type": "LineString", "coordinates": [[5.3744079, 60.3242096], [5.3738889, 60.3239607], [5.373107, 60.3234965], [5.3727195, 60.3232595], [5.372631, 60.3231931], [5.3723775, 60.3229839]]}, "properties": {"electrified": "no", "gauge": "1435", "name": "Gamle Vossebanen", "railway": "rail", "service": "siding", "length_km": 0.178}}, {"type": "Feature", "geometry": {"type": "LineString", "coordinates": [[5.4028199, 60.3404121], [5.4026432, 60.3404232], [5.4024782, 60.340436], [5.4023515, 60.3404498], [5.4022224, 60.3404679], [5.4020286, 60.3405014], [5.4018416, 60.3405412], [5.4016571, 60.340588], [5.4013862, 60.3406633], [5.4011086, 60.340738], [5.4007827, 60.3408272], [5.4006051, 60.3408707], [5.4004227, 60.3409095], [5.4002503, 60.3409414], [5.400139, 60.3409593], [5.3999607, 60.3409815], [5.3997414, 60.3410021], [5.3995248, 60.3410167], [5.399329, 60.3410237], [5.3990749, 60.341023], [5.3988643, 60.3410164], [5.3986504, 60.3410014]]}, "properties": {"electrified": "no", "gauge": "1435", "name": "Gamle Vossebanen", "railway": "rail", "length_km": 0.245}}, {"type": "Feature", "geometry": {"type": "LineString", "coordinates": [[5.3748089, 60.3244536], [5.3746675, 60.3243649]]}, "properties": {"bridge": "yes", "electrified": "no", "gauge": "1435", "name": "Gamle Vossebanen", "railway": "rail", "length_km": 0.013}}, {"type": "Feature", "geometry": {"type": "LineString", "coordinates": [[5.3936834, 60.3359106], [5.3934368, 60.3356359], [5.3931682, 60.3353778], [5.3928845, 60.3351397], [5.3925879, 60.3348945], [5.3899463, 60.3328528], [5.3896956, 60.3326639], [5.3895268, 60.3325394], [5.3891984, 60.332312], [5.38877, 60.332065], [5.3874203, 60.3313842], [5.3853761, 60.330305], [5.3835057, 60.3292076], [5.3812334, 60.3279847], [5.3787787, 60.3267161], [5.3777421, 60.3261732], [5.3766967, 60.3256293], [5.3756244, 60.3249652], [5.3748089, 60.3244536]]}, "properties": {"electrified": "no", "gauge": "1435", "name": "Gamle Vossebanen", "railway": "rail", "length_km": 1.66}}, {"type": "Feature", "geometry": {"type": "LineString", "coordinates": [[5.3986504, 60.3410014], [5.3984227, 60.3409792]]}, "properties": {"bridge": "yes", "electrified": "no", "gauge": "1435", "name": "Gamle Vossebanen", "railway": "rail", "length_km": 0.013}}, {"type": "Feature", "geometry": {"type": "LineString", "coordinates": [[5.3984227, 60.3409792], [5.3982715, 60.3409593], [5.3980831, 60.3409291], [5.3979275, 60.3408999], [5.397725, 60.3408551], [5.3975111, 60.3408], [5.3972858, 60.3407283], [5.397153, 60.3406819], [5.3969579, 60.3406003], [5.396746, 60.3405021], [5.3965935, 60.3404167], [5.3964382, 60.3403205], [5.3963118, 60.3402307], [5.396162, 60.3401059], [5.3960178, 60.3399731], [5.3958535, 60.339811], [5.3957315, 60.3396771], [5.3956128, 60.3395401], [5.3954767, 60.3393752], [5.3953017, 60.3391319], [5.3951333, 60.3388645], [5.3950395, 60.3386883], [5.39493, 60.3384455], [5.3948775, 60.3383186]]}, "properties": {"electrified": "no", "gauge": "1435", "name": "Gamle Vossebanen", "railway": "rail", "length_km": 0.376}}, {"type": "Feature", "geometry": {"type": "LineString", "coordinates": [[5.3948775, 60.3383186], [5.3947859, 60.3381027]]}, "properties": {"bridge": "yes", "electrified": "no", "gauge": "1435", "name": "Gamle Vossebanen", "railway": "rail", "length_km": 0.025}}, {"type": "Feature", "geometry": {"type": "LineString", "coordinates": [[5.3947859, 60.3381027], [5.3945052, 60.3374099], [5.3944843, 60.3373561], [5.3944419, 60.3372549], [5.3943796, 60.3371107], [5.3943019, 60.3369444], [5.3941959, 60.3367334], [5.3940336, 60.3364387], [5.3939485, 60.3362973], [5.3938673, 60.3361695], [5.3937916, 60.3360554], [5.3936834, 60.3359106]]}, "properties": {"electrified": "no", "gauge": "1435", "name": "Gamle Vossebanen", "railway": "rail", "length_km": 0.253}}, {"type": "Feature", "geometry": {"type": "LineString", "coordinates": [[5.4705644, 60.4454673], [5.470547, 60.4457104], [5.4705101, 60.4461315], [5.470494, 60.4462555], [5.4704663, 60.4463769], [5.4704216, 60.4465237], [5.4703539, 60.4466746], [5.4703114, 60.4467565], [5.4702701, 60.4468287], [5.4702281, 60.4468953], [5.470136, 60.4470244], [5.4699885, 60.4472037], [5.4698507, 60.4473425], [5.469738, 60.447446], [5.4696018, 60.4475574], [5.469499, 60.4476353], [5.4693857, 60.4477145], [5.4692844, 60.4477811], [5.4690053, 60.447949], [5.4689141, 60.447997], [5.4687668, 60.4480721], [5.4685686, 60.4481647], [5.4683389, 60.4482653], [5.4678749, 60.4484373], [5.4674631, 60.4485597], [5.4665663, 60.4487983]]}, "properties": {"electrified": "no", "gauge": "1435", "name": "Gamle Vossebanen", "railway": "rail", "ref": "I", "length_km": 0.464}}, {"type": "Feature", "geometry": {"type": "LineString", "coordinates": [[5.4729362, 60.4100193], [5.472609, 60.4092985], [5.4725553, 60.4091749], [5.4725164, 60.4090749], [5.4724856, 60.4089726], [5.4724608, 60.4088617], [5.4724467, 60.4087524], [5.472442, 60.408624], [5.4724447, 60.4084908], [5.4724574, 60.4082998], [5.472495, 60.4075981], [5.4725057, 60.4074981], [5.4725171, 60.4074123], [5.4725479, 60.407259], [5.4725942, 60.4070792], [5.4726492, 60.4069239], [5.4727069, 60.4067842], [5.4728115, 60.4065719], [5.4729134, 60.406407], [5.473256, 60.4058884], [5.4733513, 60.4057381], [5.4734237, 60.4056013], [5.4734699, 60.4054904], [5.4735088, 60.4053731], [5.4735283, 60.4052807], [5.4735417, 60.4051575]]}, "properties": {"electrified": "no", "gauge": "1435", "name": "Gamle Vossebanen", "railway": "rail", "length_km": 0.553}}, {"type": "Feature", "geometry": {"type": "LineString", "coordinates": [[5.4552665, 60.3735164], [5.4550888, 60.373181], [5.4548872, 60.3727927], [5.4547235, 60.3724761], [5.4546697, 60.372358], [5.454614, 60.3722218], [5.4545212, 60.3719296], [5.4544879, 60.3718008], [5.454441, 60.3715717], [5.4544303, 60.3714663], [5.4544229, 60.3713546], [5.4544189, 60.3712459], [5.4544209, 60.3710463], [5.4544356, 60.3708364], [5.4544598, 60.3706936], [5.454496, 60.3705215], [5.4545235, 60.3704101], [5.4545899, 60.3701807], [5.4547589, 60.3696311], [5.4550683, 60.368637], [5.4551518, 60.3683527], [5.4551934, 60.3681935], [5.4552242, 60.3680702], [5.4552477, 60.3679505], [5.4552638, 60.3678129], [5.4552725, 60.367669], [5.4552718, 60.3675494], [5.4552651, 60.367427], [5.4552484, 60.367305], [5.4552269, 60.3671747], [5.4551961, 60.3670567], [5.4551558, 60.366929], [5.4551142, 60.3668123], [5.4550519, 60.3666691], [5.4549788, 60.3665255], [5.4548467, 60.366305], [5.4546699, 60.3660223], [5.4544403, 60.3656532], [5.4543619, 60.3655189]]}, "properties": {"electrified": "no", "gauge": "1435", "name": "Gamle Vossebanen", "railway": "rail", "length_km": 0.909}}, {"type": "Feature", "geometry": {"type": "LineString", "coordinates": [[5.4453798, 60.3566709], [5.4451988, 60.3566673], [5.4449788, 60.3566673], [5.4435954, 60.3566976]]}, "properties": {"electrified": "no", "gauge": "1435", "name": "Gamle Vossebanen", "railway": "rail", "tunnel": "yes", "length_km": 0.099}}, {"type": "Feature", "geometry": {"type": "LineString", "coordinates": [[5.4133388, 60.3478683], [5.4131987, 60.3477425]]}, "properties": {"bridge": "yes", "electrified": "no", "gauge": "1435", "name": "Gamle Vossebanen", "railway": "rail", "length_km": 0.016}}, {"type": "Feature", "geometry": {"type": "LineString", "coordinates": [[5.4131987, 60.3477425], [5.413102, 60.3476523], [5.4122665, 60.3468746], [5.4119595, 60.3465801], [5.411749, 60.3463751], [5.411607, 60.3462249], [5.4114955, 60.3461043], [5.4113681, 60.345954], [5.4112782, 60.3458326], [5.4111602, 60.3456618], [5.4110382, 60.3454663], [5.4109048, 60.3452537], [5.410772, 60.3450569], [5.4106344, 60.3448752], [5.4105312, 60.3447574], [5.4103763, 60.3445915], [5.4102315, 60.3444485], [5.4099814, 60.3442385], [5.4097802, 60.3440842], [5.4095717, 60.3439538], [5.409396, 60.3438486], [5.4090855, 60.3436804], [5.4087214, 60.3434966], [5.4081836, 60.3432182], [5.4079738, 60.3430991], [5.4078007, 60.3429899], [5.4075929, 60.3428473], [5.4073642, 60.3426615], [5.4071905, 60.3424972], [5.4070792, 60.3423738], [5.4069733, 60.3422444], [5.406868, 60.3420898], [5.4067661, 60.3419176], [5.4066105, 60.3416305], [5.4065213, 60.3414948], [5.4064496, 60.3414029], [5.406343, 60.3412858], [5.4062343, 60.3411902], [5.4060821, 60.3410801], [5.405938, 60.3409882], [5.4057442, 60.3408843], [5.4055343, 60.3407841], [5.4053157, 60.3406992], [5.4051353, 60.3406404], [5.4049496, 60.3405833], [5.4047484, 60.3405376], [5.4045486, 60.3405027], [5.4042482, 60.3404559], [5.4040376, 60.3404226], [5.4038442, 60.3404028], [5.4036973, 60.340393], [5.4035521, 60.3403902], [5.4033939, 60.3403909]]}, "properties": {"electrified": "no", "gauge": "1435", "name": "Gamle Vossebanen", "railway": "rail", "length_km": 1.026}}, {"type": "Feature", "geometry": {"type": "LineString", "coordinates": [[5.4666108, 60.3849176], [5.4664704, 60.3848028], [5.4663896, 60.3847327], [5.4662856, 60.384633], [5.4662159, 60.3845611], [5.4661019, 60.3844345], [5.4660382, 60.384351], [5.4659665, 60.3842539], [5.4658961, 60.3841429], [5.4658163, 60.3839991], [5.4657532, 60.3838572], [5.4657009, 60.38373], [5.4656406, 60.3835189], [5.4655836, 60.3833158], [5.4655373, 60.3831574], [5.4655011, 60.383047], [5.4654495, 60.3829244], [5.4654045, 60.3828475], [5.4653294, 60.3827322], [5.4652463, 60.3826255], [5.4651584, 60.382533], [5.4650532, 60.3824326], [5.4649338, 60.3823345], [5.464791, 60.3822295]]}, "properties": {"electrified": "no", "gauge": "1435", "name": "Gamle Vossebanen", "railway": "rail", "length_km": 0.32}}, {"type": "Feature", "geometry": {"type": "LineString", "coordinates": [[5.4435954, 60.3566976], [5.4433622, 60.3567049], [5.4411279, 60.3567668], [5.4402018, 60.3567946], [5.4398283, 60.3568036], [5.4395802, 60.3568082], [5.4393683, 60.3568092], [5.4391524, 60.3568059], [5.4389425, 60.3567946], [5.4387373, 60.356782], [5.4385033, 60.3567598], [5.4382747, 60.3567346], [5.4380413, 60.3567017], [5.437808, 60.356658], [5.437578, 60.3566082], [5.4373258, 60.3565465], [5.4371186, 60.3564878], [5.4369604, 60.3564404]]}, "properties": {"electrified": "no", "gauge": "1435", "name": "Gamle Vossebanen", "railway": "rail", "length_km": 0.376}}, {"type": "Feature", "geometry": {"type": "LineString", "coordinates": [[5.4318689, 60.3538589], [5.4309194, 60.3533575], [5.4305546, 60.3531671], [5.4302247, 60.3529907], [5.429994, 60.3528547], [5.4298197, 60.3527465], [5.4296628, 60.3526225], [5.4294884, 60.3524672], [5.4292484, 60.3522311], [5.4290834, 60.3520798], [5.4289533, 60.3519644], [5.4288547, 60.3518888], [5.4287401, 60.3518145], [5.4285704, 60.3517173], [5.4284182, 60.351642], [5.4282513, 60.351566], [5.4280554, 60.3514864], [5.427859, 60.3514224], [5.4276451, 60.3513627], [5.4274265, 60.3513103], [5.4272179, 60.3512705], [5.4269846, 60.3512346], [5.4267599, 60.3512068], [5.4265507, 60.3511892], [5.426318, 60.3511769], [5.4260874, 60.3511719], [5.4258614, 60.3511729], [5.425681, 60.3511816], [5.4254671, 60.3511981], [5.4252747, 60.351218], [5.4250601, 60.3512459], [5.4247771, 60.3512904], [5.4242378, 60.3513797]]}, "properties": {"electrified": "no", "gauge": "1435", "name": "Gamle Vossebanen", "railway": "rail", "length_km": 0.563}}, {"type": "Feature", "geometry": {"type": "LineString", "coordinates": [[5.4369604, 60.3564404], [5.4367371, 60.3563641]]}, "properties": {"bridge": "yes", "electrified": "no", "gauge": "1435", "name": "Gamle Vossebanen", "railway": "rail", "length_km": 0.015}}, {"type": "Feature", "geometry": {"type": "LineString", "coordinates": [[5.4367371, 60.3563641], [5.4365607, 60.3562958], [5.4363213, 60.356189], [5.4360954, 60.3560769], [5.4357225, 60.3558849], [5.4355963, 60.3558188], [5.4351268, 60.3555724]]}, "properties": {"electrified": "no", "gauge": "1435", "name": "Gamle Vossebanen", "railway": "rail", "length_km": 0.126}}, {"type": "Feature", "geometry": {"type": "LineString", "coordinates": [[5.4543619, 60.3655189], [5.4543312, 60.3654635]]}, "properties": {"bridge": "yes", "electrified": "no", "gauge": "1435", "name": "Gamle Vossebanen", "railway": "rail", "length_km": 0.006}}, {"type": "Feature", "geometry": {"type": "LineString", "coordinates": [[5.4543312, 60.3654635], [5.4542714, 60.3653465], [5.454205, 60.365192], [5.4541558, 60.3650614], [5.4541165, 60.3649221], [5.4540843, 60.3647702], [5.4540615, 60.3646456], [5.4540514, 60.3645282], [5.4540467, 60.3644191], [5.4540501, 60.3642924], [5.4540581, 60.3641625], [5.4540776, 60.3640103], [5.4541111, 60.3638279], [5.4541855, 60.3634791], [5.4542238, 60.3633202], [5.4542566, 60.3631448], [5.4542626, 60.3630739], [5.454262, 60.3629767], [5.4542479, 60.3628676], [5.4542217, 60.3627675], [5.4541828, 60.3626604], [5.454148, 60.3625868], [5.454091, 60.3624909], [5.454028, 60.3623944], [5.453962, 60.3623159], [5.4537255, 60.36204], [5.4532724, 60.3615062], [5.4531686, 60.3613839], [5.4529926, 60.3611837], [5.4526759, 60.3608112], [5.4524998, 60.3606091], [5.4524091, 60.3605133], [5.4523221, 60.3604333], [5.4521786, 60.3603096], [5.4520626, 60.3602141], [5.4519278, 60.3601073], [5.4517367, 60.3599707], [5.4512505, 60.3596132], [5.4506028, 60.359141], [5.4502648, 60.3588936], [5.4499134, 60.3586289], [5.4495594, 60.3583849], [5.4490659, 60.3580055], [5.4486635, 60.3577123], [5.4483269, 60.3574815], [5.4481485, 60.357375], [5.4479373, 60.3572636], [5.4477409, 60.357175], [5.447535, 60.3570914], [5.4472923, 60.3570072], [5.4470871, 60.3569455], [5.4468671, 60.3568848], [5.4466633, 60.3568391], [5.4464574, 60.3567963], [5.4462107, 60.3567522], [5.4459579, 60.356716], [5.4457325, 60.3566931], [5.4455388, 60.3566782], [5.4453798, 60.3566709]]}, "properties": {"electrified": "no", "gauge": "1435", "name": "Gamle Vossebanen", "railway": "rail", "length_km": 1.174}}, {"type": "Feature", "geometry": {"type": "LineString", "coordinates": [[5.4706455, 60.4450387], [5.4706211, 60.4451124]]}, "properties": {"bridge": "yes", "electrified": "no", "gauge": "1435", "name": "Gamle Vossebanen", "railway": "rail", "length_km": 0.008}}, {"type": "Feature", "geometry": {"type": "LineString", "coordinates": [[5.462144, 60.4497404], [5.462035, 60.449739]]}, "properties": {"bridge": "yes", "electrified": "no", "gauge": "1435", "name": "Gamle Vossebanen", "railway": "rail", "length_km": 0.006}}, {"type": "Feature", "geometry": {"type": "LineString", "coordinates": [[5.4589155, 60.4487161], [5.4587814, 60.4485435], [5.4586983, 60.4483848], [5.4586325, 60.4482055], [5.4586124, 60.4480296], [5.4586352, 60.447845], [5.4586956, 60.447675], [5.4587908, 60.4474925], [5.4591695, 60.4470083], [5.4594707, 60.4466418], [5.4597443, 60.4463031], [5.4599293, 60.4460495], [5.4600366, 60.4458405], [5.4601144, 60.4456077], [5.4601385, 60.445396], [5.4601332, 60.4451989], [5.4600661, 60.4449448], [5.4599374, 60.4446895], [5.4597389, 60.4444341], [5.4593097, 60.4439645], [5.4591139, 60.4437448], [5.4589557, 60.4435027], [5.4588725, 60.4432884], [5.4588243, 60.4430238], [5.458835, 60.4427512], [5.458894, 60.4421981], [5.4589342, 60.4417496], [5.4589181, 60.4414135], [5.4588672, 60.4411621], [5.4586633, 60.4405309], [5.4585292, 60.4400863], [5.4584635, 60.4398422], [5.4584367, 60.4396616], [5.4584313, 60.4394988], [5.4584595, 60.4393248], [5.4585399, 60.4390912], [5.4586513, 60.4388855], [5.4588122, 60.4386817], [5.4590187, 60.4384686], [5.4592628, 60.4382874], [5.459523, 60.4381219], [5.4598073, 60.4379751], [5.460266, 60.4377752], [5.4608694, 60.4375238], [5.4611927, 60.437371], [5.4614582, 60.437228], [5.4617626, 60.4370249], [5.4619759, 60.4368443], [5.4621328, 60.4366881], [5.4623071, 60.4364506], [5.4624077, 60.4362765], [5.4624734, 60.4360847], [5.4625405, 60.4358478]]}, "properties": {"electrified": "no", "gauge": "1435", "name": "Gamle Vossebanen", "railway": "rail", "length_km": 1.544}}, {"type": "Feature", "geometry": {"type": "LineString", "coordinates": [[5.4984179, 60.4345432], [5.4983024, 60.4346185]]}, "properties": {"bridge": "yes", "electrified": "no", "gauge": "1435", "name": "Gamle Vossebanen", "railway": "rail", "length_km": 0.011}}, {"type": "Feature", "geometry": {"type": "LineString", "coordinates": [[5.4983024, 60.4346185], [5.4979264, 60.4348342], [5.4975348, 60.4350129]]}, "properties": {"electrified": "no", "gauge": "1435", "name": "Gamle Vossebanen", "railway": "rail", "length_km": 0.061}}, {"type": "Feature", "geometry": {"type": "LineString", "coordinates": [[5.4975348, 60.4350129], [5.4973953, 60.4350645]]}, "properties": {"bridge": "yes", "electrified": "no", "gauge": "1435", "name": "Gamle Vossebanen", "railway": "rail", "length_km": 0.01}}, {"type": "Feature", "geometry": {"type": "LineString", "coordinates": [[5.4826136, 60.4392135], [5.482393, 60.4391809], [5.4821631, 60.4391512], [5.4819002, 60.4391285], [5.4816222, 60.4391159], [5.4813456, 60.4391124], [5.4810881, 60.4391178], [5.480866, 60.4391333], [5.4806421, 60.4391552], [5.4803861, 60.4391887], [5.4801216, 60.439237], [5.4798869, 60.4392908], [5.4796372, 60.4393611], [5.4793979, 60.4394421], [5.4792069, 60.4395205], [5.4789913, 60.4396168], [5.4786829, 60.4397954], [5.47842, 60.4400005], [5.4782403, 60.4402069], [5.4781008, 60.4404094], [5.478015, 60.4406158], [5.4779023, 60.4408791], [5.4777843, 60.4411371], [5.4777038, 60.4412714], [5.4776006, 60.4414104], [5.4774812, 60.4415377], [5.4773887, 60.4416327], [5.4772278, 60.4417683], [5.4769864, 60.4419363], [5.4767704, 60.44206], [5.4764794, 60.4422076], [5.4761535, 60.4423405], [5.4756868, 60.4425033], [5.475192, 60.4426614], [5.4737756, 60.4431143], [5.4734041, 60.4432413], [5.4729453, 60.4434157], [5.4726595, 60.4435353]]}, "properties": {"electrified": "no", "gauge": "1435", "name": "Gamle Vossebanen", "railway": "rail", "length_km": 0.802}}, {"type": "Feature", "geometry": {"type": "LineString", "coordinates": [[5.5113689, 60.423937], [5.5105756, 60.4240001], [5.5104391, 60.4240126], [5.5102703, 60.4240309], [5.5101594, 60.4240466], [5.5101478, 60.4240486], [5.5099891, 60.4240759], [5.509893, 60.4240949], [5.5096694, 60.4241439], [5.5095181, 60.4241856], [5.509348, 60.4242343], [5.5091739, 60.4242907], [5.5089731, 60.4243635], [5.5086228, 60.424521], [5.5080599, 60.4247793], [5.5078864, 60.424855], [5.5077013, 60.4249287], [5.5075482, 60.4249857], [5.5073622, 60.4250452], [5.5071691, 60.4251012], [5.5069842, 60.4251483]]}, "properties": {"electrified": "no", "gauge": "1435", "name": "Gamle Vossebanen", "railway": "rail", "length_km": 0.284}}, {"type": "Feature", "geometry": {"type": "LineString", "coordinates": [[5.462035, 60.449739], [5.4618104, 60.4497344], [5.4615241, 60.4497166], [5.4612505, 60.4496851], [5.4609903, 60.4496458], [5.4607154, 60.4495939], [5.460482, 60.4495386], [5.4602359, 60.4494679], [5.4600287, 60.4493944], [5.4598336, 60.4493207], [5.4596276, 60.4492261], [5.4594413, 60.4491243], [5.459287, 60.449029], [5.4591754, 60.4489526], [5.4590829, 60.4488754], [5.4589812, 60.4487869]]}, "properties": {"electrified": "no", "gauge": "1435", "name": "Gamle Vossebanen", "railway": "rail", "length_km": 0.209}}, {"type": "Feature", "geometry": {"type": "LineString", "coordinates": [[5.5069842, 60.4251483], [5.5068117, 60.4251901]]}, "properties": {"bridge": "yes", "electrified": "no", "gauge": "1435", "name": "Gamle Vossebanen", "railway": "rail", "length_km": 0.011}}, {"type": "Feature", "geometry": {"type": "LineString", "coordinates": [[5.4589812, 60.4487869], [5.4589155, 60.4487161]]}, "properties": {"bridge": "yes", "electrified": "no", "gauge": "1435", "name": "Gamle Vossebanen", "railway": "rail", "length_km": 0.009}}, {"type": "Feature", "geometry": {"type": "LineString", "coordinates": [[5.4699216, 60.4188125], [5.4698986, 60.4187287]]}, "properties": {"bridge": "yes", "electrified": "no", "gauge": "1435", "name": "Gamle Vossebanen", "railway": "rail", "length_km": 0.009}}, {"type": "Feature", "geometry": {"type": "LineString", "coordinates": [[5.4698986, 60.4187287], [5.469861, 60.4185552], [5.4698221, 60.4183199], [5.469804, 60.4181557], [5.469796, 60.4180329], [5.4697913, 60.4178604], [5.469796, 60.4175982], [5.4698074, 60.4174029], [5.4698235, 60.4172871], [5.4698543, 60.4170901], [5.4699086, 60.4168597], [5.4699469, 60.4167206], [5.4699918, 60.4165776], [5.4700595, 60.4163856], [5.4701279, 60.4162191], [5.4701916, 60.4160744], [5.4702667, 60.4159298], [5.4703519, 60.4157742], [5.4704806, 60.4155782], [5.4706416, 60.4153464], [5.4708192, 60.4151084], [5.4709882, 60.4148932], [5.4711365, 60.4147001], [5.4713825, 60.4143877], [5.4715481, 60.4141977], [5.4717567, 60.4139851], [5.4718895, 60.4138563], [5.472163, 60.4136118], [5.472389, 60.4134143], [5.4725734, 60.4132481], [5.4727075, 60.413116], [5.47279, 60.413028], [5.4728758, 60.4129267]]}, "properties": {"electrified": "no", "gauge": "1435", "name": "Gamle Vossebanen", "railway": "rail", "length_km": 0.681}}, {"type": "Feature", "geometry": {"type": "LineString", "coordinates": [[5.4936104, 60.4356194], [5.4933654, 60.4356342], [5.4930897, 60.4356576], [5.492621, 60.4357236], [5.4922173, 60.4357957], [5.4918793, 60.4358771], [5.4915722, 60.4359637], [5.4912758, 60.4360656], [5.4909915, 60.4361808], [5.4907595, 60.4362926], [5.4905784, 60.4363879], [5.4903102, 60.4365546], [5.4899629, 60.4367955], [5.489582, 60.4370747], [5.489173, 60.4373678], [5.4887519, 60.4376742], [5.4883469, 60.4379653], [5.4878801, 60.438308], [5.4874081, 60.4386481], [5.4870808, 60.4388572], [5.4868198, 60.4389838], [5.4865829, 60.4390817], [5.4863244, 60.4391726], [5.4860643, 60.4392476], [5.4858568, 60.4392957], [5.4856172, 60.4393446], [5.4853686, 60.4393888]]}, "properties": {"electrified": "no", "gauge": "1435", "name": "Gamle Vossebanen", "railway": "rail", "length_km": 0.643}}, {"type": "Feature", "geometry": {"type": "LineString", "coordinates": [[5.4853686, 60.4393888], [5.4851951, 60.4394124], [5.4849632, 60.4394348], [5.4847104, 60.4394449], [5.4845329, 60.4394446], [5.4843384, 60.4394394], [5.4841528, 60.4394315]]}, "properties": {"electrified": "no", "gauge": "1435", "name": "Gamle Vossebanen", "railway": "rail", "tunnel": "yes", "length_km": 0.068}}, {"type": "Feature", "geometry": {"type": "LineString", "coordinates": [[5.4625405, 60.4358478], [5.4626531, 60.4354084], [5.4627777, 60.4350701], [5.4629455, 60.4347004], [5.4631896, 60.4342861], [5.4634336, 60.4339592], [5.4637501, 60.4335807], [5.4640479, 60.4332631], [5.4646379, 60.4326635], [5.4647868, 60.4324981], [5.4649337, 60.4323188], [5.4650792, 60.4321136], [5.4653206, 60.4316914], [5.465393, 60.4315815], [5.4655727, 60.4312731], [5.4657819, 60.4310005], [5.4659965, 60.4307715], [5.4662835, 60.4305372], [5.4665624, 60.430348], [5.4673322, 60.4299085], [5.4676755, 60.4296861], [5.4679518, 60.4294783], [5.4681905, 60.429252], [5.4683154, 60.4291206], [5.4684373, 60.4289647], [5.4685266, 60.4288452], [5.4686277, 60.4286735], [5.4687493, 60.4284613], [5.4688819, 60.4281675], [5.469043, 60.4277829], [5.4692238, 60.4272722], [5.4692783, 60.4270623], [5.4693019, 60.4269714], [5.4693051, 60.4269595], [5.4693282, 60.4268703], [5.4693498, 60.4267693], [5.4693798, 60.4266284], [5.4693847, 60.4265942], [5.4694474, 60.4262622], [5.4695014, 60.4259986], [5.469542, 60.4257494], [5.4695529, 60.4255674], [5.4695406, 60.42532], [5.4695087, 60.4247391], [5.4694646, 60.4240542], [5.4694691, 60.4237461], [5.4694815, 60.4235401], [5.4695445, 60.4232806], [5.46968, 60.4230059], [5.4699737, 60.4226226], [5.4702272, 60.4222651], [5.4703827, 60.4219613], [5.4704592, 60.4217475], [5.4705141, 60.4214728], [5.4705168, 60.4211921], [5.4704672, 60.4208703], [5.470376, 60.4205142], [5.4703009, 60.4202077], [5.4700635, 60.419349], [5.4699216, 60.4188125]]}, "properties": {"electrified": "no", "gauge": "1435", "name": "Gamle Vossebanen", "railway": "rail", "length_km": 1.997}}, {"type": "Feature", "geometry": {"type": "LineString", "coordinates": [[5.4693051, 60.3878756], [5.4692622, 60.3877736]]}, "properties": {"bridge": "yes", "electrified": "no", "gauge": "1435", "name": "Gamle Vossebanen", "railway": "rail", "length_km": 0.012}}, {"type": "Feature", "geometry": {"type": "LineString", "coordinates": [[5.4734787, 60.4004868], [5.4735682, 60.3998464], [5.47359, 60.3996164], [5.4736044, 60.3993425], [5.4736134, 60.3991703], [5.4736101, 60.3989467], [5.473598, 60.3987337], [5.4735685, 60.3983879], [5.4735397, 60.3981047], [5.4735145, 60.3979348], [5.4734585, 60.3976741], [5.4733908, 60.397376], [5.4733439, 60.3971911], [5.473309, 60.39706], [5.4732594, 60.3969063], [5.4732057, 60.3967526], [5.4730971, 60.3964657], [5.4729791, 60.3961842], [5.4728436, 60.3958907], [5.4727511, 60.3957025], [5.4725981, 60.3954086], [5.4722388, 60.3947935], [5.4721811, 60.3946932], [5.4720739, 60.3944984], [5.4720162, 60.3943632], [5.4719706, 60.3941989], [5.4719498, 60.3941187], [5.4719324, 60.3940449], [5.4719176, 60.3939243], [5.4719149, 60.3938355], [5.471919, 60.3936732], [5.4719431, 60.3934141], [5.4719733, 60.3931825], [5.4720564, 60.3924875], [5.4721221, 60.3919207], [5.4721476, 60.3916357], [5.472149, 60.3915344], [5.4721449, 60.391437], [5.4721335, 60.3913445], [5.4721127, 60.3912329], [5.4720826, 60.3911245], [5.4720323, 60.390991], [5.4719713, 60.3908612], [5.4718941, 60.3907266], [5.4718164, 60.3906097], [5.4717299, 60.3905027], [5.4716152, 60.3903688], [5.471463, 60.3902201], [5.4713865, 60.3901485], [5.4711619, 60.3899686], [5.4707482, 60.3896485], [5.4704981, 60.3894375], [5.4703378, 60.389293], [5.470203, 60.3891592], [5.4700796, 60.3890253], [5.4699636, 60.3888951], [5.4697893, 60.388689], [5.4696847, 60.3885459], [5.4695465, 60.3883305], [5.4694895, 60.3882397], [5.4693769, 60.3880303], [5.4693051, 60.3878756]]}, "properties": {"electrified": "no", "gauge": "1435", "name": "Gamle Vossebanen", "railway": "rail", "length_km": 1.454}}, {"type": "Feature", "geometry": {"type": "LineString", "coordinates": [[5.3746675, 60.3243649], [5.3744079, 60.3242096], [5.3738768, 60.3238982], [5.3723775, 60.3229839], [5.3718719, 60.3226812], [5.3717423, 60.3225979]]}, "properties": {"electrified": "no", "gauge": "1435", "name": "Gamle Vossebanen", "railway": "rail", "length_km": 0.256}}, {"type": "Feature", "geometry": {"type": "LineString", "coordinates": [[5.4180528, 60.3498384], [5.4177383, 60.3497104], [5.4172475, 60.349517], [5.4166659, 60.3492979], [5.4165316, 60.3492513], [5.4155576, 60.3489129], [5.4150786, 60.3487439], [5.414862, 60.3486693], [5.4145887, 60.3485689], [5.4143406, 60.348471], [5.4141401, 60.3483795], [5.4139638, 60.3482932], [5.4137895, 60.3481947], [5.4136178, 60.3480849], [5.4134609, 60.3479698], [5.4133388, 60.3478683]]}, "properties": {"electrified": "no", "gauge": "1435", "name": "Gamle Vossebanen", "railway": "rail", "length_km": 0.344}}, {"type": "Feature", "geometry": {"type": "LineString", "coordinates": [[5.4646763, 60.3821549], [5.4638462, 60.3816687], [5.4634251, 60.3814222], [5.4631461, 60.3812664], [5.4628953, 60.3811299], [5.4626472, 60.3810086], [5.4623307, 60.3808654], [5.4620183, 60.3807342], [5.4616723, 60.3805983], [5.460417, 60.3801436], [5.4599516, 60.3799719], [5.4597411, 60.3798911], [5.459556, 60.3798102], [5.4593756, 60.3797273], [5.4591704, 60.3796239], [5.4589699, 60.3795129], [5.4587989, 60.3794002], [5.4586527, 60.3792991], [5.4584623, 60.379149], [5.4583443, 60.3790413], [5.4582075, 60.3789104], [5.4581022, 60.3787887], [5.4580097, 60.3786611], [5.4579487, 60.3785733], [5.4578642, 60.3784331], [5.4577374, 60.3781985], [5.4573606, 60.3774922], [5.4571727, 60.3771332], [5.4568537, 60.3765263], [5.456458, 60.3757792], [5.4560342, 60.3749767], [5.455874, 60.3746685], [5.4557204, 60.3743771], [5.4554891, 60.3739382], [5.4553184, 60.3736165]]}, "properties": {"electrified": "no", "gauge": "1435", "name": "Gamle Vossebanen", "railway": "rail", "length_km": 1.127}}, {"type": "Feature", "geometry": {"type": "LineString", "coordinates": [[5.464791, 60.3822295], [5.4646763, 60.3821549]]}, "properties": {"bridge": "yes", "electrified": "no", "gauge": "1435", "name": "Gamle Vossebanen", "railway": "rail", "length_km": 0.01}}, {"type": "Feature", "geometry": {"type": "LineString", "coordinates": [[5.4667798, 60.3850435], [5.4666108, 60.3849176]]}, "properties": {"bridge": "yes", "electrified": "no", "gauge": "1435", "name": "Gamle Vossebanen", "railway": "rail", "length_km": 0.017}}, {"type": "Feature", "geometry": {"type": "LineString", "coordinates": [[5.4692622, 60.3877736], [5.4692052, 60.3876228], [5.4690886, 60.3872964], [5.4690181, 60.3871274], [5.4689752, 60.387031], [5.4689196, 60.3869233], [5.4688686, 60.3868282], [5.4687969, 60.3867262], [5.468701, 60.3865979], [5.4686071, 60.3864836], [5.4685065, 60.3863786], [5.4683449, 60.3862318], [5.4680674, 60.3860049], [5.4673025, 60.3854303], [5.4671623, 60.3853273], [5.4667798, 60.3850435]]}, "properties": {"electrified": "no", "gauge": "1435", "name": "Gamle Vossebanen", "railway": "rail", "length_km": 0.339}}, {"type": "Feature", "geometry": {"type": "LineString", "coordinates": [[5.4841528, 60.4394315], [5.483936, 60.4394172], [5.4836503, 60.4393887], [5.4833834, 60.4393506], [5.4830368, 60.4392913], [5.4828463, 60.4392553]]}, "properties": {"electrified": "no", "gauge": "1435", "name": "Gamle Vossebanen", "railway": "rail", "length_km": 0.075}}, {"type": "Feature", "geometry": {"type": "LineString", "coordinates": [[5.4828463, 60.4392553], [5.4826136, 60.4392135]]}, "properties": {"bridge": "yes", "electrified": "no", "gauge": "1435", "name": "Gamle Vossebanen", "railway": "rail", "length_km": 0.014}}, {"type": "Feature", "geometry": {"type": "LineString", "coordinates": [[5.4033939, 60.3403909], [5.4031183, 60.3403982], [5.4028199, 60.3404121]]}, "properties": {"electrified": "no", "gauge": "1435", "name": "Gamle Vossebanen", "railway": "rail", "tunnel": "yes", "length_km": 0.032}}, {"type": "Feature", "geometry": {"type": "LineString", "coordinates": [[5.4182419, 60.3499157], [5.4180528, 60.3498384]]}, "properties": {"bridge": "yes", "electrified": "no", "gauge": "1435", "name": "Gamle Vossebanen", "railway": "rail", "length_km": 0.014}}, {"type": "Feature", "geometry": {"type": "LineString", "coordinates": [[5.4220183, 60.3514361], [5.4216269, 60.3513667], [5.4214793, 60.3513361], [5.4213694, 60.3513096], [5.4211946, 60.3512603], [5.4208383, 60.3511371], [5.4205411, 60.3510151], [5.4185645, 60.3500634], [5.4182419, 60.3499157]]}, "properties": {"electrified": "no", "gauge": "1435", "name": "Gamle Vossebanen", "railway": "rail", "length_km": 0.272}}, {"type": "Feature", "geometry": {"type": "LineString", "coordinates": [[5.4553184, 60.3736165], [5.4552665, 60.3735164]]}, "properties": {"bridge": "yes", "electrified": "no", "gauge": "1435", "name": "Gamle Vossebanen", "railway": "rail", "length_km": 0.012}}, {"type": "Feature", "geometry": {"type": "LineString", "coordinates": [[5.4734713, 60.4005306], [5.4734787, 60.4004868]]}, "properties": {"bridge": "yes", "electrified": "no", "gauge": "1435", "name": "Gamle Vossebanen", "railway": "rail", "length_km": 0.005}}, {"type": "Feature", "geometry": {"type": "LineString", "coordinates": [[5.4735424, 60.4051082], [5.4735404, 60.4050287], [5.4735303, 60.4049274], [5.4735055, 60.4048161], [5.4734646, 60.4046863], [5.473417, 60.4045757], [5.4733311, 60.4044171], [5.473077, 60.4040154], [5.4729697, 60.4038314], [5.4729174, 60.4037199], [5.4728564, 60.4035683], [5.4728235, 60.403463], [5.4728001, 60.4033487], [5.4727846, 60.4032189], [5.4727773, 60.4031202], [5.4727833, 60.4029841], [5.4727927, 60.4029033], [5.4728101, 60.4027976], [5.4728369, 60.4026863], [5.473077, 60.4019272], [5.4733197, 60.4011496], [5.4733834, 60.4009194], [5.473415, 60.4007919], [5.4734713, 60.4005306]]}, "properties": {"electrified": "no", "gauge": "1435", "name": "Gamle Vossebanen", "railway": "rail", "length_km": 0.519}}, {"type": "Feature", "geometry": {"type": "LineString", "coordinates": [[5.4735417, 60.4051575], [5.4735424, 60.4051082]]}, "properties": {"bridge": "yes", "electrified": "no", "gauge": "1435", "name": "Gamle Vossebanen", "railway": "rail", "length_km": 0.006}}, {"type": "Feature", "geometry": {"type": "LineString", "coordinates": [[5.4729825, 60.4101251], [5.4729362, 60.4100193]]}, "properties": {"bridge": "yes", "electrified": "no", "gauge": "1435", "name": "Gamle Vossebanen", "railway": "rail", "length_km": 0.012}}, {"type": "Feature", "geometry": {"type": "LineString", "coordinates": [[5.4729275, 60.4128628], [5.4730006, 60.4127562], [5.4730616, 60.4126598], [5.4731181, 60.4125546], [5.4731729, 60.4124287], [5.4732111, 60.4123132], [5.4732394, 60.4122141], [5.473258, 60.4121105], [5.4732715, 60.4119907], [5.4732762, 60.4118751], [5.4732715, 60.4116626], [5.4732567, 60.4113043], [5.4732259, 60.4108802], [5.4732125, 60.4107663], [5.4731937, 60.4106696], [5.4731588, 60.4105454], [5.4731085, 60.410405], [5.4729825, 60.4101251]]}, "properties": {"electrified": "no", "gauge": "1435", "name": "Gamle Vossebanen", "railway": "rail", "length_km": 0.309}}, {"type": "Feature", "geometry": {"type": "LineString", "coordinates": [[5.4728758, 60.4129267], [5.4729275, 60.4128628]]}, "properties": {"bridge": "yes", "electrified": "no", "gauge": "1435", "name": "Gamle Vossebanen", "railway": "rail", "length_km": 0.008}}, {"type": "Feature", "geometry": {"type": "LineString", "coordinates": [[5.5068117, 60.4251901], [5.5064487, 60.4252754], [5.5062241, 60.4253281], [5.5060414, 60.4253768], [5.5058563, 60.4254299], [5.5056623, 60.4254926], [5.5055212, 60.4255476], [5.5053938, 60.4256007], [5.505233, 60.4256721], [5.5051485, 60.4257168], [5.5050101, 60.4257965], [5.5048955, 60.4258687], [5.5047984, 60.4259382], [5.5046918, 60.4260261], [5.5046185, 60.426091], [5.5044665, 60.4262414], [5.5043125, 60.4264011], [5.5041703, 60.4265458], [5.5040568, 60.426659], [5.5039116, 60.4268014], [5.5038159, 60.4268896], [5.5034914, 60.4271831], [5.5033048, 60.4273493], [5.5026433, 60.4279325]]}, "properties": {"electrified": "no", "gauge": "1435", "name": "Gamle Vossebanen", "railway": "rail", "length_km": 0.394}}, {"type": "Feature", "geometry": {"type": "LineString", "coordinates": [[5.5026433, 60.4279325], [5.5026233, 60.4279511]]}, "properties": {"bridge": "yes", "electrified": "no", "gauge": "1435", "name": "Gamle Vossebanen", "railway": "rail", "length_km": 0.002}}, {"type": "Feature", "geometry": {"type": "LineString", "coordinates": [[5.4973953, 60.4350645], [5.4969822, 60.4352101], [5.4965423, 60.4353292], [5.4960166, 60.4354377], [5.4954748, 60.4355197], [5.4948981, 60.43557], [5.4943105, 60.435597], [5.4938051, 60.43561]]}, "properties": {"electrified": "no", "gauge": "1435", "name": "Gamle Vossebanen", "railway": "rail", "length_km": 0.211}}, {"type": "Feature", "geometry": {"type": "LineString", "coordinates": [[5.4938051, 60.43561], [5.4936104, 60.4356194]]}, "properties": {"bridge": "yes", "electrified": "no", "gauge": "1435", "name": "Gamle Vossebanen", "railway": "rail", "length_km": 0.011}}, {"type": "Feature", "geometry": {"type": "LineString", "coordinates": [[5.4706211, 60.4451124], [5.4706013, 60.4451869], [5.4705852, 60.4452705], [5.4705745, 60.4453549], [5.4705644, 60.4454673]]}, "properties": {"electrified": "no", "gauge": "1435", "name": "Gamle Vossebanen", "railway": "rail", "length_km": 0.04}}, {"type": "Feature", "geometry": {"type": "LineString", "coordinates": [[5.4665663, 60.4487983], [5.4657438, 60.4490164], [5.4652557, 60.4491454], [5.4648882, 60.44924], [5.4644329, 60.4493587], [5.4639692, 60.4494789], [5.463697, 60.4495496], [5.4634988, 60.4495957], [5.4633547, 60.4496256], [5.4631941, 60.4496546], [5.4630351, 60.4496789], [5.4627964, 60.4497068], [5.4626097, 60.4497232], [5.4624434, 60.4497326], [5.4622922, 60.4497384], [5.462144, 60.4497404]]}, "properties": {"electrified": "no", "gauge": "1435", "name": "Gamle Vossebanen", "railway": "rail", "length_km": 0.268}}, {"type": "Feature", "geometry": {"type": "LineString", "coordinates": [[5.4725632, 60.4435775], [5.4722245, 60.4437384], [5.4718915, 60.4439165], [5.4715545, 60.4441206], [5.4712719, 60.4443136], [5.4710747, 60.444473], [5.4709051, 60.4446438], [5.4707877, 60.4447826], [5.470718, 60.4448871], [5.4706455, 60.4450387]]}, "properties": {"electrified": "no", "gauge": "1435", "name": "Gamle Vossebanen", "railway": "rail", "length_km": 0.198}}, {"type": "Feature", "geometry": {"type": "LineString", "coordinates": [[5.4726595, 60.4435353], [5.4725632, 60.4435775]]}, "properties": {"bridge": "yes", "electrified": "no", "gauge": "1435", "name": "Gamle Vossebanen", "railway": "rail", "length_km": 0.007}}]}