{"type": "FeatureCollection", "features": [{"type": "Feature", "geometry": {"type": "LineString", "coordinates": [[7.9125873, 58.154593], [7.9113165, 58.154428], [7.9104923, 58.1543193], [7.9095817, 58.1542084], [7.9086672, 58.1541067], [7.9076657, 58.1540061], [7.9067446, 58.1539236], [7.9058204, 58.1538504], [7.9048939, 58.1537864], [7.9039651, 58.1537317], [7.90295, 58.1536826], [7.902018, 58.1536474], [7.901, 58.1536197], [7.900066, 58.153604], [7.8990466, 58.1535976], [7.8980273, 58.1536023], [7.8970085, 58.1536182], [7.8958207, 58.1536508], [7.8945503, 58.1537025], [7.893874, 58.1537371], [7.8931985, 58.1537767], [7.891935, 58.1538642], [7.8912632, 58.1539179], [7.8905927, 58.1539765], [7.8894231, 58.1540908], [7.8881763, 58.1542298], [7.8870192, 58.1543747], [7.885787, 58.1545465], [7.8851334, 58.1546449], [7.8844824, 58.1547481], [7.8838342, 58.1548559], [7.8831888, 58.1549686], [7.8819871, 58.1551924], [7.8808755, 58.1554161], [7.8796963, 58.1556713], [7.8795034, 58.1557178]]}, "properties": {"electrified": "contact_line", "frequency": "16.67", "gauge": "1435", "maxspeed": "130", "name": "Grohei tunnel", "operator": "Bane NOR", "passenger_lines": "1", "railway": "rail", "tunnel": "yes", "usage": "main", "voltage": "15000", "length_km": 1.994, "maxspeed_kmh": 130.0}}]}