{"type": "FeatureCollection", "features": [{"type": "Feature", "geometry": {"type": "LineString", "coordinates": [[9.2145571, 59.650494], [9.2144344, 59.650634], [9.2135596, 59.6516135], [9.2129001, 59.6523512], [9.2128445, 59.6524127], [9.2127915, 59.6524735], [9.2127104, 59.6525723], [9.2126812, 59.6526094], [9.2126155, 59.6527032], [9.2125982, 59.6527304], [9.2125561, 59.6528001], [9.2124904, 59.6528965], [9.2124391, 59.6529634], [9.2123827, 59.653031]]}, "properties": {"electrified": "contact_line", "frequency": "16.67", "gauge": "1435", "name": "Gr\u00f8nvollfoss sidespor", "railway": "rail", "service": "spur", "voltage": "15000", "length_km": 0.309}}]}