{"type": "FeatureCollection", "features": [{"type": "Feature", "geometry": {"type": "LineString", "coordinates": [[12.0595747, 60.1469754], [12.0596222, 60.1469611], [12.0596701, 60.1469472], [12.0597674, 60.1469208], [12.0598628, 60.1468955], [12.0599582, 60.1468715], [12.0601693, 60.146821], [12.0602749, 60.1467956], [12.0603804, 60.1467693], [12.0604762, 60.1467451], [12.0605678, 60.1467192], [12.0606274, 60.1467017], [12.0607393, 60.1466694], [12.0608385, 60.1466396], [12.0609345, 60.1466094], [12.0611233, 60.1465493], [12.0616497, 60.146383], [12.0618413, 60.1463223], [12.0620329, 60.1462612], [12.0622256, 60.1461994], [12.0624182, 60.1461369], [12.0625641, 60.1460877], [12.062711, 60.1460363], [12.0628552, 60.1459836], [12.0629961, 60.1459303], [12.0631251, 60.1458772], [12.0632532, 60.1458232], [12.0634282, 60.1457436], [12.0636022, 60.1456621], [12.0637667, 60.1455833], [12.0639323, 60.145503], [12.0640968, 60.1454223], [12.0642613, 60.1453406], [12.064431, 60.1452543], [12.0645978, 60.1451676], [12.0647619, 60.1450806], [12.0649253, 60.1449923], [12.0650833, 60.1449031], [12.0652401, 60.1448122], [12.0653945, 60.144721], [12.0655442, 60.1446279], [12.0656845, 60.1445398], [12.0658212, 60.1444511], [12.0659544, 60.1443614], [12.0660851, 60.1442718], [12.0662165, 60.1441786], [12.0663448, 60.1440855], [12.0664718, 60.1439926], [12.0665977, 60.1438992], [12.0667084, 60.1438134], [12.0668183, 60.1437277], [12.066927, 60.1436415], [12.0670337, 60.1435553], [12.0671266, 60.1434778], [12.0672178, 60.1434004], [12.0673084, 60.1433232], [12.0673982, 60.1432455], [12.0674586, 60.1431929], [12.0675207, 60.1431404], [12.0675861, 60.1430885], [12.0676533, 60.1430372], [12.0677208, 60.1429884], [12.0677594, 60.1429607], [12.0677937, 60.1429369], [12.0678706, 60.1428851], [12.0679478, 60.1428343], [12.0680253, 60.1427868], [12.0681043, 60.1427402], [12.068194, 60.1426907], [12.068286, 60.142642], [12.068384, 60.1425953], [12.0684853, 60.1425496]]}, "properties": {"electrified": "contact_line", "frequency": "16.67", "gauge": "1435", "name": "Gropa grustak", "railway": "rail", "service": "spur", "voltage": "15000", "length_km": 0.71}}, {"type": "Feature", "geometry": {"type": "LineString", "coordinates": [[12.0684853, 60.1425496], [12.0699138, 60.1419589], [12.0701122, 60.1418751], [12.0703131, 60.1417887], [12.0704827, 60.1417133], [12.0706854, 60.1416202], [12.0709054, 60.1415152], [12.0711345, 60.1414031], [12.0713561, 60.1412895], [12.0715616, 60.1411775], [12.0717672, 60.1410593], [12.0720113, 60.1409137], [12.0729145, 60.1403597], [12.0730039, 60.1403025], [12.073082, 60.1402446], [12.0731621, 60.1401754], [12.0732223, 60.1401107], [12.0732792, 60.1400366], [12.0733267, 60.1399648], [12.0733668, 60.1398872], [12.0733959, 60.1398098], [12.073411, 60.1397389], [12.0734173, 60.1396657], [12.0734156, 60.1396008], [12.0734072, 60.1395383], [12.07339, 60.1394682], [12.0733536, 60.1393846], [12.0733117, 60.1393041], [12.0732639, 60.1392313], [12.0732015, 60.1391487]]}, "properties": {"electrified": "no", "gauge": "1435", "name": "Gropa grustak", "railway": "rail", "service": "spur", "length_km": 0.491}}]}