{"type": "FeatureCollection", "features": [{"type": "Feature", "geometry": {"type": "LineString", "coordinates": [[5.3359653, 60.3903168], [5.3360834, 60.3908836], [5.3357843, 60.3917838], [5.3355548, 60.3921433], [5.3350878, 60.3926969], [5.3338877, 60.3935757], [5.3324203, 60.3948643], [5.3272625, 60.398757], [5.325884, 60.3995442], [5.3251559, 60.3998085], [5.3243019, 60.4000369], [5.3221237, 60.4004236]]}, "properties": {"electrified": "no", "gauge": "1435", "name": "Hamnebane nord 3", "railway": "rail", "service": "spur", "tunnel": "yes", "usage": "freight", "length_km": 1.427}}]}