{"type": "FeatureCollection", "features": [{"type": "Feature", "geometry": {"type": "LineString", "coordinates": [[6.4282423, 60.6297782], [6.4298847, 60.6297166]]}, "properties": {"bridge": "yes", "electrified": "no", "gauge": "1435", "name": "Hardangerbana", "railway": "rail", "service": "spur", "length_km": 0.09}}, {"type": "Feature", "geometry": {"type": "LineString", "coordinates": [[6.4487647, 60.6342519], [6.44962, 60.6344751], [6.4498453, 60.6345358], [6.4499758, 60.6345736], [6.4501454, 60.6346311], [6.4502411, 60.6346644], [6.4504243, 60.6347382], [6.4505964, 60.634815], [6.4509699, 60.6349994], [6.4511928, 60.635101], [6.4512727, 60.6351362], [6.4514093, 60.635189], [6.4515709, 60.6352485], [6.4517766, 60.6353132], [6.4522523, 60.6354435], [6.4530477, 60.6356501], [6.4542411, 60.6359554], [6.4545201, 60.6360238], [6.4547548, 60.6360758], [6.45496, 60.6361139], [6.4551752, 60.6361448], [6.4554622, 60.6361787], [6.4556687, 60.6361942], [6.4559021, 60.6362011], [6.4561468, 60.6362047], [6.4578447, 60.6361524], [6.4582792, 60.6361439], [6.4587767, 60.6361406], [6.4593226, 60.6361491], [6.4612759, 60.636182], [6.4616118, 60.6361774], [6.461935, 60.636159], [6.4621845, 60.6361353], [6.4624145, 60.6361028], [6.4626425, 60.6360649], [6.4628946, 60.636012], [6.4631803, 60.6359357], [6.4633767, 60.6358703], [6.4635873, 60.6357907], [6.4638314, 60.6356884], [6.4642163, 60.6355155], [6.4644087, 60.6354362], [6.4645971, 60.6353626], [6.4647035, 60.635326], [6.4649046, 60.6352567]]}, "properties": {"electrified": "no", "gauge": "1435", "name": "Hardangerbana", "railway": "rail", "service": "spur", "length_km": 0.98}}, {"type": "Feature", "geometry": {"type": "LineString", "coordinates": [[6.4298847, 60.6297166], [6.4302804, 60.6296983], [6.4307093, 60.6296649], [6.4316557, 60.6295513], [6.4320958, 60.6295047], [6.432411, 60.6294911], [6.4326922, 60.6294939], [6.4329459, 60.6295035], [6.4332372, 60.6295217], [6.4336008, 60.6295718], [6.4337421, 60.6296002], [6.4339759, 60.6296473], [6.4347684, 60.6298677], [6.4352928, 60.6299981], [6.4358443, 60.6300795], [6.4367946, 60.6301452], [6.4379672, 60.6302277], [6.4385709, 60.6302897], [6.4391917, 60.6303834], [6.4399617, 60.6305821], [6.4406772, 60.6308059], [6.4420173, 60.6312258], [6.4425349, 60.6314066], [6.4426063, 60.6314341], [6.4429239, 60.6315475], [6.4434856, 60.6317659], [6.4443518, 60.6321313], [6.4451625, 60.6325046]]}, "properties": {"electrified": "no", "gauge": "1435", "name": "Hardangerbana", "railway": "rail", "service": "spur", "length_km": 0.936}}, {"type": "Feature", "geometry": {"type": "LineString", "coordinates": [[6.4485825, 60.6341996], [6.4487647, 60.6342519]]}, "properties": {"bridge": "yes", "electrified": "no", "gauge": "1435", "name": "Hardangerbana", "railway": "rail", "service": "spur", "length_km": 0.012}}, {"type": "Feature", "geometry": {"type": "LineString", "coordinates": [[6.4280063, 60.6297836], [6.4282423, 60.6297782]]}, "properties": {"electrified": "no", "gauge": "1435", "name": "Hardangerbana", "railway": "rail", "service": "spur", "length_km": 0.013}}, {"type": "Feature", "geometry": {"type": "LineString", "coordinates": [[6.4243495, 60.629598], [6.4248163, 60.629567]]}, "properties": {"bridge": "yes", "electrified": "no", "gauge": "1435", "name": "Hardangerbana", "railway": "rail", "service": "spur", "length_km": 0.026}}, {"type": "Feature", "geometry": {"type": "LineString", "coordinates": [[6.4278264, 60.629785], [6.4279158, 60.6297851], [6.4280063, 60.6297836]]}, "properties": {"bridge": "yes", "electrified": "no", "gauge": "1435", "name": "Hardangerbana", "railway": "rail", "service": "spur", "length_km": 0.01}}, {"type": "Feature", "geometry": {"type": "LineString", "coordinates": [[6.425696, 60.629571], [6.4258836, 60.6295859]]}, "properties": {"bridge": "yes", "electrified": "no", "gauge": "1435", "name": "Hardangerbana", "railway": "rail", "service": "spur", "length_km": 0.01}}, {"type": "Feature", "geometry": {"type": "LineString", "coordinates": [[6.4248163, 60.629567], [6.4249669, 60.6295598], [6.425115, 60.6295564], [6.425273, 60.6295554], [6.4254246, 60.6295572], [6.4255709, 60.6295635], [6.425696, 60.629571]]}, "properties": {"electrified": "no", "gauge": "1435", "name": "Hardangerbana", "railway": "rail", "service": "spur", "length_km": 0.048}}, {"type": "Feature", "geometry": {"type": "LineString", "coordinates": [[6.4258836, 60.6295859], [6.4259796, 60.6295961], [6.4260881, 60.6296085], [6.4268025, 60.6297043], [6.4269502, 60.6297235], [6.4271, 60.6297408], [6.427255, 60.6297562], [6.427406, 60.629768], [6.4275402, 60.6297766], [6.4276859, 60.6297822], [6.4278264, 60.629785]]}, "properties": {"electrified": "no", "gauge": "1435", "name": "Hardangerbana", "railway": "rail", "service": "spur", "length_km": 0.109}}, {"type": "Feature", "geometry": {"type": "LineString", "coordinates": [[6.415277, 60.6297243], [6.4155319, 60.6297324]]}, "properties": {"bridge": "yes", "electrified": "contact_line", "frequency": "16.67", "gauge": "1435", "maxspeed": "40", "name": "Hardangerbana", "railway": "rail", "service": "spur", "voltage": "15000", "length_km": 0.014, "maxspeed_kmh": 40.0}}, {"type": "Feature", "geometry": {"type": "LineString", "coordinates": [[6.4189075, 60.6294961], [6.4190275, 60.629484], [6.4191456, 60.6294729]]}, "properties": {"bridge": "yes", "electrified": "contact_line", "frequency": "16.67", "gauge": "1435", "maxspeed": "40", "name": "Hardangerbana", "railway": "rail", "service": "spur", "voltage": "15000", "length_km": 0.013, "maxspeed_kmh": 40.0}}, {"type": "Feature", "geometry": {"type": "LineString", "coordinates": [[6.4135411, 60.6295144], [6.4137535, 60.6295429], [6.4148534, 60.6296899], [6.4149585, 60.6297019], [6.4150803, 60.6297124], [6.4152045, 60.629721]]}, "properties": {"electrified": "no", "maxspeed": "40", "name": "Hardangerbana", "railway": "rail", "service": "siding", "length_km": 0.094, "maxspeed_kmh": 40.0}}, {"type": "Feature", "geometry": {"type": "LineString", "coordinates": [[6.4155319, 60.6297324], [6.4156751, 60.629734], [6.4158629, 60.6297347], [6.4161042, 60.6297327], [6.4163223, 60.6297283], [6.4165701, 60.6297188], [6.4168168, 60.6297046], [6.4170478, 60.6296863], [6.4172982, 60.6296643], [6.417571, 60.6296363], [6.4183513, 60.6295534], [6.4189075, 60.6294961]]}, "properties": {"electrified": "contact_line", "frequency": "16.67", "gauge": "1435", "maxspeed": "40", "name": "Hardangerbana", "railway": "rail", "service": "spur", "voltage": "15000", "length_km": 0.188, "maxspeed_kmh": 40.0}}, {"type": "Feature", "geometry": {"type": "LineString", "coordinates": [[6.4191456, 60.6294729], [6.4193915, 60.6294529], [6.419655, 60.6294362], [6.4198699, 60.6294266], [6.4200738, 60.6294194], [6.4202675, 60.6294158], [6.4204861, 60.6294136], [6.4207168, 60.6294141], [6.4209172, 60.629418], [6.4211129, 60.6294236], [6.421317, 60.6294328], [6.421528, 60.6294438], [6.4217384, 60.6294588], [6.4219253, 60.6294736], [6.4221023, 60.6294894], [6.4222841, 60.6295076], [6.4228569, 60.6295663], [6.423048, 60.6295827], [6.4232364, 60.6295978], [6.4234224, 60.629609], [6.4235949, 60.629616], [6.4238031, 60.6296202], [6.4239942, 60.6296177], [6.4241914, 60.6296095], [6.4243495, 60.629598]]}, "properties": {"electrified": "no", "gauge": "1435", "name": "Hardangerbana", "operator": "Bane NOR", "railway": "rail", "service": "spur", "length_km": 0.288}}, {"type": "Feature", "geometry": {"type": "LineString", "coordinates": [[6.4152045, 60.629721], [6.415277, 60.6297243]]}, "properties": {"maxspeed": "40", "name": "Hardangerbana", "railway": "rail", "service": "spur", "length_km": 0.004, "maxspeed_kmh": 40.0}}, {"type": "Feature", "geometry": {"type": "LineString", "coordinates": [[6.4452631, 60.6325539], [6.4455656, 60.6327033], [6.445842, 60.6328451], [6.4462377, 60.6330563], [6.4478303, 60.6339195], [6.4481626, 60.6340641], [6.448336, 60.6341221], [6.4485825, 60.6341996]]}, "properties": {"electrified": "no", "gauge": "1435", "name": "Hardangerbana", "railway": "rail", "service": "spur", "length_km": 0.26}}, {"type": "Feature", "geometry": {"type": "LineString", "coordinates": [[6.4451625, 60.6325046], [6.4452202, 60.6325312], [6.4452631, 60.6325539]]}, "properties": {"electrified": "no", "gauge": "1435", "name": "Hardangerbana", "railway": "rail", "service": "spur", "length_km": 0.008}}, {"type": "Feature", "geometry": {"type": "LineString", "coordinates": [[6.4649046, 60.6352567], [6.4652985, 60.6351475], [6.4657398, 60.6350321], [6.4662521, 60.6349016], [6.4666282, 60.6348164], [6.4672633, 60.6346921], [6.469236, 60.634316], [6.4695573, 60.6342546], [6.4702171, 60.6341281], [6.4702394, 60.6341238]]}, "properties": {"electrified": "no", "gauge": "1435", "name": "Hardangerbana", "railway": "rail", "service": "yard", "length_km": 0.319}}, {"type": "Feature", "geometry": {"type": "LineString", "coordinates": [[6.4702394, 60.6341238], [6.4703905, 60.6340944], [6.472317, 60.6337202]]}, "properties": {"electrified": "no", "gauge": "1435", "name": "Hardangerbana", "railway": "rail", "service": "spur", "length_km": 0.123}}]}