{"type": "FeatureCollection", "features": [{"type": "Feature", "geometry": {"type": "LineString", "coordinates": [[5.337467, 60.3888022], [5.3367208, 60.3891827], [5.3365941, 60.3892512], [5.336466, 60.3893266], [5.3363748, 60.3893843], [5.3362885, 60.3894458], [5.336189, 60.3895294], [5.3361114, 60.389609], [5.3360412, 60.3896915], [5.3359959, 60.3897678], [5.3359596, 60.3898522], [5.335935, 60.3899315], [5.3359227, 60.3900146], [5.3359209, 60.3900915], [5.3359284, 60.3901543], [5.3359454, 60.3902304], [5.3359653, 60.3903168]]}, "properties": {"electrified": "no", "gauge": "1435", "name": "Havnebane nord (til Skoltegrunnskaien)", "operator": "Bane NOR", "railway": "rail", "service": "spur", "length_km": 0.199}}]}