{"type": "FeatureCollection", "features": [{"type": "Feature", "geometry": {"type": "LineString", "coordinates": [[11.237004, 60.7788518], [11.2372264, 60.7788044], [11.2373219, 60.7787814], [11.2377068, 60.7786934], [11.2379173, 60.7786511], [11.2380662, 60.7786269], [11.2382466, 60.7786047], [11.2384196, 60.7785909], [11.2385718, 60.7785857], [11.2387817, 60.778588], [11.2389828, 60.7785971], [11.2390646, 60.7786063], [11.2391143, 60.7786102], [11.2392336, 60.7786272], [11.2394965, 60.7786698], [11.2396587, 60.7787019], [11.2398586, 60.7787543], [11.2400557, 60.7788138], [11.2402327, 60.7788734], [11.2404627, 60.7789556], [11.2406223, 60.7790158], [11.2407367, 60.7790613], [11.2408523, 60.7791127]]}, "properties": {"electrified": "no", "gauge": "1435", "name": "Hedmark treimpregnering sidespor", "railway": "rail", "service": "spur", "length_km": 0.232}}]}