{"type": "FeatureCollection", "features": [{"type": "Feature", "geometry": {"type": "LineString", "coordinates": [[6.1596149, 58.5353641], [6.1594744, 58.5352105], [6.1594255, 58.5351621], [6.1593758, 58.5351051], [6.1592887, 58.5350155], [6.1591486, 58.5348891], [6.1590017, 58.5347743], [6.1589058, 58.534704], [6.1587059, 58.534571], [6.1585464, 58.5344742], [6.1583646, 58.534375], [6.1581387, 58.5342665], [6.1578476, 58.5341493], [6.1575606, 58.5340498], [6.1574632, 58.53402], [6.1572409, 58.5339518], [6.1569954, 58.5338856], [6.1567412, 58.5338209], [6.1565334, 58.5337771], [6.1562702, 58.5337276], [6.1559768, 58.5336844], [6.1556831, 58.5336518], [6.1552762, 58.533623], [6.1549924, 58.5336119], [6.1545948, 58.5336067], [6.1543124, 58.5336122], [6.1539993, 58.5336242], [6.153658, 58.5336441], [6.1534911, 58.5336525], [6.1533368, 58.5336581], [6.1532109, 58.5336587]]}, "properties": {"electrified": "contact_line", "frequency": "16.67", "gauge": "1435", "maxspeed": "40", "name": "Helleland", "passenger_lines": "2", "railway": "rail", "service": "siding", "voltage": "15000", "length_km": 0.457, "maxspeed_kmh": 40.0}}]}