{"type": "FeatureCollection", "features": [{"type": "Feature", "geometry": {"type": "LineString", "coordinates": [[5.7015934, 58.8082017], [5.7017004, 58.8077731], [5.7017353, 58.8076133], [5.7017568, 58.8074619], [5.7017939, 58.8072002]]}, "properties": {"electrified": "contact_line", "frequency": "16.67", "name": "Hensettingsspor", "railway": "rail", "service": "siding", "voltage": "15000", "length_km": 0.113}}, {"type": "Feature", "geometry": {"type": "LineString", "coordinates": [[5.7015934, 58.8082017], [5.7014966, 58.8085802], [5.7014302, 58.8088639], [5.7013308, 58.8092664]]}, "properties": {"electrified": "contact_line", "frequency": "16.67", "name": "Hensettingsspor", "railway": "rail", "service": "spur", "voltage": "15000", "length_km": 0.12}}]}