{"type": "FeatureCollection", "features": [{"type": "Feature", "geometry": {"type": "LineString", "coordinates": [[6.3646273, 58.4708933], [6.3645742, 58.470954], [6.3644629, 58.4710788], [6.3643786, 58.4711783], [6.3642843, 58.4713063], [6.3641967, 58.4714512], [6.3641175, 58.4716166], [6.3640156, 58.4718727], [6.3639187, 58.472147], [6.3638266, 58.4724723], [6.3637273, 58.472899], [6.3636319, 58.4733174], [6.3635556, 58.4736325], [6.3634715, 58.4740089], [6.3634095, 58.4742819], [6.3633887, 58.4743597], [6.3633531, 58.4744558], [6.3633317, 58.4745034], [6.3633086, 58.4745489]]}, "properties": {"electrified": "contact_line", "frequency": "16.67", "gauge": "1435", "name": "Heskestad fjernstyrt kryssingsspor", "railway": "rail", "service": "siding", "voltage": "15000", "length_km": 0.417}}]}