{"type": "FeatureCollection", "features": [{"type": "Feature", "geometry": {"type": "LineString", "coordinates": [[10.2200694, 59.7374917], [10.2203697, 59.7375302], [10.2206896, 59.7375643], [10.2209685, 59.7375934], [10.221206, 59.7376138], [10.2213943, 59.7376236], [10.221629, 59.7376296], [10.2218228, 59.7376307], [10.2220193, 59.7376255], [10.2222178, 59.7376154], [10.2224484, 59.7375958], [10.2227207, 59.7375647]]}, "properties": {"electrified": "no", "gauge": "1435", "name": "Holmen sidespor", "railway": "rail", "service": "spur", "length_km": 0.151}}]}