{"type": "FeatureCollection", "features": [{"type": "Feature", "geometry": {"type": "LineString", "coordinates": [[5.4705644, 60.4454673], [5.4705651, 60.4455471], [5.4705678, 60.445598], [5.4705812, 60.4457065], [5.4705986, 60.4458275], [5.4706045, 60.4459096], [5.470604, 60.4460435], [5.4705933, 60.4461426], [5.4705548, 60.4463526], [5.4704944, 60.4465319], [5.4704494, 60.4466544], [5.470385, 60.4467835], [5.4703094, 60.4469077], [5.4702076, 60.4470503], [5.4700991, 60.4471861], [5.4699745, 60.4473189], [5.4698388, 60.44745], [5.4696906, 60.4475748], [5.4695426, 60.4476872], [5.4694102, 60.4477803], [5.4692703, 60.4478703], [5.4691115, 60.4479636], [5.4689392, 60.4480557], [5.4687184, 60.4481628], [5.4683831, 60.4483044], [5.4681867, 60.4483805], [5.4680204, 60.448437], [5.4678608, 60.4484878], [5.4677025, 60.4485356], [5.4675557, 60.4485736], [5.4674174, 60.4486092], [5.4672549, 60.4486459], [5.4670021, 60.4486971], [5.4668312, 60.448734], [5.4666998, 60.4487648], [5.4665663, 60.4487983]]}, "properties": {"electrified": "no", "gauge": "1435", "railway": "rail", "ref": "II", "service": "siding", "length_km": 0.469}}]}