{"type": "FeatureCollection", "features": [{"type": "Feature", "geometry": {"type": "LineString", "coordinates": [[5.3552523, 60.3784026], [5.3553952, 60.3783076], [5.3556132, 60.3781928], [5.3557997, 60.3781065], [5.3559984, 60.3780296], [5.3563051, 60.3779291], [5.3565741, 60.37786], [5.3568864, 60.3777935], [5.3571933, 60.3777306], [5.3574265, 60.3776815], [5.3576293, 60.3776391], [5.3578094, 60.3776021]]}, "properties": {"electrified": "contact_line", "frequency": "16.67", "gauge": "1435", "name": "Inntrekkshallen i Fl\u00f8en", "operator": "Bane NOR", "railway": "rail", "service": "yard", "tunnel": "yes", "voltage": "15000", "length_km": 0.17}}]}