{"type": "FeatureCollection", "features": [{"type": "Feature", "geometry": {"type": "LineString", "coordinates": [[5.7341184, 58.8483807], [5.7341633, 58.8485645]]}, "properties": {"electrified": "contact_line", "frequency": "16.67", "gauge": "1435", "name": "J\u00e6rbanen", "operator": "Bane NOR", "passenger_lines": "2", "railway": "rail", "usage": "main", "voltage": "15000", "length_km": 0.021}}, {"type": "Feature", "geometry": {"type": "LineString", "coordinates": [[5.7461158, 58.5415833], [5.7469058, 58.5413002], [5.7473722, 58.5411173], [5.7478579, 58.540933], [5.7483515, 58.5407608], [5.7489631, 58.5405565], [5.7511201, 58.5398502], [5.7532667, 58.5391443], [5.7540874, 58.5388267]]}, "properties": {"gauge": "1435", "maxspeed": "40", "name": "J\u00e6rbanen", "passenger_lines": "2", "railway": "rail", "service": "siding", "length_km": 0.559, "maxspeed_kmh": 40.0}}, {"type": "Feature", "geometry": {"type": "LineString", "coordinates": [[5.7540874, 58.5388267], [5.7542507, 58.5387665]]}, "properties": {"bridge": "yes", "gauge": "1435", "maxspeed": "40", "name": "J\u00e6rbanen", "passenger_lines": "2", "railway": "rail", "service": "siding", "length_km": 0.012, "maxspeed_kmh": 40.0}}]}