{"type": "FeatureCollection", "features": [{"type": "Feature", "geometry": {"type": "LineString", "coordinates": [[11.4059182, 59.1231621], [11.406096, 59.1232216], [11.4063055, 59.1232944], [11.406545, 59.1233789], [11.4067387, 59.1234518], [11.4069092, 59.1235236], [11.4071222, 59.1236178], [11.4079541, 59.1239958], [11.4082635, 59.1241343], [11.4084471, 59.124215], [11.4086733, 59.1243087], [11.4089198, 59.1244118], [11.4091759, 59.1245148]]}, "properties": {"electrified": "no", "gauge": "1435", "name": "Kasa sidespor", "railway": "rail", "service": "spur", "length_km": 0.24}}, {"type": "Feature", "geometry": {"type": "LineString", "coordinates": [[11.3990427, 59.1227863], [11.3992836, 59.1227907], [11.3994405, 59.122797], [11.3996026, 59.1228055], [11.3998599, 59.1228183], [11.4003861, 59.1228444], [11.4007193, 59.1228568], [11.4008704, 59.1228603], [11.4010844, 59.1228628], [11.4013248, 59.1228634], [11.4021936, 59.1228614], [11.4034629, 59.1228523], [11.4038798, 59.1228491], [11.4041318, 59.1228518], [11.4042928, 59.1228562], [11.4044302, 59.1228628], [11.4045895, 59.1228758], [11.4047509, 59.1228936], [11.4049103, 59.1229137], [11.4050611, 59.1229384], [11.4052536, 59.1229761], [11.40549, 59.1230308], [11.4056808, 59.1230857], [11.4059182, 59.1231621], [11.4060662, 59.123217], [11.4062837, 59.1233103], [11.4064924, 59.1234033], [11.4066799, 59.1234846], [11.4068476, 59.12356], [11.4070611, 59.123655], [11.4078842, 59.1240268], [11.4082076, 59.1241714], [11.4083659, 59.1242362], [11.4085327, 59.1242973], [11.4087232, 59.124361], [11.4089377, 59.1244303], [11.4091759, 59.1245148]]}, "properties": {"electrified": "no", "gauge": "1435", "name": "Kasa sidespor", "railway": "rail", "service": "spur", "length_km": 0.642}}, {"type": "Feature", "geometry": {"type": "LineString", "coordinates": [[11.4091759, 59.1245148], [11.4095186, 59.1246545], [11.4099437, 59.1248284], [11.4101242, 59.1248997], [11.4102815, 59.1249539], [11.410459, 59.1250049], [11.4106388, 59.125056]]}, "properties": {"electrified": "no", "gauge": "1435", "name": "Kasa sidespor", "railway": "rail", "service": "spur", "length_km": 0.103}}]}