{"type": "FeatureCollection", "features": [{"type": "Feature", "geometry": {"type": "LineString", "coordinates": [[30.0030381, 69.6875258], [30.0027353, 69.6868287], [30.0025517, 69.6863102], [30.0023921, 69.6857897], [30.002372, 69.6855513], [30.0023927, 69.6852944], [30.0024448, 69.6850499], [30.0025292, 69.6847971], [30.0026857, 69.6845232], [30.00288, 69.6842517], [30.0033957, 69.6836823], [30.004406, 69.6826017], [30.0049313, 69.6820333], [30.0054501, 69.6814655], [30.0057371, 69.6811927], [30.0060774, 69.6809051], [30.0065533, 69.6805748], [30.0070779, 69.6802745], [30.0073555, 69.6801339], [30.0076471, 69.6799947], [30.0085099, 69.6796608], [30.0097482, 69.6792412], [30.0105085, 69.678958], [30.0111255, 69.6786596], [30.0115663, 69.6783762], [30.0118972, 69.6780787], [30.0121322, 69.6777747], [30.0122578, 69.677493], [30.0122857, 69.6772803]]}, "properties": {"electrified": "no", "gauge": "1435", "name": "Kirkenes\u2013Bj\u00f8rnevatnbanen", "railway": "rail", "usage": "industrial", "length_km": 1.249}}, {"type": "Feature", "geometry": {"type": "LineString", "coordinates": [[30.009098, 69.6942759], [30.007985, 69.6934122], [30.0069138, 69.6925063], [30.0059055, 69.6915911], [30.0051156, 69.6907309], [30.0046211, 69.6900912], [30.0038359, 69.6890398], [30.003425, 69.6883544], [30.0030381, 69.6875258]]}, "properties": {"electrified": "no", "gauge": "1435", "name": "Kirkenes\u2013Bj\u00f8rnevatnbanen", "railway": "rail", "usage": "industrial", "length_km": 0.795}}, {"type": "Feature", "geometry": {"type": "LineString", "coordinates": [[30.0122857, 69.6772803], [30.0122978, 69.6770261], [30.0122243, 69.6768054], [30.0121571, 69.6766773]]}, "properties": {"electrified": "no", "gauge": "1435", "name": "Kirkenes\u2013Bj\u00f8rnevatnbanen", "railway": "rail", "tunnel": "yes", "usage": "industrial", "length_km": 0.068}}, {"type": "Feature", "geometry": {"type": "LineString", "coordinates": [[30.0007405, 69.658394], [30.0075208, 69.6564759]]}, "properties": {"electrified": "no", "gauge": "1435", "name": "Kirkenes\u2013Bj\u00f8rnevatnbanen", "railway": "rail", "tunnel": "yes", "usage": "industrial", "length_km": 0.34}}, {"type": "Feature", "geometry": {"type": "LineString", "coordinates": [[30.0121571, 69.6766773], [30.0119041, 69.6763622], [30.0117211, 69.676189], [30.0113109, 69.6759098], [30.0108241, 69.6756536], [30.0103, 69.6754254], [30.0080395, 69.6745884], [30.0045591, 69.6732876], [30.001189, 69.6720319], [30.0000862, 69.6716118], [29.9994206, 69.671313], [29.9990396, 69.6711131], [29.9986246, 69.6708691], [29.9982121, 69.6705933], [29.9978747, 69.6703097], [29.9976074, 69.67004], [29.9973724, 69.6697426], [29.9972426, 69.6695351], [29.9970911, 69.6691997], [29.9970354, 69.6689202], [29.9970114, 69.668636], [29.9970757, 69.6678978], [29.9971544, 69.6670375], [29.9971859, 69.6665644], [29.9972843, 69.6655455], [29.9975457, 69.6627148], [29.9975946, 69.6621981], [29.997642, 69.6616405], [29.9976459, 69.6611959], [29.9975643, 69.6608388], [29.9974329, 69.6604982], [29.9973959, 69.660249], [29.9974397, 69.6600105], [29.9975413, 69.6598142], [29.9976602, 69.6596727], [29.9978704, 69.6594958], [29.9981516, 69.6593136], [29.9984528, 69.659156], [29.9988852, 69.6589702], [29.9993087, 69.6588169], [29.9999476, 69.6586194], [30.0007405, 69.658394]]}, "properties": {"electrified": "no", "gauge": "1435", "name": "Kirkenes\u2013Bj\u00f8rnevatnbanen", "railway": "rail", "usage": "industrial", "length_km": 2.3}}, {"type": "Feature", "geometry": {"type": "LineString", "coordinates": [[30.0336783, 69.7191684], [30.0334436, 69.7189527], [30.0333019, 69.7187957], [30.0329928, 69.7183826], [30.0328767, 69.7181485], [30.0327775, 69.7178752], [30.0327218, 69.7174469], [30.0327373, 69.7169807], [30.0327422, 69.7165162], [30.0327355, 69.7160927], [30.0326482, 69.7156811], [30.0324756, 69.7153777], [30.0322983, 69.715135], [30.0320238, 69.7148476], [30.0317717, 69.714617], [30.0310791, 69.7140847], [30.0299556, 69.7132784], [30.0289879, 69.7125467], [30.0283545, 69.7119815], [30.0280622, 69.7116811], [30.0278155, 69.7113836], [30.0274426, 69.7108264], [30.027188, 69.7102673], [30.0267452, 69.7091345], [30.0263885, 69.7082406], [30.0261551, 69.7077969], [30.0258787, 69.7073538], [30.0255972, 69.7069913], [30.0251239, 69.7064591], [30.0248757, 69.7062285], [30.0245019, 69.7058883], [30.0240676, 69.7055275], [30.0224586, 69.7044315], [30.0217669, 69.7039347], [30.0214586, 69.7036877], [30.0211688, 69.7034331], [30.0207955, 69.7030751], [30.0202664, 69.7024703], [30.0196427, 69.7017655], [30.0190046, 69.7010607], [30.0186514, 69.7007183], [30.0182493, 69.7003412], [30.0177619, 69.6999227], [30.0173807, 69.6996131], [30.0169292, 69.699272], [30.016457, 69.6989304], [30.0158797, 69.6985338], [30.0154812, 69.6982754], [30.0102566, 69.6950715], [30.009098, 69.6942759]]}, "properties": {"electrified": "no", "gauge": "1435", "name": "Kirkenes\u2013Bj\u00f8rnevatnbanen", "railway": "rail", "usage": "industrial", "length_km": 2.98}}, {"type": "Feature", "geometry": {"type": "LineString", "coordinates": [[30.029206, 69.7257506], [30.0295595, 69.7257922], [30.0298116, 69.7258062], [30.0301234, 69.7258124], [30.0304031, 69.7258088], [30.030682, 69.7257919], [30.0309194, 69.7257718], [30.0311812, 69.7257382], [30.0314905, 69.7256798], [30.0316851, 69.7256356], [30.0318125, 69.7256035], [30.0319956, 69.7255436], [30.0321699, 69.7254771], [30.0323114, 69.7254128], [30.0324408, 69.7253315], [30.0325186, 69.7252782], [30.0325917, 69.7252167], [30.0337162, 69.7241118], [30.0337887, 69.7240388]]}, "properties": {"bridge": "yes", "electrified": "no", "gauge": "1435", "name": "Kirkenes\u2013Bj\u00f8rnevatnbanen", "railway": "rail", "usage": "industrial", "length_km": 0.301}}, {"type": "Feature", "geometry": {"type": "LineString", "coordinates": [[30.0337887, 69.7240388], [30.0339258, 69.7239046], [30.0340944, 69.7237318], [30.0342554, 69.723564], [30.0345331, 69.7232957], [30.0347777, 69.7230614], [30.0349856, 69.7228372], [30.0351298, 69.7226768], [30.0352277, 69.7225165], [30.0352994, 69.7223891], [30.0353618, 69.7222541], [30.035408, 69.7221084], [30.0354375, 69.7219727], [30.035459, 69.7218011], [30.035461, 69.7216573], [30.0354496, 69.7215529], [30.0354308, 69.7213933], [30.0354114, 69.7212245], [30.0353544, 69.7209898], [30.0353026, 69.7208266], [30.0352002, 69.7206326], [30.0351029, 69.7204948], [30.0349534, 69.7203182], [30.0348012, 69.7201471], [30.0345658, 69.7199252], [30.0340825, 69.7195201], [30.0336783, 69.7191684]]}, "properties": {"electrified": "no", "gauge": "1435", "name": "Kirkenes\u2013Bj\u00f8rnevatnbanen", "railway": "rail", "usage": "industrial", "length_km": 0.566}}]}