{"type": "FeatureCollection", "features": [{"type": "Feature", "geometry": {"type": "LineString", "coordinates": [[7.9306737, 58.1542087], [7.9303882, 58.1542748], [7.9301012, 58.1543335], [7.9298343, 58.1543792]]}, "properties": {"electrified": "contact_line", "frequency": "16.67", "gauge": "1435", "maxspeed": "85", "name": "Kjerran tunnel", "operator": "Bane NOR", "passenger_lines": "1", "railway": "rail", "tunnel": "yes", "usage": "main", "voltage": "15000", "length_km": 0.053, "maxspeed_kmh": 85.0}}]}