{"type": "FeatureCollection", "features": [{"type": "Feature", "geometry": {"type": "LineString", "coordinates": [[6.0998279, 58.519382], [6.0994063, 58.5193891], [6.0990631, 58.5193852], [6.0987206, 58.5193742], [6.0983791, 58.5193558], [6.0980394, 58.5193304], [6.0976179, 58.5192887], [6.0972004, 58.519237], [6.0967037, 58.5191664], [6.0944461, 58.5188276]]}, "properties": {"electrified": "contact_line", "frequency": "16.67", "gauge": "1435", "maxspeed": "100", "name": "Klungeland tunnel", "operator": "Bane NOR", "passenger_lines": "1", "railway": "rail", "tunnel": "yes", "usage": "main", "voltage": "15000", "length_km": 0.322, "maxspeed_kmh": 100.0}}]}