{"type": "FeatureCollection", "features": [{"type": "Feature", "geometry": {"type": "LineString", "coordinates": [[9.1567222, 58.9704326], [9.1566864, 58.970489], [9.1564088, 58.970926], [9.1561529, 58.9713211], [9.155314, 58.9726647], [9.1552453, 58.9727609], [9.155185, 58.9728333], [9.1550936, 58.9729333], [9.155029, 58.9730041], [9.1549533, 58.9730899], [9.1548957, 58.9731583], [9.1548334, 58.9732426]]}, "properties": {"electrified": "contact_line", "frequency": "16.67", "gauge": "1435", "maxspeed": "40", "name": "Krager\u00f8banen", "railway": "rail", "service": "yard", "voltage": "15000", "length_km": 0.332, "maxspeed_kmh": 40.0}}, {"type": "Feature", "geometry": {"type": "LineString", "coordinates": [[9.1567222, 58.9704326], [9.1568357, 58.9702811], [9.1568943, 58.9702118], [9.1569549, 58.9701459], [9.157027, 58.9700778], [9.1571185, 58.9699999], [9.1572192, 58.9699249], [9.1573355, 58.969848], [9.1574499, 58.9697805], [9.157568, 58.9697168], [9.1577364, 58.9696338], [9.1578801, 58.9695715], [9.1580705, 58.9695002], [9.1582709, 58.9694356], [9.1584732, 58.9693795], [9.1586199, 58.9693432]]}, "properties": {"gauge": "1435", "maxspeed": "40", "name": "Krager\u00f8banen", "railway": "rail", "service": "yard", "length_km": 0.168, "maxspeed_kmh": 40.0}}]}