{"type": "FeatureCollection", "features": [{"type": "Feature", "geometry": {"type": "LineString", "coordinates": [[10.3805826, 63.4196628], [10.380932, 63.4194753], [10.3811868, 63.4193061], [10.3814014, 63.4191201], [10.3815892, 63.4189208], [10.381793, 63.418694], [10.3818149, 63.4186533], [10.3818896, 63.418514], [10.3819539, 63.4183543], [10.3821015, 63.4180135], [10.3821826, 63.4178082]]}, "properties": {"electrified": "no", "gauge": "1435", "name": "Kranspor", "railway": "rail", "service": "siding", "length_km": 0.225}}]}