{"type": "FeatureCollection", "features": [{"type": "Feature", "geometry": {"type": "LineString", "coordinates": [[9.996519, 59.9681067], [9.9966364, 59.9682466], [9.9967805, 59.9684479], [9.9968357, 59.9685123], [9.9969067, 59.9685886], [9.9969499, 59.9686292], [9.9970566, 59.9687231], [9.9975383, 59.9691754], [9.9977919, 59.9693961], [9.9986101, 59.9700429], [9.9988728, 59.9702395], [9.9989564, 59.9702985], [9.9996859, 59.9707493]]}, "properties": {"electrified": "no", "gauge": "1435", "name": "Kr\u00f8derbanen", "passenger_lines": "1", "railway": "rail", "length_km": 0.345}}, {"type": "Feature", "geometry": {"type": "LineString", "coordinates": [[9.8096688, 60.1053032], [9.8091628, 60.1057649]]}, "properties": {"electrified": "no", "gauge": "1435", "name": "Kr\u00f8derbanen", "passenger_lines": "1", "railway": "rail", "tunnel": "yes", "usage": "tourism", "length_km": 0.059}}, {"type": "Feature", "geometry": {"type": "LineString", "coordinates": [[9.8091628, 60.1057649], [9.8087385, 60.1061346], [9.8083456, 60.1064792], [9.8063093, 60.1083015], [9.8060511, 60.1085268], [9.8025425, 60.1116562], [9.802299, 60.1118725], [9.8020659, 60.1120553], [9.8019456, 60.112137], [9.8018045, 60.1122226], [9.80166, 60.1123034], [9.8015034, 60.1123801], [9.8013318, 60.1124568], [9.8009937, 60.1125888], [9.8005403, 60.1127421], [9.8001283, 60.1128957], [9.7999629, 60.1129682], [9.7998143, 60.113041], [9.7996776, 60.1131153], [9.7995424, 60.1131966], [9.7994298, 60.1132708], [9.7993108, 60.1133633], [9.7991852, 60.1134649], [9.799102, 60.1135457], [9.7990159, 60.1136372], [9.7989269, 60.1137437], [9.7986405, 60.1141091], [9.7985497, 60.1142143], [9.7984461, 60.1143204], [9.798329, 60.1144242], [9.7982137, 60.1145164], [9.7980838, 60.1146051], [9.7979394, 60.1146948], [9.7977968, 60.1147737], [9.7976535, 60.1148452], [9.7974846, 60.1149215], [9.797323, 60.1149868], [9.7971671, 60.1150427], [9.7967418, 60.1151758], [9.7961076, 60.1153614], [9.7959053, 60.1154254], [9.7955591, 60.1155513], [9.7952542, 60.115684], [9.7950894, 60.1157657], [9.7949507, 60.1158404], [9.7948285, 60.115913], [9.7945854, 60.116075], [9.794433, 60.116194], [9.7943253, 60.116288], [9.7941304, 60.1164958], [9.7937661, 60.116953], [9.7935462, 60.1171757], [9.7933685, 60.1173153], [9.7932687, 60.1173862], [9.7930747, 60.1175096], [9.7929241, 60.1175933], [9.7927155, 60.117696], [9.7924263, 60.117821], [9.7917802, 60.1180765], [9.7914653, 60.1182083], [9.791287, 60.1182923], [9.791101, 60.1183867], [9.7909149, 60.1184893], [9.7908435, 60.1185345], [9.790504, 60.1187555], [9.7902779, 60.1189135], [9.7900452, 60.119065], [9.7898867, 60.1191544], [9.7895813, 60.119312], [9.7892218, 60.1194699], [9.7889955, 60.1195567], [9.7886588, 60.1196752], [9.7877515, 60.119982], [9.7874861, 60.1200788], [9.7872015, 60.1202037], [9.7870677, 60.120275], [9.786886, 60.1203828], [9.7867298, 60.1204936], [9.786644, 60.1205628], [9.786524, 60.120672], [9.7863908, 60.1208269], [9.7862967, 60.1209715], [9.7862603, 60.1210383], [9.7862272, 60.1211223], [9.7861821, 60.1212841], [9.7861702, 60.1214237], [9.7861714, 60.1214964], [9.7862096, 60.1217513], [9.7862578, 60.1220037], [9.786269, 60.1221581], [9.7862553, 60.1223054], [9.7862153, 60.1224626], [9.7861335, 60.1226335], [9.7860441, 60.1227704], [9.7859897, 60.1228381], [9.7859237, 60.1229068], [9.7857846, 60.123036], [9.7856993, 60.1231036], [9.7855954, 60.1231763], [9.7853837, 60.1233031], [9.7848741, 60.1235592], [9.7841171, 60.1239255]]}, "properties": {"electrified": "no", "gauge": "1435", "name": "Kr\u00f8derbanen", "passenger_lines": "1", "railway": "rail", "usage": "tourism", "length_km": 2.53}}, {"type": "Feature", "geometry": {"type": "LineString", "coordinates": [[9.8761166, 60.0249915], [9.8760145, 60.0250706], [9.8759029, 60.0251549], [9.8758394, 60.0252014], [9.8756372, 60.0253292], [9.8754476, 60.0254349], [9.8753241, 60.0254953], [9.8751918, 60.0255591], [9.8749588, 60.0256584], [9.8747151, 60.0257532], [9.8745215, 60.0258208], [9.8744395, 60.0258474], [9.8742984, 60.0258921], [9.8740252, 60.0259706], [9.873752, 60.0260415], [9.8729771, 60.0262276], [9.8723864, 60.0263778], [9.8720753, 60.0264658], [9.8716386, 60.0266], [9.8713729, 60.0266884], [9.8710674, 60.0267959], [9.8705222, 60.0270105], [9.8701388, 60.0271774], [9.8698642, 60.0273049], [9.8693557, 60.0275667], [9.8689592, 60.0277947], [9.8687917, 60.0279003], [9.8683939, 60.0281693], [9.8679557, 60.0285088], [9.8676255, 60.028811], [9.8674103, 60.0290338], [9.8672268, 60.0292424], [9.8671151, 60.0293836], [9.8669974, 60.0295444], [9.8667866, 60.0298606], [9.8665071, 60.0303513], [9.8663272, 60.0307166], [9.8662558, 60.030876], [9.8661269, 60.0311979], [9.8660179, 60.0314934], [9.8659228, 60.0318028], [9.8658398, 60.0321289], [9.8657788, 60.0324328], [9.8657315, 60.0327454], [9.8657015, 60.0330877], [9.8656849, 60.0334456], [9.8656907, 60.0337153], [9.8657215, 60.0339477], [9.8657805, 60.0341845], [9.865841, 60.0343428], [9.8659103, 60.0344965], [9.8659626, 60.0345943], [9.8660685, 60.0347605], [9.8662127, 60.0349541], [9.8663278, 60.0350922], [9.8668232, 60.0356539], [9.8669288, 60.035795], [9.8669927, 60.0358959], [9.8670568, 60.0360162], [9.8671, 60.0361275], [9.867126, 60.0362163], [9.8671469, 60.03631], [9.8671623, 60.0364928], [9.8671538, 60.0366338], [9.8671164, 60.0368013], [9.867072, 60.0369247], [9.8670168, 60.0370431], [9.866883, 60.0372542], [9.8666265, 60.0375881], [9.8664955, 60.037794], [9.8664482, 60.037881], [9.8663187, 60.0382145], [9.8662493, 60.0384704], [9.8662113, 60.0386917], [9.8662078, 60.0387651], [9.8662072, 60.0389306], [9.8662196, 60.0390212], [9.8662685, 60.0392802], [9.8663153, 60.0394288], [9.866375, 60.0395828], [9.8664202, 60.0396777], [9.8665359, 60.0398852], [9.866706, 60.0401237], [9.8668808, 60.0403263], [9.8670537, 60.0404981], [9.8673098, 60.0407166], [9.8675091, 60.0408664], [9.8682859, 60.0414042], [9.8685033, 60.0415741], [9.8686879, 60.041745], [9.8687789, 60.0418401], [9.8689161, 60.0420064], [9.869026, 60.0421677], [9.8690898, 60.0422832], [9.8691371, 60.0423826], [9.8691854, 60.042507], [9.8692213, 60.0426248], [9.869262, 60.0428385], [9.8692694, 60.0429443], [9.8692702, 60.0430485], [9.8692535, 60.0432252], [9.8692399, 60.0432963], [9.8691846, 60.0434886], [9.8691604, 60.0435521], [9.8690819, 60.0437129], [9.8690225, 60.0438233], [9.8689301, 60.043963], [9.8687776, 60.0441516], [9.8686075, 60.0443236], [9.868462, 60.0444506], [9.8683279, 60.0445561], [9.8679017, 60.0448595], [9.8677889, 60.0449417], [9.8676196, 60.0450752], [9.867424, 60.0452569], [9.8672907, 60.0454239], [9.8672227, 60.0455425], [9.8671948, 60.0456056], [9.8671551, 60.0457378], [9.8671212, 60.0459908], [9.8671035, 60.046233], [9.8670921, 60.0463068], [9.86706, 60.0464315], [9.867005, 60.0465644], [9.8669321, 60.0466937], [9.8668551, 60.0467973], [9.8667474, 60.0469176], [9.8665949, 60.0470507], [9.8664044, 60.0471892], [9.8662836, 60.047263], [9.8660709, 60.0473771], [9.8658451, 60.0474746], [9.8656673, 60.0475435], [9.8653947, 60.0476385], [9.8649986, 60.047769], [9.8646574, 60.0478963], [9.8645017, 60.0479616], [9.8643522, 60.0480353], [9.864098, 60.0481823], [9.8639063, 60.0483197], [9.8638149, 60.0483974], [9.8637333, 60.048477], [9.8636075, 60.0486225], [9.8635627, 60.048688], [9.8634761, 60.0488423], [9.8634403, 60.0489432], [9.8634142, 60.0490393], [9.863402, 60.0491147], [9.8633959, 60.0492577], [9.8634032, 60.0493402], [9.8634595, 60.0495355], [9.8636793, 60.0500439], [9.8637008, 60.0501262], [9.8637247, 60.0503048], [9.8637191, 60.0504277], [9.8637086, 60.050486], [9.8636567, 60.0506503], [9.8635929, 60.0507851], [9.8632874, 60.0512859], [9.8631853, 60.0514814], [9.8631464, 60.0515793], [9.8630993, 60.0517445], [9.8630833, 60.0518399], [9.8630702, 60.0521369], [9.8630472, 60.052376], [9.863003, 60.0525455], [9.8628133, 60.0530055], [9.8627657, 60.0531485], [9.8627294, 60.0532797], [9.8627044, 60.0534436], [9.8627024, 60.0536479], [9.8627265, 60.0538287], [9.8627471, 60.0539232], [9.862815, 60.0541494], [9.8628755, 60.0543186], [9.8629438, 60.0545176], [9.8629765, 60.0546631], [9.8629818, 60.0548153]]}, "properties": {"electrified": "no", "gauge": "1435", "name": "Kr\u00f8derbanen", "passenger_lines": "1", "railway": "rail", "usage": "tourism", "length_km": 3.738}}, {"type": "Feature", "geometry": {"type": "LineString", "coordinates": [[10.001664, 59.9722577], [10.0017122, 59.9723065], [10.0017497, 59.9723471]]}, "properties": {"bridge": "yes", "electrified": "no", "gauge": "1435", "name": "Kr\u00f8derbanen", "passenger_lines": "1", "railway": "rail", "usage": "tourism", "length_km": 0.011}}, {"type": "Feature", "geometry": {"type": "LineString", "coordinates": [[9.9873574, 59.9704924], [9.9868901, 59.9705924]]}, "properties": {"bridge": "yes", "electrified": "no", "gauge": "1435", "name": "Kr\u00f8derbanen", "passenger_lines": "1", "railway": "rail", "usage": "tourism", "length_km": 0.028}}, {"type": "Feature", "geometry": {"type": "LineString", "coordinates": [[10.0017497, 59.9723471], [10.0018082, 59.9724161], [10.0018628, 59.972489], [10.0019562, 59.9726418], [10.0020248, 59.9727893], [10.0020522, 59.9728652], [10.0020717, 59.9729473], [10.0020923, 59.9730775], [10.0020963, 59.9732154], [10.0020766, 59.9733647], [10.0020378, 59.9735081], [10.0019819, 59.973639], [10.0019048, 59.9737788], [10.0018037, 59.9739199], [10.0016957, 59.9740418], [10.0015363, 59.9741917], [10.0013142, 59.9743589], [10.0010543, 59.9745203], [10.0007177, 59.9746835], [10.000542, 59.974755], [10.0001689, 59.9748824], [10.0000534, 59.9749159], [9.9997782, 59.9749848], [9.9994668, 59.9750489], [9.9991267, 59.975102], [9.9987765, 59.9751409], [9.9986504, 59.975152], [9.9984724, 59.9751623], [9.9981223, 59.9751723], [9.9977406, 59.975164], [9.9974506, 59.9751442], [9.9972193, 59.9751203], [9.9969938, 59.9750899], [9.9967448, 59.975046], [9.9965034, 59.9749959], [9.9962016, 59.9749204], [9.9958978, 59.9748252], [9.9957217, 59.9747605], [9.9955635, 59.9746968], [9.9952533, 59.9745492], [9.9951409, 59.9744883], [9.9949245, 59.9743503], [9.9947766, 59.9742393], [9.994631, 59.9741101], [9.9945243, 59.974001], [9.9943986, 59.9738462], [9.9942913, 59.9736562], [9.9942359, 59.9735188], [9.9942082, 59.9734177], [9.9941832, 59.9732669], [9.9941715, 59.972953], [9.9941523, 59.9727196], [9.9941181, 59.9725506], [9.9940715, 59.9724121], [9.9940117, 59.9722766], [9.9938868, 59.9720661], [9.9937833, 59.9719323], [9.9936065, 59.9717393], [9.9934197, 59.9715695], [9.9931707, 59.9713816], [9.9930103, 59.9712787], [9.9927298, 59.971119], [9.9924725, 59.9709967], [9.9922957, 59.970919], [9.9920114, 59.9708104], [9.9917197, 59.9707134], [9.9914153, 59.9706267], [9.9910997, 59.9705512], [9.9908162, 59.9704939], [9.9905375, 59.9704471], [9.9902024, 59.9704029], [9.9898492, 59.9703674], [9.9895479, 59.9703481], [9.9892334, 59.9703397], [9.9888576, 59.9703409], [9.9885037, 59.9703545], [9.9881687, 59.9703793], [9.9879341, 59.9704041], [9.9877422, 59.9704287], [9.9875629, 59.9704566], [9.9873574, 59.9704924]]}, "properties": {"electrified": "no", "gauge": "1435", "name": "Kr\u00f8derbanen", "passenger_lines": "1", "railway": "rail", "usage": "tourism", "length_km": 1.368}}, {"type": "Feature", "geometry": {"type": "LineString", "coordinates": [[9.7840277, 60.1239692], [9.7834698, 60.124241], [9.7831666, 60.1243943], [9.7830388, 60.124463], [9.7829427, 60.124516], [9.7827293, 60.1246428], [9.7824501, 60.1248306], [9.7822882, 60.1249488], [9.7821404, 60.1250672], [9.7819393, 60.1252475], [9.7817804, 60.1254077], [9.7809052, 60.1264106], [9.7805183, 60.1268677], [9.7798975, 60.127576], [9.7795825, 60.1279414]]}, "properties": {"electrified": "no", "gauge": "1435", "name": "Kr\u00f8derbanen", "passenger_lines": "1", "railway": "rail", "usage": "tourism", "length_km": 0.513}}, {"type": "Feature", "geometry": {"type": "LineString", "coordinates": [[9.7841171, 60.1239255], [9.7840277, 60.1239692]]}, "properties": {"bridge": "yes", "electrified": "no", "gauge": "1435", "name": "Kr\u00f8derbanen", "passenger_lines": "1", "railway": "rail", "usage": "tourism", "length_km": 0.007}}, {"type": "Feature", "geometry": {"type": "LineString", "coordinates": [[9.9868901, 59.9705924], [9.9865787, 59.9706739], [9.9862971, 59.970759], [9.9858947, 59.9709066], [9.9856456, 59.9710126], [9.9854083, 59.9711246], [9.9850877, 59.9713015], [9.9848436, 59.9714705], [9.984682, 59.9716028], [9.9845754, 59.9717018], [9.9844155, 59.9718724], [9.9843422, 59.9719599], [9.9842409, 59.972098], [9.9841605, 59.9722312], [9.984097, 59.972355], [9.9839849, 59.9726422], [9.9826447, 59.9766581], [9.9824204, 59.9773221], [9.9823012, 59.9776582], [9.982199, 59.9778806], [9.98211, 59.9780226], [9.9819948, 59.9781746], [9.9819206, 59.9782561], [9.9817905, 59.9783796], [9.981647, 59.9784951], [9.9814173, 59.9786519], [9.9812946, 59.978726], [9.9811516, 59.9788039], [9.9809056, 59.9789206], [9.9807032, 59.9790066], [9.9805919, 59.9790487], [9.9803757, 59.979123], [9.980114, 59.9792003], [9.9799748, 59.9792373], [9.9797394, 59.9792922], [9.979451, 59.9793492], [9.9792579, 59.9793809], [9.9790161, 59.9794109], [9.9787746, 59.9794346], [9.9784011, 59.979456], [9.9781847, 59.9794598], [9.9779198, 59.9794576], [9.9774529, 59.9794354], [9.9764516, 59.9793596], [9.9760501, 59.9793383], [9.9756646, 59.9793306], [9.9752406, 59.9793396], [9.974775, 59.97937], [9.9745705, 59.979391], [9.9743065, 59.9794265], [9.9739892, 59.9794759], [9.9737067, 59.979533], [9.9733865, 59.9796066], [9.9731336, 59.9796723], [9.9729243, 59.9797337], [9.9727824, 59.9797798], [9.9724921, 59.9798834], [9.9723117, 59.9799585], [9.9719862, 59.9801135], [9.9718287, 59.9801996], [9.9716099, 59.9803307], [9.9711158, 59.9806398], [9.9696495, 59.9815735], [9.9672743, 59.9830833], [9.9669967, 59.9832487], [9.9666755, 59.9834249], [9.9663924, 59.9835695], [9.9662411, 59.9836416], [9.965911, 59.983795], [9.9657466, 59.9838661], [9.9652824, 59.9840541], [9.9651069, 59.9841205], [9.9647892, 59.9842318], [9.964286, 59.9843942], [9.9640044, 59.9844765], [9.9635125, 59.984613], [9.962907, 59.9847662], [9.9623377, 59.9848974], [9.961775, 59.9850137], [9.961234, 59.9851164], [9.9603932, 59.985254], [9.9596927, 59.9853497], [9.9592702, 59.9854014], [9.9590008, 59.9854303], [9.9583183, 59.9854926], [9.9580499, 59.9855134], [9.9577301, 59.9855347]]}, "properties": {"electrified": "no", "gauge": "1435", "name": "Kr\u00f8derbanen", "passenger_lines": "1", "railway": "rail", "usage": "tourism", "length_km": 2.598}}, {"type": "Feature", "geometry": {"type": "LineString", "coordinates": [[9.8629818, 60.0548153], [9.8629813, 60.0548603], [9.862954, 60.0550097], [9.862922, 60.0551065], [9.8628514, 60.0552508], [9.8627694, 60.0553758], [9.8627056, 60.0554556], [9.8626166, 60.0555496], [9.8625401, 60.0556185], [9.8623164, 60.0557933], [9.8620979, 60.055941], [9.8616925, 60.0561996], [9.8613579, 60.0564351], [9.8612006, 60.0565527], [9.8610637, 60.0566605], [9.8608458, 60.0568467], [9.8605843, 60.0570883], [9.8602718, 60.0574143], [9.860189, 60.0575099], [9.8600236, 60.0577239], [9.8599394, 60.057843], [9.8598775, 60.0579408], [9.8597633, 60.0581513], [9.8596933, 60.0583524], [9.8596729, 60.0584451], [9.8596596, 60.0586395], [9.8596833, 60.0588228], [9.8597144, 60.0589486], [9.8597686, 60.0590922], [9.859862, 60.059267], [9.8600799, 60.0596173], [9.8602163, 60.0598498], [9.8602663, 60.0599414], [9.860354, 60.0601441], [9.8603975, 60.0603498], [9.8604117, 60.0605528], [9.8603921, 60.0609244], [9.860394, 60.0611465], [9.8604361, 60.0614355], [9.8604612, 60.061543], [9.8604947, 60.0616476], [9.8605647, 60.0618201], [9.8606221, 60.0619354], [9.8607369, 60.0621346], [9.8620201, 60.0642443], [9.8620921, 60.0643957], [9.8621393, 60.0645444], [9.8621564, 60.0646355], [9.8621587, 60.0646978], [9.8621594, 60.0648011], [9.8621459, 60.0648872], [9.8621272, 60.0649682], [9.8620957, 60.0650578], [9.8620269, 60.0651932], [9.8619822, 60.0652665], [9.8619169, 60.06535], [9.8617913, 60.0654892], [9.8616371, 60.0656231], [9.8615373, 60.0656963], [9.8609715, 60.0660527], [9.8607665, 60.0661946], [9.8605813, 60.0663535], [9.8604476, 60.0664998], [9.8603929, 60.066572], [9.8603122, 60.0666994], [9.8601823, 60.0669404], [9.8594234, 60.0684113], [9.8593126, 60.0685951], [9.8592397, 60.068698], [9.8591384, 60.0688117], [9.8590005, 60.0689362], [9.8589056, 60.069011], [9.8588021, 60.0690828], [9.8586003, 60.0692045], [9.8583585, 60.0693228], [9.8577839, 60.0695772], [9.8576526, 60.0696433], [9.8574104, 60.0697866], [9.857249, 60.0699031], [9.8570986, 60.0700354], [9.8569624, 60.0701873], [9.8568854, 60.0702942], [9.8568311, 60.0703954], [9.8567684, 60.0705635], [9.8567506, 60.0706451], [9.856744, 60.0708288], [9.8567736, 60.0710071], [9.8568237, 60.0712042], [9.8571415, 60.0722704], [9.8571744, 60.0724218], [9.8571909, 60.072614], [9.8571663, 60.072809], [9.8571227, 60.0729649], [9.8570392, 60.0731477], [9.8568812, 60.073424], [9.8567867, 60.0736156], [9.8567372, 60.0737605], [9.8567093, 60.0738692], [9.8566916, 60.0739689], [9.8566909, 60.0740194], [9.8566945, 60.074199], [9.8567103, 60.0742999], [9.856733, 60.0743933], [9.8567662, 60.0744912], [9.8568175, 60.0746104], [9.8568465, 60.0746684], [9.8569482, 60.0748225], [9.857061, 60.07497], [9.8571919, 60.0751144], [9.8574243, 60.0753425], [9.8575359, 60.075441], [9.8576063, 60.0754989], [9.8579077, 60.0757244], [9.8581779, 60.0759086], [9.8590101, 60.0764601], [9.8592242, 60.0766229], [9.8594022, 60.0767912], [9.8594721, 60.0768675], [9.8595374, 60.0769457], [9.859617, 60.0770599], [9.8596675, 60.0771455], [9.8597415, 60.0773001], [9.8597945, 60.0774667], [9.8598159, 60.0775767], [9.8598246, 60.0777038], [9.8598228, 60.077823], [9.8597945, 60.077998], [9.8597256, 60.078201], [9.8596215, 60.0783891], [9.8595667, 60.078469], [9.859461, 60.0786002], [9.8593136, 60.0787462], [9.8591243, 60.0789023], [9.8589129, 60.0790519], [9.858617, 60.0792201], [9.8584213, 60.0793117], [9.8581935, 60.0794069], [9.8581002, 60.0794407], [9.8578959, 60.0795106], [9.8576737, 60.0795792], [9.8574358, 60.0796407], [9.8571143, 60.0797104], [9.8567793, 60.0797668], [9.8564103, 60.0798137], [9.8561056, 60.0798398], [9.8558742, 60.079852], [9.8556164, 60.0798567], [9.8546262, 60.0798535], [9.8544295, 60.0798552], [9.8542611, 60.0798614], [9.8539889, 60.0798741], [9.8538275, 60.0798865], [9.853592, 60.0799072], [9.8531505, 60.0799579], [9.8528718, 60.080003], [9.8525848, 60.0800565], [9.8524055, 60.0800953], [9.8521356, 60.0801602], [9.8519434, 60.0802114], [9.8516401, 60.0803018], [9.8515019, 60.0803476], [9.8512579, 60.0804372], [9.8510443, 60.0805229], [9.850797, 60.0806337], [9.8505086, 60.0807791], [9.8497996, 60.0811657], [9.8494978, 60.0813302], [9.8462618, 60.0831075], [9.8450747, 60.0837552], [9.8420611, 60.0854035], [9.8385837, 60.0873133], [9.8375116, 60.0878958], [9.8363349, 60.0885417]]}, "properties": {"electrified": "no", "gauge": "1435", "name": "Kr\u00f8derbanen", "passenger_lines": "1", "railway": "rail", "usage": "tourism", "length_km": 4.607}}, {"type": "Feature", "geometry": {"type": "LineString", "coordinates": [[9.8766368, 60.0231953], [9.8766397, 60.023259], [9.8766476, 60.0235274], [9.8766566, 60.0237154], [9.876655, 60.0239791], [9.8766399, 60.0241325], [9.8766094, 60.0242608], [9.87658, 60.0243385], [9.8765314, 60.0244456], [9.8764624, 60.0245706], [9.8763637, 60.0247142], [9.876166, 60.0249385], [9.8761166, 60.0249915]]}, "properties": {"electrified": "no", "gauge": "1435", "name": "Kr\u00f8derbanen", "passenger_lines": "2", "railway": "rail", "usage": "tourism", "length_km": 0.205}}, {"type": "Feature", "geometry": {"type": "LineString", "coordinates": [[9.8940535, 60.0086049], [9.893955, 60.0086201]]}, "properties": {"bridge": "yes", "electrified": "no", "gauge": "1435", "name": "Kr\u00f8derbanen", "passenger_lines": "1", "railway": "rail", "usage": "tourism", "length_km": 0.006}}, {"type": "Feature", "geometry": {"type": "LineString", "coordinates": [[9.9140534, 59.9943984], [9.9137909, 59.9945061], [9.913209, 59.9947607], [9.9128756, 59.9948957], [9.9125531, 59.9950081], [9.9122109, 59.9951124], [9.9117796, 59.9952224], [9.9113387, 59.995314], [9.9105053, 59.9954551], [9.9100204, 59.9955443], [9.9097988, 59.9955935], [9.9094902, 59.9956709], [9.9092213, 59.9957475], [9.908973, 59.9958276], [9.9087856, 59.9958973], [9.9085162, 59.9960074], [9.9083042, 59.9961022], [9.9080657, 59.9962239], [9.9078533, 59.9963428], [9.9075981, 59.9965049], [9.9074225, 59.9966313], [9.9072454, 59.9967694], [9.9069831, 59.9970008], [9.9067759, 59.9972108], [9.9066128, 59.9973893], [9.9064906, 59.9975372], [9.9063268, 59.9977546], [9.9062183, 59.9979238], [9.9060742, 59.9982018], [9.9059902, 59.9984267], [9.9059435, 59.9986055], [9.9059194, 59.9987601], [9.9059087, 59.9988825], [9.9059065, 59.9990324], [9.9059499, 59.9996164], [9.9059427, 59.9997911], [9.9059142, 59.9999277], [9.9058929, 59.9999955], [9.9058461, 60.0001004], [9.9057421, 60.0002593], [9.905598, 60.0004233], [9.9054569, 60.0005504], [9.9052763, 60.0006847], [9.9050754, 60.0008012], [9.9049217, 60.0008822], [9.9046831, 60.0009853], [9.9045588, 60.0010334], [9.9044609, 60.0010687], [9.9043477, 60.0011035], [9.904095, 60.0011762], [9.9038211, 60.0012421], [9.9037744, 60.0012514], [9.903583, 60.0012877], [9.9027016, 60.0014364], [9.902429, 60.0014928], [9.902316, 60.0015191], [9.9020526, 60.0015904], [9.9017958, 60.0016753], [9.9015819, 60.0017617], [9.9013301, 60.0018825], [9.9012481, 60.001927], [9.9010281, 60.0020673], [9.9008691, 60.0021932], [9.900778, 60.0022763], [9.90067, 60.0023899], [9.900618, 60.0024556], [9.9005146, 60.0025999], [9.9004534, 60.0026997], [9.9000704, 60.0034646], [9.8999696, 60.0036461], [9.8998384, 60.0038536], [9.8995977, 60.0041881], [9.8995799, 60.0042129], [9.8991626, 60.0047093], [9.8989469, 60.0049814], [9.8988092, 60.00518], [9.8987529, 60.0052736], [9.8986561, 60.0054712], [9.8986092, 60.0056048], [9.8984778, 60.0061384], [9.8983939, 60.0064014], [9.8983226, 60.0065505], [9.8982046, 60.0067503], [9.8980767, 60.0069211], [9.8979157, 60.0070984], [9.8977318, 60.0072687], [9.8975132, 60.0074429], [9.8973931, 60.0075274], [9.8971497, 60.0076812], [9.896728, 60.0079022], [9.8963946, 60.0080461], [9.8962474, 60.0081024], [9.8960906, 60.0081595], [9.8958327, 60.0082443], [9.8954375, 60.008353], [9.8950325, 60.0084442], [9.8949735, 60.0084551], [9.8947343, 60.0084993], [9.8944022, 60.0085526], [9.8940535, 60.0086049]]}, "properties": {"electrified": "no", "gauge": "1435", "name": "Kr\u00f8derbanen", "passenger_lines": "1", "railway": "rail", "usage": "tourism", "length_km": 2.092}}, {"type": "Feature", "geometry": {"type": "LineString", "coordinates": [[9.9962616, 59.9678405], [9.9963976, 59.9679777], [9.9965055, 59.9680946], [9.996519, 59.9681067]]}, "properties": {"electrified": "contact_line", "frequency": "16.67", "gauge": "1435", "name": "Kr\u00f8derbanen", "passenger_lines": "1", "railway": "rail", "usage": "tourism", "voltage": "15000", "length_km": 0.033}}, {"type": "Feature", "geometry": {"type": "LineString", "coordinates": [[9.9183007, 59.9943535], [9.9178822, 59.9942395], [9.9174839, 59.994159], [9.917209, 59.9941147], [9.9168965, 59.9940765], [9.9166162, 59.9940564], [9.9164432, 59.994049], [9.9162327, 59.9940443], [9.9160925, 59.9940436], [9.9159645, 59.9940483], [9.9158129, 59.994056], [9.9156634, 59.9940681], [9.9154582, 59.9940933], [9.915259, 59.9941234], [9.9147856, 59.9942126], [9.9144678, 59.9942858], [9.914337, 59.9943176], [9.9140534, 59.9943984]]}, "properties": {"electrified": "no", "gauge": "1435", "name": "Kr\u00f8derbanen", "passenger_lines": "1", "railway": "rail", "ref": "1", "service": "siding", "length_km": 0.251}}, {"type": "Feature", "geometry": {"type": "LineString", "coordinates": [[9.9577301, 59.9855347], [9.9575451, 59.985545], [9.9570883, 59.9855664], [9.9567073, 59.9855793], [9.9561988, 59.9855902], [9.9559614, 59.9855908], [9.9554877, 59.9855899], [9.9548376, 59.9855681], [9.9542932, 59.9855348], [9.9537429, 59.9854866], [9.953188, 59.9854234], [9.9526626, 59.9853505], [9.9512926, 59.9851229], [9.9509852, 59.9850822], [9.9505661, 59.9850418], [9.9501535, 59.985021], [9.9498847, 59.9850154], [9.9495948, 59.9850182], [9.9492948, 59.9850303], [9.9491593, 59.9850379], [9.9489019, 59.9850594], [9.9486262, 59.9850889], [9.9484441, 59.9851141], [9.9480968, 59.9851709], [9.9478778, 59.985214], [9.9474808, 59.9853066], [9.947088, 59.9854175], [9.9467299, 59.9855405], [9.9465973, 59.9855921], [9.9464557, 59.9856533], [9.9461874, 59.9857844], [9.9460371, 59.9858695], [9.9457913, 59.9860278], [9.9456699, 59.9861224], [9.9455423, 59.9862343], [9.9454466, 59.9863283], [9.9452751, 59.9865311], [9.9452024, 59.986627], [9.944925, 59.9870262], [9.944809, 59.987179], [9.9446895, 59.9873218], [9.9446448, 59.9873706], [9.9445636, 59.9874582], [9.9445047, 59.9875214], [9.9443687, 59.9876468], [9.9442056, 59.9877815], [9.9440461, 59.9879], [9.9436507, 59.9881626], [9.9412393, 59.9896603], [9.9409148, 59.9898647], [9.9405101, 59.9901366], [9.9401529, 59.9903982], [9.9400034, 59.9905157], [9.93971, 59.9907595], [9.9394449, 59.99101], [9.9391645, 59.991299], [9.938999, 59.991488], [9.9387634, 59.9917814], [9.9385632, 59.9920672], [9.9383981, 59.9923343], [9.9382788, 59.9925534], [9.9380494, 59.9930286], [9.9368328, 59.995617], [9.9366759, 59.9959014], [9.9365332, 59.9961107], [9.9364514, 59.9962154], [9.9362575, 59.9964233], [9.9360491, 59.9966087], [9.9357957, 59.9968025], [9.9354488, 59.9970258], [9.9352566, 59.997132], [9.9350026, 59.997262], [9.9348124, 59.997351], [9.9345199, 59.9974687], [9.9341825, 59.9975914], [9.9337538, 59.9977229], [9.9335434, 59.9977775], [9.9333847, 59.9978187], [9.9327941, 59.9979445], [9.9321575, 59.9980375], [9.9317016, 59.9980812], [9.9313338, 59.9981051], [9.9308814, 59.9981194], [9.9307381, 59.9981211], [9.9304771, 59.9981164], [9.930157, 59.9981073], [9.9295122, 59.9980568], [9.929196, 59.9980203], [9.9288804, 59.9979729], [9.9286815, 59.9979401], [9.9282081, 59.9978452], [9.9277005, 59.9977169], [9.9274258, 59.9976374], [9.9272064, 59.997568], [9.9253156, 59.9969568], [9.9229515, 59.9961926], [9.9226239, 59.9960854], [9.9208008, 59.995489], [9.9205207, 59.9953897], [9.9202455, 59.9952856], [9.9199471, 59.9951602], [9.919543, 59.9949662], [9.91886, 59.9946051], [9.9185984, 59.994479], [9.9183968, 59.9943898], [9.9183007, 59.9943535]]}, "properties": {"electrified": "no", "gauge": "1435", "name": "Kr\u00f8derbanen", "passenger_lines": "1", "railway": "rail", "usage": "tourism", "length_km": 3.21}}, {"type": "Feature", "geometry": {"type": "LineString", "coordinates": [[9.9183007, 59.9943535], [9.918035, 59.9942612], [9.9178664, 59.9942096], [9.917675, 59.9941603], [9.9175416, 59.9941287], [9.9173504, 59.9940907], [9.9170815, 59.9940478], [9.9167659, 59.9940165], [9.9166427, 59.9940078], [9.9164528, 59.9940034], [9.9162638, 59.9940002], [9.9161308, 59.9940029], [9.9157737, 59.9940232], [9.9155265, 59.9940483], [9.9152245, 59.9940913], [9.9151078, 59.9941118], [9.9148253, 59.9941702], [9.9145611, 59.9942344], [9.9144096, 59.9942784], [9.9142653, 59.994323], [9.9141366, 59.9943667], [9.9140534, 59.9943984]]}, "properties": {"electrified": "no", "gauge": "1435", "name": "Kr\u00f8derbanen", "passenger_lines": "1", "railway": "rail", "ref": "2", "usage": "tourism", "length_km": 0.256}}, {"type": "Feature", "geometry": {"type": "LineString", "coordinates": [[9.9996859, 59.9707493], [9.9999674, 59.9709326], [10.0002032, 59.9710949], [10.0003434, 59.9711985], [10.0014669, 59.9720869], [10.001664, 59.9722577]]}, "properties": {"electrified": "no", "gauge": "1435", "name": "Kr\u00f8derbanen", "passenger_lines": "1", "railway": "rail", "usage": "tourism", "length_km": 0.201}}, {"type": "Feature", "geometry": {"type": "LineString", "coordinates": [[9.8363349, 60.0885417], [9.8352793, 60.0891208], [9.8350711, 60.0892377], [9.8348037, 60.0893843], [9.8347734, 60.0893995], [9.8339431, 60.0898476]]}, "properties": {"electrified": "no", "gauge": "1435", "name": "Kr\u00f8derbanen", "passenger_lines": "1", "railway": "rail", "usage": "tourism", "length_km": 0.197}}, {"type": "Feature", "geometry": {"type": "LineString", "coordinates": [[9.8339431, 60.0898476], [9.8304144, 60.0917826], [9.8198497, 60.0975768], [9.8195949, 60.0977091], [9.8194298, 60.0977967], [9.8190267, 60.0979943], [9.8185744, 60.0982012], [9.8181837, 60.0983595], [9.8179758, 60.0984373], [9.8175691, 60.0985848], [9.8167138, 60.0988827], [9.8163703, 60.0990181], [9.8162277, 60.0990823], [9.815978, 60.0992106], [9.8157406, 60.0993542], [9.8156291, 60.0994273], [9.8154925, 60.0995312], [9.8153747, 60.0996326], [9.8152706, 60.0997458], [9.8151733, 60.0998682], [9.8150468, 60.1000601], [9.8149748, 60.100198], [9.814881, 60.1004253], [9.8147462, 60.1006775], [9.8146655, 60.1007961], [9.814587, 60.1008929], [9.8143845, 60.1010962], [9.8130652, 60.1022748], [9.8126809, 60.1026111], [9.8117911, 60.1034128], [9.8096688, 60.1053032]]}, "properties": {"electrified": "no", "gauge": "1435", "name": "Kr\u00f8derbanen", "passenger_lines": "1", "railway": "rail", "usage": "tourism", "length_km": 2.217}}, {"type": "Feature", "geometry": {"type": "LineString", "coordinates": [[9.8363349, 60.0885417], [9.8358089, 60.0887814], [9.8352152, 60.0890917], [9.8350077, 60.0892076], [9.8344514, 60.0895148], [9.8339431, 60.0898476]]}, "properties": {"electrified": "no", "gauge": "1435", "name": "Kr\u00f8derbanen", "passenger_lines": "1", "railway": "rail", "service": "siding", "usage": "tourism", "length_km": 0.198}}, {"type": "Feature", "geometry": {"type": "LineString", "coordinates": [[9.7795825, 60.1279414], [9.7792006, 60.1283783], [9.7791458, 60.1284396], [9.7790608, 60.1285287], [9.7789283, 60.1286397], [9.7787546, 60.1287716]]}, "properties": {"electrified": "no", "gauge": "1435", "name": "Kr\u00f8derbanen", "passenger_lines": "1", "railway": "rail", "service": "yard", "usage": "tourism", "length_km": 0.104}}, {"type": "Feature", "geometry": {"type": "LineString", "coordinates": [[9.8766368, 60.0231953], [9.8767083, 60.0234367], [9.8767237, 60.0235548], [9.8767345, 60.0238925], [9.8767345, 60.0240292], [9.876713, 60.0241539], [9.8766366, 60.0243904], [9.8765534, 60.0245532], [9.8764649, 60.0246725], [9.8762892, 60.0248447], [9.8761778, 60.0249395], [9.8761166, 60.0249915]]}, "properties": {"electrified": "no", "gauge": "1435", "name": "Kr\u00f8derbanen", "railway": "rail", "service": "siding", "length_km": 0.207}}, {"type": "Feature", "geometry": {"type": "LineString", "coordinates": [[9.893955, 60.0086201], [9.8933137, 60.0087162], [9.8928865, 60.0087961], [9.8927093, 60.0088361], [9.8922835, 60.0089485], [9.8920699, 60.0090154], [9.8918512, 60.00909], [9.8916204, 60.0091796], [9.8913838, 60.0092845], [9.8911402, 60.0094017], [9.8908084, 60.0095992], [9.8905883, 60.0097508], [9.8903998, 60.0099047], [9.8903062, 60.0099931], [9.8901176, 60.0101959], [9.8900491, 60.0102832], [9.8899632, 60.0104099], [9.8898873, 60.010541], [9.8897967, 60.0107503], [9.8896712, 60.0111099], [9.889602, 60.011277], [9.8895227, 60.0114261], [9.8894599, 60.0115291], [9.8893617, 60.0116549], [9.8892877, 60.0117365], [9.8891784, 60.011842], [9.8890896, 60.0119168], [9.889032, 60.0119654], [9.8889288, 60.0120432], [9.8887612, 60.0121543], [9.8886137, 60.0122449], [9.8884868, 60.0123109], [9.8882144, 60.0124392], [9.8877095, 60.0126326], [9.8872476, 60.012779], [9.8871127, 60.0128254], [9.8868304, 60.0129258], [9.8864544, 60.0130658], [9.8860721, 60.0132236], [9.8857378, 60.0133783], [9.8853733, 60.0135634], [9.8850622, 60.0137439], [9.8848959, 60.0138493], [9.8847144, 60.0139723], [9.884402, 60.0142095], [9.8842306, 60.0143578], [9.8840399, 60.0145384], [9.8836329, 60.0149621], [9.8835744, 60.0150154], [9.8834154, 60.0151484], [9.8833496, 60.0151958], [9.8831937, 60.0152942], [9.8829978, 60.0153948], [9.8828002, 60.0154806], [9.8826921, 60.0155224], [9.8825579, 60.0155689], [9.8817234, 60.0158293], [9.8814704, 60.0159264], [9.8812582, 60.0160209], [9.8811729, 60.0160651], [9.8809584, 60.0161943], [9.8808629, 60.0162625], [9.8807757, 60.0163334], [9.8806316, 60.0164666], [9.8803288, 60.0167912], [9.8801897, 60.0169296], [9.8800562, 60.0170503], [9.8798154, 60.0172357], [9.8795404, 60.0174264], [9.8793051, 60.0175977], [9.8790872, 60.0177758], [9.8790235, 60.017842], [9.8789097, 60.0179811], [9.8788606, 60.0180483], [9.8787635, 60.0182035], [9.8787523, 60.0182298], [9.8787084, 60.0183325], [9.8786906, 60.0183918], [9.8786596, 60.0185408], [9.8786471, 60.0186789], [9.8786518, 60.0187553], [9.8786794, 60.0189296], [9.8787211, 60.0190784], [9.8787649, 60.0192788], [9.8787723, 60.0193731], [9.8787621, 60.0195435], [9.8787368, 60.0196563], [9.8786927, 60.0197731], [9.878606, 60.0199271], [9.8785205, 60.0200382], [9.878466, 60.0200997], [9.8783733, 60.0201902], [9.8782778, 60.0202704], [9.8781503, 60.0203654], [9.8778975, 60.020523], [9.8774033, 60.0208075], [9.8773149, 60.0208634], [9.8771811, 60.0209594], [9.8770534, 60.0210644], [9.8769151, 60.0212069], [9.876824, 60.0213216], [9.8767482, 60.0214401], [9.8767022, 60.021526], [9.876642, 60.0216999], [9.8766217, 60.021827], [9.876612, 60.0219888], [9.876634, 60.0230749], [9.8766368, 60.0231953]]}, "properties": {"electrified": "no", "gauge": "1435", "name": "Kr\u00f8derbanen", "passenger_lines": "1", "railway": "rail", "usage": "tourism", "length_km": 2.005}}]}