{"type": "FeatureCollection", "features": [{"type": "Feature", "geometry": {"type": "LineString", "coordinates": [[5.7458621, 58.9491687], [5.7460325, 58.9489837], [5.7460957, 58.9489101], [5.7463082, 58.9486542], [5.7463579, 58.9486009], [5.746713, 58.9482553], [5.7469969, 58.9480101], [5.7471358, 58.9479076], [5.7472105, 58.9478573], [5.7473657, 58.9477483], [5.74753, 58.9476383], [5.7476478, 58.9475697]]}, "properties": {"electrified": "contact_line", "frequency": "16.67", "gauge": "1435", "name": "Kvalaberg verksted", "railway": "rail", "service": "spur", "voltage": "15000", "length_km": 0.207}}, {"type": "Feature", "geometry": {"type": "LineString", "coordinates": [[5.7501158, 58.9462183], [5.7496537, 58.9464654], [5.74874, 58.946958], [5.7484198, 58.9471388], [5.7480951, 58.9473196]]}, "properties": {"electrified": "contact_line", "frequency": "16.67", "gauge": "1435", "name": "Kvalaberg verksted", "railway": "rail", "service": "spur", "voltage": "15000", "length_km": 0.17}}, {"type": "Feature", "geometry": {"type": "LineString", "coordinates": [[5.7499907, 58.9461542], [5.7495256, 58.9464045], [5.7485936, 58.9469064], [5.7483836, 58.9470424], [5.7482596, 58.9471402], [5.7481027, 58.9472765], [5.7478723, 58.9474389], [5.7477566, 58.9475096]]}, "properties": {"electrified": "contact_line", "frequency": "16.67", "gauge": "1435", "name": "Kvalaberg verksted", "railway": "rail", "service": "spur", "voltage": "15000", "length_km": 0.2}}, {"type": "Feature", "geometry": {"type": "LineString", "coordinates": [[5.7508851, 58.9459038], [5.7497475, 58.946513], [5.7488346, 58.947004], [5.7485206, 58.9471724], [5.7484071, 58.9472271], [5.7482354, 58.9473015], [5.7479954, 58.9474069], [5.7478147, 58.9474856], [5.7476478, 58.9475697]]}, "properties": {"electrified": "contact_line", "frequency": "16.67", "gauge": "1435", "name": "Kvalaberg verksted", "railway": "rail", "service": "spur", "voltage": "15000", "length_km": 0.264}}, {"type": "Feature", "geometry": {"type": "LineString", "coordinates": [[5.7458621, 58.9491687], [5.7453238, 58.9498089], [5.7451858, 58.949973], [5.7451321, 58.9500449], [5.7450204, 58.9502316], [5.7448972, 58.9504051], [5.7447298, 58.9506035], [5.7445831, 58.9507887], [5.7443133, 58.9511684], [5.744114, 58.9515023], [5.743984, 58.9517568], [5.7438957, 58.9519489], [5.7438186, 58.9521696], [5.7437546, 58.9524229], [5.7437233, 58.952645], [5.7437143, 58.9528405], [5.7437186, 58.9530811], [5.7437304, 58.9533175], [5.7437307, 58.9535258], [5.7437237, 58.9537335], [5.7437052, 58.9538564], [5.7436812, 58.9539845], [5.7436354, 58.9541795], [5.743557, 58.9544176], [5.7434576, 58.9546531], [5.743338, 58.9549248], [5.7432508, 58.9550817], [5.7431312, 58.9552622], [5.7430097, 58.9554319], [5.7427126, 58.955863], [5.7424801, 58.9561963], [5.7422426, 58.9565364], [5.7420656, 58.956796], [5.7418939, 58.9570362], [5.7416986, 58.9573207], [5.7415212, 58.9575597], [5.7413105, 58.9578776], [5.7412174, 58.9580195], [5.7411367, 58.9581678], [5.7410206, 58.9584012], [5.7409319, 58.9586289], [5.740896, 58.9587884], [5.7408495, 58.9589967], [5.7408059, 58.9593177]]}, "properties": {"electrified": "contact_line", "frequency": "16.67", "gauge": "1435", "name": "Kvalaberg verksted", "railway": "rail", "service": "spur", "voltage": "15000", "length_km": 1.181}}, {"type": "Feature", "geometry": {"type": "LineString", "coordinates": [[5.7480951, 58.9473196], [5.7477566, 58.9475096], [5.7476478, 58.9475697]]}, "properties": {"electrified": "contact_line", "frequency": "16.67", "gauge": "1435", "name": "Kvalaberg verksted", "railway": "rail", "service": "spur", "voltage": "15000", "length_km": 0.038}}, {"type": "Feature", "geometry": {"type": "LineString", "coordinates": [[5.7500535, 58.9461865], [5.7495886, 58.9464356], [5.7486813, 58.946929], [5.748393, 58.9471257], [5.7483125, 58.9471821], [5.748224, 58.9472412], [5.7480951, 58.9473196]]}, "properties": {"electrified": "contact_line", "frequency": "16.67", "gauge": "1435", "name": "Kvalaberg verksted", "railway": "rail", "service": "spur", "voltage": "15000", "length_km": 0.17}}, {"type": "Feature", "geometry": {"type": "LineString", "coordinates": [[5.7516291, 58.9454024], [5.7513399, 58.9455586], [5.7501962, 58.9461753], [5.7501158, 58.9462183]]}, "properties": {"electrified": "no", "gauge": "1435", "name": "Kvalaberg verksted", "railway": "rail", "service": "spur", "length_km": 0.126}}, {"type": "Feature", "geometry": {"type": "LineString", "coordinates": [[5.7408059, 58.9593177], [5.740736, 58.9598196]]}, "properties": {"electrified": "contact_line", "frequency": "16.67", "gauge": "1435", "maxspeed": "40", "name": "Kvalaberg verksted", "railway": "rail", "service": "spur", "voltage": "15000", "length_km": 0.056, "maxspeed_kmh": 40.0}}, {"type": "Feature", "geometry": {"type": "LineString", "coordinates": [[5.7515704, 58.9455316], [5.7514348, 58.9456054], [5.7509419, 58.9458733], [5.7508851, 58.9459038]]}, "properties": {"electrified": "no", "gauge": "1435", "name": "Kvalaberg verksted", "railway": "rail", "service": "spur", "length_km": 0.057}}, {"type": "Feature", "geometry": {"type": "LineString", "coordinates": [[5.7500535, 58.9461865], [5.7501327, 58.9461441], [5.751277, 58.9455277], [5.7515785, 58.9453635]]}, "properties": {"electrified": "no", "gauge": "1435", "name": "Kvalaberg verksted", "railway": "rail", "service": "spur", "length_km": 0.127}}, {"type": "Feature", "geometry": {"type": "LineString", "coordinates": [[5.7513481, 58.9454241], [5.7512142, 58.9454968], [5.7500683, 58.9461124], [5.7499907, 58.9461542]]}, "properties": {"electrified": "no", "gauge": "1435", "name": "Kvalaberg verksted", "railway": "rail", "service": "spur", "length_km": 0.113}}, {"type": "Feature", "geometry": {"type": "LineString", "coordinates": [[5.740736, 58.9598196], [5.7406949, 58.9600947], [5.7406676, 58.9602207], [5.7406327, 58.9603469], [5.7405543, 58.9605471], [5.7404892, 58.9606771], [5.7404191, 58.9608008], [5.7403197, 58.9609457], [5.7401771, 58.9611235], [5.7400272, 58.9612817], [5.7398221, 58.9614692], [5.7396345, 58.9616169], [5.7394966, 58.9617174], [5.7392747, 58.9618602], [5.7389074, 58.9620728], [5.7383953, 58.9623674], [5.7381795, 58.9624904], [5.7374322, 58.9629169]]}, "properties": {"electrified": "contact_line", "frequency": "16.67", "gauge": "1435", "maxspeed": "40", "name": "Kvalaberg verksted", "railway": "rail", "service": "spur", "voltage": "15000", "length_km": 0.407, "maxspeed_kmh": 40.0}}, {"type": "Feature", "geometry": {"type": "LineString", "coordinates": [[5.7374322, 58.9629169], [5.7373235, 58.9629811], [5.7371847, 58.9630555], [5.7368812, 58.9632098], [5.7365504, 58.9633863], [5.7364143, 58.9634641], [5.7362522, 58.9635695]]}, "properties": {"electrified": "contact_line", "frequency": "16.67", "gauge": "1435", "maxspeed": "40", "name": "Kvalaberg verksted", "railway": "rail", "service": "spur", "voltage": "15000", "length_km": 0.1, "maxspeed_kmh": 40.0}}]}