{"type": "FeatureCollection", "features": [{"type": "Feature", "geometry": {"type": "LineString", "coordinates": [[9.6969094, 61.6641473], [9.6970821, 61.6641644], [9.6972893, 61.6641804], [9.697522, 61.6641934], [9.6982549, 61.6642335], [9.6985111, 61.6642491], [9.6988289, 61.6642764], [9.6992795, 61.664328], [9.7002344, 61.6644385], [9.7016117, 61.6646021], [9.7029622, 61.664765], [9.7032908, 61.6648194], [9.7036032, 61.6648681], [9.7038352, 61.6648987], [9.7042684, 61.6649518]]}, "properties": {"maxspeed": "40", "name": "Lastegate", "railway": "rail", "service": "spur", "length_km": 0.401, "maxspeed_kmh": 40.0}}]}