{"type": "FeatureCollection", "features": [{"type": "Feature", "geometry": {"type": "LineString", "coordinates": [[5.7017939, 58.8072002], [5.7017756, 58.8072914], [5.7017491, 58.8073838], [5.7017112, 58.8074994], [5.7016276, 58.8076897], [5.7015704, 58.8078425], [5.7015395, 58.8079696], [5.7013871, 58.8085819]]}, "properties": {"electrified": "no", "name": "Lastespor", "railway": "rail", "service": "spur", "length_km": 0.156}}, {"type": "Feature", "geometry": {"type": "LineString", "coordinates": [[5.7017328, 58.8067885], [5.7016253, 58.8072549], [5.7015637, 58.8074987], [5.7012288, 58.8088616]]}, "properties": {"electrified": "no", "name": "Lastespor", "railway": "rail", "service": "spur", "length_km": 0.233}}, {"type": "Feature", "geometry": {"type": "LineString", "coordinates": [[5.7011257, 58.8088544], [5.7013544, 58.8079238], [5.7014443, 58.8075619], [5.7014805, 58.8074188], [5.7014986, 58.8073535], [5.7015344, 58.8072644]]}, "properties": {"electrified": "no", "name": "Lastespor", "railway": "rail", "service": "spur", "length_km": 0.179}}, {"type": "Feature", "geometry": {"type": "LineString", "coordinates": [[5.7013173, 58.8077387], [5.70128, 58.8078328], [5.7012358, 58.8079818], [5.7012029, 58.8081176], [5.7010209, 58.8088524]]}, "properties": {"electrified": "no", "name": "Lastespor", "railway": "rail", "service": "spur", "length_km": 0.126}}, {"type": "Feature", "geometry": {"type": "LineString", "coordinates": [[5.7013173, 58.8077387], [5.7011881, 58.8080183], [5.7011184, 58.8081433], [5.7010406, 58.8082857], [5.7009822, 58.8083985], [5.7009427, 58.8085225], [5.7008515, 58.8088915]]}, "properties": {"electrified": "no", "name": "Lastespor", "railway": "rail", "service": "spur", "length_km": 0.132}}, {"type": "Feature", "geometry": {"type": "LineString", "coordinates": [[5.7024211, 58.8101985], [5.7024622, 58.8102443], [5.7064174, 58.8141014], [5.7073716, 58.8150305]]}, "properties": {"electrified": "no", "name": "Lastespor", "railway": "rail", "service": "spur", "length_km": 0.611}}, {"type": "Feature", "geometry": {"type": "LineString", "coordinates": [[5.7023296, 58.8102237], [5.702371, 58.8102693], [5.7069169, 58.8147004], [5.7072534, 58.8150298]]}, "properties": {"electrified": "no", "name": "Lastespor", "railway": "rail", "service": "spur", "length_km": 0.608}}, {"type": "Feature", "geometry": {"type": "LineString", "coordinates": [[5.7016475, 58.8104119], [5.70169, 58.810462], [5.7018862, 58.8106617], [5.7021407, 58.8109093], [5.7065574, 58.8152193]]}, "properties": {"electrified": "no", "name": "Lastespor", "railway": "rail", "service": "spur", "length_km": 0.608}}]}