{"type": "FeatureCollection", "features": [{"type": "Feature", "geometry": {"type": "LineString", "coordinates": [[10.2440151, 59.7478056], [10.2456766, 59.748203], [10.2461008, 59.7483045], [10.2461984, 59.7483269], [10.2462886, 59.748347], [10.2464019, 59.7483714], [10.2465245, 59.7483957], [10.2467203, 59.74843], [10.2468166, 59.748448], [10.2468913, 59.7484639], [10.2469283, 59.7484724], [10.2473956, 59.7485799], [10.2528251, 59.7498784], [10.2534701, 59.7500327], [10.2539396, 59.7501466], [10.2541737, 59.7502043], [10.2544068, 59.7502628], [10.254645, 59.7503234], [10.2548823, 59.7503847], [10.2551177, 59.7504466], [10.255353, 59.7505094], [10.2556565, 59.7505904], [10.2559599, 59.7506732], [10.2562615, 59.7507569], [10.2564737, 59.7508167], [10.2566075, 59.7508549], [10.2567451, 59.7508946], [10.2574303, 59.7510917], [10.2579752, 59.751249], [10.2581624, 59.7513035], [10.2583568, 59.7513615], [10.2585555, 59.7514235], [10.2587531, 59.7514861], [10.2590676, 59.7515883], [10.25939, 59.7516946], [10.2595527, 59.7517493], [10.2597734, 59.7518239], [10.2602789, 59.7519923], [10.2604178, 59.752039], [10.2605592, 59.752087], [10.2606996, 59.7521348], [10.2608376, 59.7521832], [10.2610762, 59.752266], [10.2613113, 59.7523492], [10.261691, 59.7524837], [10.2619185, 59.7525665], [10.2621468, 59.7526506], [10.2623684, 59.7527344], [10.2625883, 59.7528202]]}, "properties": {"electrified": "no", "name": "Lierstranda", "railway": "rail", "service": "spur", "length_km": 1.188}}]}