{"type": "FeatureCollection", "features": [{"type": "Feature", "geometry": {"type": "LineString", "coordinates": [[10.2482131, 59.7487386], [10.2482788, 59.7487505], [10.2483317, 59.7487609], [10.2483807, 59.7487708], [10.2484305, 59.7487815], [10.2484741, 59.7487912], [10.2485203, 59.7488017], [10.2487636, 59.7488602], [10.2535129, 59.7499959], [10.2538095, 59.7500672], [10.2541907, 59.7501614], [10.2543268, 59.7501954], [10.2544656, 59.7502303], [10.2548817, 59.7503374], [10.2550725, 59.7503867], [10.2553497, 59.7504594], [10.2558117, 59.7505829], [10.2561683, 59.75068], [10.2563563, 59.7507319], [10.2564583, 59.7507601], [10.2565376, 59.7507827], [10.2565946, 59.7508001], [10.2566496, 59.7508175], [10.2566908, 59.750831], [10.2567304, 59.7508445], [10.2568071, 59.7508724]]}, "properties": {"electrified": "no", "name": "Lierstranda T\u00f8mmerterminal", "railway": "rail", "service": "spur", "length_km": 0.539}}, {"type": "Feature", "geometry": {"type": "LineString", "coordinates": [[10.2574303, 59.7510917], [10.2573947, 59.7510812], [10.2573642, 59.7510717], [10.2573156, 59.7510559], [10.2572501, 59.7510338], [10.2571921, 59.7510139], [10.2571349, 59.7509934], [10.2570687, 59.750969], [10.2568071, 59.7508724], [10.2564491, 59.7507387], [10.2563427, 59.7507008], [10.2562288, 59.7506613], [10.2561116, 59.7506227], [10.2560384, 59.7505993], [10.255974, 59.7505797], [10.2558541, 59.7505448], [10.2557167, 59.7505067], [10.255567, 59.7504668], [10.2553553, 59.7504115], [10.2549903, 59.7503161], [10.2547503, 59.750254], [10.2545213, 59.7501961], [10.2542909, 59.7501387], [10.2541536, 59.7501053], [10.2538516, 59.7500301], [10.2535829, 59.7499643], [10.2533106, 59.7498993], [10.2514169, 59.7494463], [10.2494251, 59.7489702], [10.2492572, 59.7489319], [10.2490956, 59.7488979], [10.2489258, 59.7488648], [10.2487998, 59.7488415], [10.2485349, 59.7487946], [10.2482131, 59.7487386], [10.2480357, 59.7487076], [10.2479562, 59.7486938], [10.2478752, 59.7486797], [10.2478055, 59.7486669], [10.2477235, 59.7486511], [10.2476365, 59.7486336], [10.2475606, 59.7486176], [10.247493, 59.7486025], [10.2473956, 59.7485799]]}, "properties": {"electrified": "no", "name": "Lierstranda T\u00f8mmerterminal", "railway": "rail", "service": "spur", "length_km": 0.632}}]}