{"type": "FeatureCollection", "features": [{"type": "Feature", "geometry": {"type": "LineString", "coordinates": [[10.7852282, 59.9051662], [10.7854212, 59.9051614], [10.785588, 59.9051567]]}, "properties": {"bridge": "yes", "electrified": "contact_line", "frequency": "16.67", "gauge": "1435", "name": "Loenga\u2013Alnabrulinjen", "operator": "Bane NOR", "railway": "rail", "usage": "branch", "voltage": "15000", "length_km": 0.02}}, {"type": "Feature", "geometry": {"type": "LineString", "coordinates": [[10.8339127, 59.9259153], [10.8339166, 59.9260053], [10.8339235, 59.9260788], [10.8339349, 59.9261534], [10.8339464, 59.9262107], [10.8339677, 59.9262859], [10.8339926, 59.926362], [10.8340086, 59.9264069], [10.834027, 59.9264504], [10.834044, 59.9264873], [10.8341829, 59.9267797], [10.8342876, 59.9270186]]}, "properties": {"electrified": "contact_line", "frequency": "16.67", "gauge": "1435", "maxspeed": "40", "name": "Loenga\u2013Alnabrulinjen", "operator": "Bane NOR", "railway": "rail", "usage": "branch", "voltage": "15000", "length_km": 0.125, "maxspeed_kmh": 40.0}}, {"type": "Feature", "geometry": {"type": "LineString", "coordinates": [[10.8333916, 59.923224], [10.833467, 59.9233797], [10.8335427, 59.9235358], [10.8336697, 59.9238103], [10.8338378, 59.9242015], [10.8338555, 59.9242418]]}, "properties": {"bridge": "yes", "electrified": "contact_line", "frequency": "16.67", "gauge": "1435", "maxspeed": "60", "name": "Loenga\u2013Alnabrulinjen", "operator": "Bane NOR", "passenger_lines": "3", "railway": "rail", "usage": "branch", "voltage": "15000", "length_km": 0.116, "maxspeed_kmh": 60.0}}, {"type": "Feature", "geometry": {"type": "LineString", "coordinates": [[10.8287835, 59.9157272], [10.8287892, 59.9158693], [10.8287956, 59.9159403], [10.8288034, 59.9160114], [10.8288185, 59.9161004], [10.8288408, 59.9161895], [10.8288676, 59.9162794], [10.8288998, 59.9163675], [10.8289419, 59.916459], [10.8289895, 59.9165487], [10.8290424, 59.9166379], [10.8291025, 59.9167272], [10.8291963, 59.9168543], [10.8292976, 59.9169802], [10.8295038, 59.9172319], [10.829627, 59.9173858], [10.829875, 59.9177049], [10.8301613, 59.9181137], [10.8302488, 59.9182407], [10.8304456, 59.918538], [10.8305849, 59.9187584], [10.832253, 59.9213784], [10.8324359, 59.9216667], [10.8326978, 59.9220801], [10.8328937, 59.922387], [10.8330904, 59.9227018], [10.8332113, 59.9229014], [10.8333187, 59.9230942], [10.8333916, 59.923224]]}, "properties": {"electrified": "contact_line", "frequency": "16.67", "gauge": "1435", "maxspeed": "60", "name": "Loenga\u2013Alnabrulinjen", "operator": "Bane NOR", "passenger_lines": "3", "railway": "rail", "usage": "branch", "voltage": "15000", "length_km": 0.876, "maxspeed_kmh": 60.0}}, {"type": "Feature", "geometry": {"type": "LineString", "coordinates": [[10.82879, 59.915237], [10.8287835, 59.9157272]]}, "properties": {"electrified": "contact_line", "frequency": "16.67", "gauge": "1435", "maxspeed": "60", "name": "Loenga\u2013Alnabrulinjen", "operator": "Bane NOR", "railway": "rail", "tunnel": "yes", "usage": "branch", "voltage": "15000", "length_km": 0.055, "maxspeed_kmh": 60.0}}, {"type": "Feature", "geometry": {"type": "LineString", "coordinates": [[10.8265616, 59.912102], [10.8268886, 59.9124124], [10.827067, 59.9125932], [10.8272229, 59.9127532], [10.8273782, 59.9129162], [10.8275282, 59.9130818], [10.8276336, 59.9131976], [10.8277357, 59.9133142], [10.8278496, 59.9134442], [10.8279604, 59.913575], [10.828065, 59.9136997], [10.8281664, 59.9138244], [10.8282654, 59.9139508], [10.8283644, 59.9140756], [10.8284281, 59.9141597], [10.8284871, 59.9142437], [10.8285436, 59.9143302], [10.8285939, 59.9144166], [10.8286303, 59.9144874], [10.8286636, 59.914559], [10.8286913, 59.914631], [10.8287174, 59.9147038], [10.8287387, 59.9147767], [10.8287568, 59.9148497], [10.8287694, 59.9149227], [10.8287788, 59.9149957], [10.8287836, 59.9150552], [10.8287868, 59.9151163], [10.8287899, 59.9151766], [10.82879, 59.915237]]}, "properties": {"electrified": "contact_line", "frequency": "16.67", "gauge": "1435", "maxspeed": "60", "name": "Loenga\u2013Alnabrulinjen", "operator": "Bane NOR", "passenger_lines": "3", "railway": "rail", "usage": "branch", "voltage": "15000", "length_km": 0.375, "maxspeed_kmh": 60.0}}, {"type": "Feature", "geometry": {"type": "LineString", "coordinates": [[10.8029932, 59.905842], [10.8032331, 59.9058559], [10.803475, 59.9058709], [10.8036517, 59.9058828], [10.8038345, 59.9058967], [10.8041022, 59.9059182], [10.8043739, 59.9059417], [10.8046406, 59.9059677], [10.8049092, 59.9059969], [10.805178, 59.9060284], [10.8054508, 59.9060619], [10.8057019, 59.9060954], [10.8059529, 59.9061299], [10.8062212, 59.9061695], [10.8064895, 59.90621], [10.8069707, 59.9062846], [10.8146115, 59.9075021], [10.8158079, 59.9076921], [10.8172289, 59.9079181], [10.8181924, 59.9080744], [10.818499, 59.9081277], [10.8188232, 59.9081862], [10.8189877, 59.9082166], [10.8191521, 59.9082496], [10.8193333, 59.9082874], [10.8195097, 59.9083277], [10.8197841, 59.9083958], [10.8200115, 59.9084603], [10.8202239, 59.9085234], [10.8204453, 59.9085949], [10.8206627, 59.9086684], [10.8208792, 59.9087427], [10.8210942, 59.9088184], [10.8212508, 59.9088758], [10.821406, 59.9089339], [10.8215599, 59.9089943], [10.8217111, 59.9090561], [10.821911, 59.9091423], [10.8221062, 59.9092309], [10.8223, 59.9093217], [10.8224874, 59.9094162], [10.8227761, 59.9095675], [10.8230014, 59.9096938], [10.823224, 59.9098194], [10.8236207, 59.9100483], [10.8239202, 59.9102258], [10.8242135, 59.9104006], [10.8246061, 59.9106399], [10.8248578, 59.9108017], [10.8250449, 59.9109245], [10.8252298, 59.9110485], [10.825381, 59.9111536], [10.8255297, 59.9112592], [10.8256001, 59.911311]]}, "properties": {"electrified": "contact_line", "frequency": "16.67", "gauge": "1435", "name": "Loenga\u2013Alnabrulinjen", "operator": "Bane NOR", "passenger_lines": "3", "railway": "rail", "usage": "branch", "voltage": "15000", "length_km": 1.447}}, {"type": "Feature", "geometry": {"type": "LineString", "coordinates": [[10.8264765, 59.9120248], [10.8265616, 59.912102]]}, "properties": {"bridge": "yes", "electrified": "contact_line", "frequency": "16.67", "gauge": "1435", "maxspeed": "60", "name": "Loenga\u2013Alnabrulinjen", "operator": "Bane NOR", "passenger_lines": "3", "railway": "rail", "usage": "branch", "voltage": "15000", "length_km": 0.01, "maxspeed_kmh": 60.0}}, {"type": "Feature", "geometry": {"type": "LineString", "coordinates": [[10.8339888, 59.9253952], [10.8339383, 59.9256286], [10.833923, 59.9257149], [10.8339142, 59.9258104], [10.8339127, 59.9259153]]}, "properties": {"bridge": "yes", "electrified": "contact_line", "frequency": "16.67", "gauge": "1435", "maxspeed": "40", "name": "Loenga\u2013Alnabrulinjen", "operator": "Bane NOR", "railway": "rail", "usage": "branch", "voltage": "15000", "length_km": 0.058, "maxspeed_kmh": 40.0}}, {"type": "Feature", "geometry": {"type": "LineString", "coordinates": [[10.8338555, 59.9242418], [10.8338853, 59.9243092], [10.8339162, 59.9243863], [10.8339436, 59.9244651], [10.8339694, 59.9245437], [10.8339917, 59.9246228], [10.834007, 59.9246975], [10.834019, 59.9247721], [10.8340277, 59.924848], [10.8340331, 59.9249239], [10.8340352, 59.9250156], [10.8340306, 59.9251089]]}, "properties": {"electrified": "contact_line", "frequency": "16.67", "gauge": "1435", "maxspeed": "60", "name": "Loenga\u2013Alnabrulinjen", "operator": "Bane NOR", "railway": "rail", "usage": "branch", "voltage": "15000", "length_km": 0.097, "maxspeed_kmh": 60.0}}, {"type": "Feature", "geometry": {"type": "LineString", "coordinates": [[10.7986635, 59.905782], [10.8010765, 59.9057933], [10.8017075, 59.9058013]]}, "properties": {"electrified": "contact_line", "frequency": "16.67", "gauge": "1435", "name": "Loenga\u2013Alnabrulinjen", "operator": "Bane NOR", "passenger_lines": "3", "railway": "rail", "usage": "branch", "voltage": "15000", "length_km": 0.17}}, {"type": "Feature", "geometry": {"type": "LineString", "coordinates": [[10.7710091, 59.9056015], [10.7711189, 59.9056248], [10.7712361, 59.9056486], [10.7713385, 59.9056674]]}, "properties": {"bridge": "yes", "electrified": "contact_line", "frequency": "16.67", "gauge": "1435", "name": "Loenga\u2013Alnabrulinjen", "operator": "Bane NOR", "railway": "rail", "usage": "branch", "voltage": "15000", "length_km": 0.02}}, {"type": "Feature", "geometry": {"type": "LineString", "coordinates": [[10.8027381, 59.9058302], [10.8029932, 59.905842]]}, "properties": {"bridge": "yes", "electrified": "contact_line", "frequency": "16.67", "gauge": "1435", "name": "Loenga\u2013Alnabrulinjen", "operator": "Bane NOR", "passenger_lines": "3", "railway": "rail", "usage": "branch", "voltage": "15000", "length_km": 0.014}}, {"type": "Feature", "geometry": {"type": "LineString", "coordinates": [[10.7909822, 59.9052147], [10.7911254, 59.9052224], [10.791312, 59.9052327], [10.7914991, 59.9052445], [10.7916904, 59.9052576], [10.7918782, 59.9052708], [10.7920688, 59.9052853], [10.7923857, 59.9053113], [10.792644, 59.905335], [10.7929052, 59.9053601], [10.7934247, 59.9054131], [10.7939357, 59.9054674], [10.7943398, 59.9055109], [10.7948167, 59.9055595], [10.7951397, 59.9055937], [10.7953732, 59.9056162], [10.7956239, 59.9056419], [10.7958756, 59.9056626], [10.7960952, 59.9056814], [10.7963266, 59.9056995], [10.7965546, 59.9057152], [10.7968405, 59.905731], [10.7971273, 59.9057453], [10.7975924, 59.9057634], [10.7978589, 59.9057706], [10.798128, 59.9057761], [10.798394, 59.9057799], [10.7986635, 59.905782]]}, "properties": {"electrified": "contact_line", "frequency": "16.67", "gauge": "1435", "name": "Loenga\u2013Alnabrulinjen", "operator": "Bane NOR", "passenger_lines": "1", "railway": "rail", "usage": "branch", "voltage": "15000", "length_km": 0.435}}, {"type": "Feature", "geometry": {"type": "LineString", "coordinates": [[10.7803243, 59.9054217], [10.781878, 59.9053302]]}, "properties": {"bridge": "yes", "electrified": "contact_line", "frequency": "16.67", "gauge": "1435", "name": "Loenga\u2013Alnabrulinjen", "operator": "Bane NOR", "railway": "rail", "usage": "branch", "voltage": "15000", "length_km": 0.088}}, {"type": "Feature", "geometry": {"type": "LineString", "coordinates": [[10.7713385, 59.9056674], [10.7715062, 59.9056957], [10.7716301, 59.9057159], [10.7717848, 59.9057374], [10.7719768, 59.9057605], [10.7721835, 59.9057805], [10.772391, 59.9057968], [10.7725576, 59.9058067], [10.7727391, 59.9058152], [10.7729276, 59.905819], [10.7731294, 59.9058197], [10.7733934, 59.9058156], [10.7735968, 59.9058077], [10.7737973, 59.9057994], [10.7739959, 59.9057883], [10.774241, 59.9057757], [10.775901, 59.9056789], [10.7783893, 59.9055336], [10.7799694, 59.9054418]]}, "properties": {"electrified": "contact_line", "frequency": "16.67", "gauge": "1435", "name": "Loenga\u2013Alnabrulinjen", "operator": "Bane NOR", "railway": "rail", "usage": "branch", "voltage": "15000", "length_km": 0.487}}, {"type": "Feature", "geometry": {"type": "LineString", "coordinates": [[10.7906593, 59.9051985], [10.7909822, 59.9052147]]}, "properties": {"bridge": "yes", "electrified": "contact_line", "frequency": "16.67", "gauge": "1435", "name": "Loenga\u2013Alnabrulinjen", "operator": "Bane NOR", "railway": "rail", "usage": "branch", "voltage": "15000", "length_km": 0.018}}, {"type": "Feature", "geometry": {"type": "LineString", "coordinates": [[10.781878, 59.9053302], [10.7823389, 59.905304], [10.7828799, 59.905273], [10.7834061, 59.9052427], [10.7838531, 59.9052194], [10.7840994, 59.9052095], [10.7843759, 59.9051961], [10.7849177, 59.9051778]]}, "properties": {"electrified": "contact_line", "frequency": "16.67", "gauge": "1435", "name": "Loenga\u2013Alnabrulinjen", "operator": "Bane NOR", "railway": "rail", "usage": "branch", "voltage": "15000", "length_km": 0.171}}, {"type": "Feature", "geometry": {"type": "LineString", "coordinates": [[10.7878895, 59.9051264], [10.7880806, 59.905127], [10.7883234, 59.9051284], [10.788567, 59.9051307], [10.7888098, 59.9051346], [10.7890534, 59.9051398], [10.7893008, 59.9051466], [10.7895501, 59.9051538], [10.7897924, 59.9051623], [10.7900397, 59.9051724], [10.7906593, 59.9051985]]}, "properties": {"electrified": "contact_line", "frequency": "16.67", "gauge": "1435", "name": "Loenga\u2013Alnabrulinjen", "operator": "Bane NOR", "railway": "rail", "usage": "branch", "voltage": "15000", "length_km": 0.155}}, {"type": "Feature", "geometry": {"type": "LineString", "coordinates": [[10.7608509, 59.9015272], [10.7609176, 59.9015496], [10.7612973, 59.9016818], [10.7616348, 59.9018031], [10.7618259, 59.9018774], [10.7620123, 59.9019544], [10.7623195, 59.9020849], [10.7628224, 59.9022988], [10.7641897, 59.9028802], [10.7644796, 59.9030073], [10.7647623, 59.903131], [10.7649404, 59.9032154], [10.7651198, 59.9032988], [10.7653366, 59.9034019], [10.7656161, 59.9035384], [10.7658115, 59.9036347], [10.766132, 59.9037937], [10.7664455, 59.9039503], [10.7665922, 59.904021], [10.7666772, 59.9040607], [10.7667714, 59.904103], [10.7669471, 59.9041791], [10.767136, 59.9042534], [10.7675296, 59.9043998]]}, "properties": {"electrified": "contact_line", "frequency": "16.67", "gauge": "1435", "name": "Loenga\u2013Alnabrulinjen", "operator": "Bane NOR", "railway": "rail", "usage": "branch", "voltage": "15000", "length_km": 0.493}}, {"type": "Feature", "geometry": {"type": "LineString", "coordinates": [[10.8342876, 59.9270186], [10.8344016, 59.9271828], [10.8344533, 59.9272553], [10.8344943, 59.9273143], [10.834598, 59.9274334]]}, "properties": {"electrified": "contact_line", "frequency": "16.67", "gauge": "1435", "name": "Loenga\u2013Alnabrulinjen", "railway": "rail", "usage": "branch", "voltage": "15000", "length_km": 0.049}}, {"type": "Feature", "geometry": {"type": "LineString", "coordinates": [[10.7627231, 59.9019913], [10.7625548, 59.901917], [10.7623437, 59.9018193], [10.7621814, 59.9017441], [10.7619781, 59.9016458], [10.7617187, 59.9015272], [10.7615988, 59.9014739], [10.7614728, 59.9014232], [10.7613601, 59.9013828], [10.7612004, 59.9013298], [10.7610448, 59.9012817], [10.7608221, 59.9012141]]}, "properties": {"electrified": "contact_line", "frequency": "16.67", "gauge": "1435", "name": "Loenga\u2013Alnabrulinjen", "operator": "Bane NOR", "railway": "rail", "usage": "branch", "voltage": "15000", "length_km": 0.138}}, {"type": "Feature", "geometry": {"type": "LineString", "coordinates": [[10.7799694, 59.9054418], [10.7803243, 59.9054217]]}, "properties": {"electrified": "contact_line", "frequency": "16.67", "gauge": "1435", "name": "Loenga\u2013Alnabrulinjen", "operator": "Bane NOR", "railway": "rail", "usage": "branch", "voltage": "15000", "length_km": 0.02}}, {"type": "Feature", "geometry": {"type": "LineString", "coordinates": [[10.7659486, 59.903551], [10.766058, 59.9036253], [10.7661936, 59.9037187], [10.7662607, 59.9037617], [10.7663223, 59.9038018], [10.7664314, 59.9038682], [10.7665323, 59.9039269], [10.7667169, 59.9040247]]}, "properties": {"electrified": "contact_line", "frequency": "16.67", "gauge": "1435", "name": "Loenga\u2013Alnabrulinjen", "operator": "Bane NOR", "railway": "rail", "usage": "branch", "voltage": "15000", "length_km": 0.068}}, {"type": "Feature", "geometry": {"type": "LineString", "coordinates": [[10.7675296, 59.9043998], [10.7680543, 59.9045947], [10.7684866, 59.9047545], [10.7689968, 59.9049417], [10.7696555, 59.9051859], [10.7698581, 59.9052587], [10.7700537, 59.9053282], [10.7701968, 59.905376], [10.7703666, 59.9054298], [10.7705313, 59.9054804], [10.7707102, 59.9055296], [10.7708419, 59.9055625], [10.7710091, 59.9056015]]}, "properties": {"electrified": "contact_line", "frequency": "16.67", "gauge": "1435", "name": "Loenga\u2013Alnabrulinjen", "operator": "Bane NOR", "railway": "rail", "usage": "branch", "voltage": "15000", "length_km": 0.237}}, {"type": "Feature", "geometry": {"type": "LineString", "coordinates": [[10.7877645, 59.905127], [10.7878895, 59.9051264]]}, "properties": {"bridge": "yes", "electrified": "contact_line", "frequency": "16.67", "gauge": "1435", "name": "Loenga\u2013Alnabrulinjen", "operator": "Bane NOR", "railway": "rail", "usage": "branch", "voltage": "15000", "length_km": 0.007}}, {"type": "Feature", "geometry": {"type": "LineString", "coordinates": [[10.7849177, 59.9051778], [10.7852282, 59.9051662]]}, "properties": {"bridge": "yes", "electrified": "contact_line", "frequency": "16.67", "gauge": "1435", "name": "Loenga\u2013Alnabrulinjen", "operator": "Bane NOR", "railway": "rail", "usage": "branch", "voltage": "15000", "length_km": 0.017}}, {"type": "Feature", "geometry": {"type": "LineString", "coordinates": [[10.785588, 59.9051567], [10.7856798, 59.9051546], [10.7857344, 59.9051531]]}, "properties": {"electrified": "contact_line", "frequency": "16.67", "gauge": "1435", "name": "Loenga\u2013Alnabrulinjen", "operator": "Bane NOR", "railway": "rail", "usage": "branch", "voltage": "15000", "length_km": 0.008}}, {"type": "Feature", "geometry": {"type": "LineString", "coordinates": [[10.7857344, 59.9051531], [10.7863205, 59.9051402], [10.786818, 59.9051328], [10.7870656, 59.9051295], [10.7873156, 59.9051278], [10.7877645, 59.905127]]}, "properties": {"electrified": "contact_line", "frequency": "16.67", "gauge": "1435", "name": "Loenga\u2013Alnabrulinjen", "operator": "Bane NOR", "railway": "rail", "usage": "branch", "voltage": "15000", "length_km": 0.114}}, {"type": "Feature", "geometry": {"type": "LineString", "coordinates": [[10.8017075, 59.9058013], [10.8018878, 59.9058046], [10.8020988, 59.9058092], [10.8023113, 59.9058146], [10.8025239, 59.905822], [10.8027381, 59.9058302]]}, "properties": {"electrified": "contact_line", "frequency": "16.67", "gauge": "1435", "name": "Loenga\u2013Alnabrulinjen", "operator": "Bane NOR", "passenger_lines": "3", "railway": "rail", "usage": "branch", "voltage": "15000", "length_km": 0.058}}, {"type": "Feature", "geometry": {"type": "LineString", "coordinates": [[10.7627231, 59.9019913], [10.7630221, 59.9021185], [10.7646577, 59.902813], [10.7649072, 59.9029237], [10.7650836, 59.9030067], [10.7652005, 59.9030679], [10.7653246, 59.9031375], [10.7654304, 59.9031993], [10.765542, 59.9032706], [10.7656888, 59.9033693], [10.7658263, 59.9034631], [10.7659486, 59.903551]]}, "properties": {"electrified": "contact_line", "frequency": "16.67", "gauge": "1435", "name": "Loenga\u2013Alnabrulinjen", "operator": "Bane NOR", "railway": "rail", "usage": "branch", "voltage": "15000", "length_km": 0.252}}, {"type": "Feature", "geometry": {"type": "LineString", "coordinates": [[10.7595936, 59.9010749], [10.7600106, 59.9012353], [10.7601149, 59.9012704], [10.7602441, 59.9013175], [10.7608006, 59.9015096], [10.7608509, 59.9015272]]}, "properties": {"electrified": "contact_line", "frequency": "16.67", "gauge": "1435", "maxspeed": "40", "name": "Loenga\u2013Alnabrulinjen", "operator": "Bane NOR", "railway": "rail", "usage": "branch", "voltage": "15000", "length_km": 0.087, "maxspeed_kmh": 40.0}}, {"type": "Feature", "geometry": {"type": "LineString", "coordinates": [[10.7608221, 59.9012141], [10.76068, 59.901171], [10.7606042, 59.901146], [10.7605294, 59.9011212], [10.760448, 59.9010949], [10.7602346, 59.9010318]]}, "properties": {"electrified": "contact_line", "frequency": "16.67", "gauge": "1435", "name": "Loenga\u2013Alnabrulinjen", "operator": "Bane NOR", "railway": "rail", "usage": "branch", "voltage": "15000", "length_km": 0.039}}, {"type": "Feature", "geometry": {"type": "LineString", "coordinates": [[10.7667169, 59.9040247], [10.7668153, 59.9040753], [10.7670712, 59.9041981], [10.7671834, 59.904251], [10.7672623, 59.9042885], [10.767421, 59.9043562], [10.7675296, 59.9043998]]}, "properties": {"electrified": "contact_line", "frequency": "16.67", "gauge": "1435", "name": "Loenga\u2013Alnabrulinjen", "operator": "Bane NOR", "railway": "rail", "usage": "branch", "voltage": "15000", "length_km": 0.062}}, {"type": "Feature", "geometry": {"type": "LineString", "coordinates": [[10.8340306, 59.9251089], [10.8340261, 59.9251586], [10.8340122, 59.9252626], [10.8339888, 59.9253952]]}, "properties": {"electrified": "contact_line", "frequency": "16.67", "gauge": "1435", "maxspeed": "40", "name": "Loenga\u2013Alnabrulinjen", "operator": "Bane NOR", "railway": "rail", "usage": "branch", "voltage": "15000", "length_km": 0.032, "maxspeed_kmh": 40.0}}, {"type": "Feature", "geometry": {"type": "LineString", "coordinates": [[10.8256001, 59.911311], [10.8257244, 59.911404], [10.8258435, 59.9114955], [10.8259595, 59.9115868], [10.8260746, 59.9116789], [10.8261792, 59.9117657], [10.8262814, 59.9118532], [10.8263832, 59.9119417], [10.8264765, 59.9120248]]}, "properties": {"electrified": "contact_line", "frequency": "16.67", "gauge": "1435", "maxspeed": "60", "name": "Loenga\u2013Alnabrulinjen", "operator": "Bane NOR", "passenger_lines": "3", "railway": "rail", "usage": "branch", "voltage": "15000", "length_km": 0.093, "maxspeed_kmh": 60.0}}]}