{"type": "FeatureCollection", "features": [{"type": "Feature", "geometry": {"type": "LineString", "coordinates": [[10.4835795, 59.9823111], [10.4836224, 59.982237], [10.4837143, 59.9820783], [10.4837385, 59.9820307], [10.483772, 59.9819817], [10.4838141, 59.981939], [10.4839422, 59.9818532], [10.4841627, 59.9816917], [10.4842361, 59.9816379], [10.4843048, 59.9815768], [10.4843208, 59.9815206], [10.4843181, 59.9814591], [10.4842985, 59.9813983], [10.4842759, 59.9813284], [10.4842806, 59.9811224], [10.484306, 59.9810466], [10.4843817, 59.9809492], [10.4844066, 59.9808902], [10.4844144, 59.9808314], [10.4843983, 59.9807308], [10.4844082, 59.9806766], [10.4844144, 59.9806422], [10.4844511, 59.9805985], [10.4846209, 59.9803873], [10.484674, 59.9803164], [10.4846942, 59.980264], [10.484696, 59.9802048], [10.4846785, 59.9801351], [10.4846229, 59.9800218], [10.4845373, 59.9798477], [10.484511, 59.9797847], [10.4844926, 59.9796718], [10.4844117, 59.9795526], [10.4843316, 59.9794564], [10.4842836, 59.9793866], [10.4841158, 59.9790312], [10.4840858, 59.9789829], [10.4840724, 59.9789447], [10.4840696, 59.9789113], [10.4840657, 59.9788568], [10.4840738, 59.9788185], [10.4840925, 59.9787769], [10.4841208, 59.9787231], [10.4843501, 59.9783796], [10.4843648, 59.9783381], [10.4843679, 59.9782874], [10.4843487, 59.9782435], [10.4843259, 59.9781952], [10.4842759, 59.9781395], [10.4841301, 59.9780113], [10.4840778, 59.977963], [10.4840496, 59.9779217], [10.4840268, 59.9778691], [10.484016, 59.9778199], [10.4840027, 59.9777496], [10.4840151, 59.9776912], [10.4840254, 59.9776358], [10.4841537, 59.9772506], [10.4841851, 59.9771605], [10.4842012, 59.9771129], [10.4842199, 59.9770759], [10.4842816, 59.9769934], [10.4843584, 59.9769089], [10.4845203, 59.9767881], [10.4847336, 59.9766425], [10.4847756, 59.9766057], [10.4848017, 59.9765712], [10.4848161, 59.9765281], [10.4849413, 59.9761482]]}, "properties": {"electrified": "no", "gauge": "600", "name": "Lommedalsbanen", "railway": "narrow_gauge", "length_km": 0.724}}]}