{"type": "FeatureCollection", "features": [{"type": "Feature", "geometry": {"type": "LineString", "coordinates": [[18.1070284, 68.4297903], [18.1058286, 68.4300329], [18.1057429, 68.4300498]]}, "properties": {"electrified": "contact_line", "frequency": "16.67", "gauge": "1435", "maxspeed": "80", "name": "Malmbanan", "operator": "Trafikverket", "passenger_lines": "1", "railway": "rail", "tracks": "1", "tunnel": "avalanche_protector", "usage": "main", "voltage": "15000", "length_km": 0.06, "maxspeed_kmh": 80.0}}]}