{"type": "FeatureCollection", "features": [{"type": "Feature", "geometry": {"type": "LineString", "coordinates": [[9.9666086, 62.7120409], [9.9666569, 62.7123514], [9.9667507, 62.7128488], [9.9667749, 62.7130671], [9.9667735, 62.713214], [9.9667534, 62.7133788], [9.9666783, 62.7136708], [9.9666582, 62.7137827], [9.9666478, 62.713888]]}, "properties": {"electrified": "contact_line", "frequency": "16.67", "name": "Mark\u00f8ya pukkverk sidespor", "railway": "rail", "service": "spur", "voltage": "15000", "length_km": 0.207}}, {"type": "Feature", "geometry": {"type": "LineString", "coordinates": [[9.9663705, 62.7106944], [9.9664852, 62.7114039], [9.9666086, 62.7120409]]}, "properties": {"electrified": "no", "name": "Mark\u00f8ya pukkverk sidespor", "railway": "rail", "service": "spur", "length_km": 0.151}}]}