{"type": "FeatureCollection", "features": [{"type": "Feature", "geometry": {"type": "LineString", "coordinates": [[11.8534952, 63.3905583], [11.8540483, 63.3903461], [11.8544197, 63.3901966], [11.8550164, 63.3899338], [11.8560907, 63.3894222], [11.8565305, 63.3892174], [11.8567373, 63.3891247], [11.8570585, 63.38899], [11.8574259, 63.3888487], [11.8576406, 63.3887743], [11.8578895, 63.3886917], [11.8582768, 63.3885755], [11.8585893, 63.388489], [11.8588458, 63.388424], [11.8592772, 63.3883223], [11.8595523, 63.3882623], [11.8613344, 63.3878847], [11.8683109, 63.3864067], [11.8686693, 63.3863366], [11.869199, 63.3862449], [11.8697068, 63.3861759], [11.870035, 63.3861399], [11.870358, 63.3861105], [11.8706639, 63.3860893], [11.8710852, 63.3860678], [11.8715271, 63.3860558], [11.8720815, 63.3860561], [11.8727268, 63.3860795], [11.8732387, 63.3861149], [11.8736151, 63.3861509], [11.8741499, 63.3862174], [11.8744453, 63.3862619], [11.8747584, 63.3863178], [11.8750993, 63.3863863], [11.8756684, 63.3865172], [11.8763748, 63.3866858], [11.8765674, 63.3867296], [11.8769527, 63.386808], [11.8773331, 63.3868756], [11.8776944, 63.3869305], [11.877982, 63.3869668], [11.8783422, 63.3870048], [11.8786893, 63.3870342], [11.8789385, 63.3870507], [11.8793447, 63.38707], [11.8799899, 63.3870872], [11.8815547, 63.3871116], [11.8821147, 63.3871306], [11.8824226, 63.3871479], [11.8831361, 63.3871993], [11.8835368, 63.387239], [11.8842895, 63.3873197], [11.8851462, 63.3874243], [11.885832, 63.3874959], [11.8860938, 63.3875172], [11.8866492, 63.3875519], [11.8869584, 63.3875649], [11.8875851, 63.3875796], [11.887964, 63.3875791], [11.8883316, 63.387573], [11.8886843, 63.3875597], [11.888882, 63.3875503], [11.8893831, 63.3875151], [11.8898245, 63.3874747], [11.8902562, 63.3874246], [11.890601, 63.3873771], [11.8911418, 63.387291], [11.8914287, 63.3872414], [11.8958126, 63.3864059], [11.8964916, 63.3862889], [11.896803, 63.3862432], [11.8971709, 63.386197], [11.8975956, 63.3861529], [11.8978631, 63.3861311], [11.8981756, 63.3861108], [11.8985138, 63.3860951], [11.8988658, 63.3860881], [11.8991618, 63.3860846], [11.8994352, 63.3860888], [11.8997922, 63.3860993], [11.9002248, 63.3861204], [11.9006122, 63.3861476], [11.9010535, 63.3861916], [11.9013923, 63.3862332], [11.9017837, 63.3862883], [11.9022586, 63.3863746], [11.9025649, 63.3864336], [11.9028917, 63.3865132], [11.9031825, 63.3865895], [11.9041369, 63.3868704], [11.9045918, 63.3870102], [11.9048642, 63.3870868], [11.9051308, 63.3871525], [11.905362, 63.3872071], [11.9058197, 63.3872964], [11.9060936, 63.3873412], [11.9063581, 63.3873767], [11.9066524, 63.3874118], [11.9069039, 63.387436], [11.9072017, 63.3874583], [11.9074502, 63.3874721], [11.9079445, 63.3874853], [11.9081683, 63.3874862], [11.9086145, 63.3874772], [11.9090345, 63.3874551], [11.9092561, 63.3874383], [11.9095667, 63.3874091], [11.9100092, 63.3873535], [11.9104215, 63.3872863], [11.9106237, 63.3872488], [11.9110123, 63.3871648], [11.9113671, 63.3870739], [11.9115616, 63.38702], [11.9119111, 63.3869077], [11.9123488, 63.3867482], [11.9126881, 63.3865955], [11.9129085, 63.3864882], [11.9131156, 63.3863704], [11.9132897, 63.386261], [11.9134547, 63.3861523], [11.9136029, 63.3860378], [11.9137491, 63.3859136], [11.913962, 63.3856972], [11.9140987, 63.3855311], [11.9142251, 63.38535], [11.9146768, 63.3846594], [11.9148856, 63.3843575], [11.9150527, 63.3841658], [11.9151352, 63.384081], [11.9153554, 63.3838912], [11.915583, 63.3837266], [11.9157121, 63.3836422], [11.9160026, 63.3834763], [11.9162866, 63.383337], [11.9164461, 63.3832672], [11.9166534, 63.383185], [11.9170006, 63.3830594], [11.9172601, 63.3829775], [11.9175146, 63.3829047], [11.9178118, 63.3828288], [11.9179762, 63.3827914], [11.9184361, 63.3827034], [11.9188907, 63.382636], [11.9191631, 63.3826013], [11.920027, 63.3825154], [11.920537, 63.3824593], [11.9208349, 63.3824218], [11.9211959, 63.3823673], [11.9216414, 63.3822808], [11.9218512, 63.3822336], [11.9222077, 63.3821423], [11.9227147, 63.3819839], [11.922855, 63.3819359], [11.9230275, 63.3818692], [11.9232144, 63.381795], [11.9235635, 63.3816339], [11.9238229, 63.3814936], [11.9239638, 63.3814101], [11.9241137, 63.3813099], [11.9244292, 63.3810715], [11.9245616, 63.3809578], [11.9252878, 63.3802844], [11.9255367, 63.3800854], [11.925751, 63.3799231], [11.9261069, 63.3796784], [11.9264539, 63.3794654], [11.9268034, 63.3792691], [11.9270326, 63.3791504], [11.9271902, 63.3790754], [11.9274668, 63.3789444], [11.9279154, 63.3787448], [11.9281267, 63.378659], [11.9283963, 63.3785572]]}, "properties": {"electrified": "contact_line", "frequency": "16.67", "gauge": "1435", "maxspeed": "80", "name": "Mer\u00e5kerbanen", "operator": "Bane NOR", "passenger_lines": "1", "railway": "rail", "usage": "main", "voltage": "15000", "length_km": 4.477, "maxspeed_kmh": 80.0}}, {"type": "Feature", "geometry": {"type": "LineString", "coordinates": [[10.9282653, 63.4468148], [10.9296196, 63.4471376], [10.9307232, 63.4473956], [10.9316084, 63.4475868], [10.9323482, 63.4477352], [10.933199, 63.4478917], [10.9332573, 63.4479013], [10.9338579, 63.4480029], [10.934339, 63.4480784], [10.935081, 63.4481873], [10.9355793, 63.4482542], [10.9365536, 63.4483737], [10.9375963, 63.4484825], [10.9381791, 63.4485353], [10.9387701, 63.4485838], [10.9394004, 63.4486292], [10.9399754, 63.4486647], [10.9407517, 63.4487042], [10.9412762, 63.4487255], [10.9418723, 63.4487447], [10.9422569, 63.448752], [10.9429207, 63.4487635], [10.9435059, 63.4487674], [10.943991, 63.4487663], [10.9449573, 63.4487536], [10.9454007, 63.4487431], [10.9463354, 63.4487109], [10.9473799, 63.4486585], [10.9483986, 63.4485906], [10.9495146, 63.4484967], [10.950531, 63.4483914], [10.9513604, 63.4482921], [10.9521893, 63.4481818], [10.9529282, 63.4480721], [10.9532671, 63.4480181], [10.9537996, 63.4479307], [10.954467, 63.4478111], [10.9551833, 63.4476734], [10.9559473, 63.447515], [10.9583965, 63.4469728], [10.9584646, 63.4469547], [10.9598912, 63.446638], [10.9614485, 63.446285], [10.9631389, 63.4459132], [10.9634401, 63.445851], [10.9639238, 63.4457551], [10.9645693, 63.445642], [10.9649893, 63.4455745], [10.9656404, 63.445486], [10.9662093, 63.4454175], [10.9666931, 63.4453681], [10.9672182, 63.4453199], [10.9681054, 63.4452628], [10.9685716, 63.445241], [10.9689667, 63.4452273], [10.9695191, 63.445216], [10.9698628, 63.4452131], [10.9706224, 63.4452209], [10.9710942, 63.4452339], [10.9712394, 63.4452393]]}, "properties": {"electrified": "contact_line", "frequency": "16.67", "gauge": "1435", "maxspeed": "100", "name": "Mer\u00e5kerbanen", "operator": "Bane NOR", "passenger_lines": "1", "railway": "rail", "usage": "main", "voltage": "15000", "length_km": 2.259, "maxspeed_kmh": 100.0}}, {"type": "Feature", "geometry": {"type": "LineString", "coordinates": [[11.7777903, 63.4036653], [11.7787661, 63.4032788], [11.7789581, 63.403209], [11.7791761, 63.4031371], [11.7794815, 63.4030428], [11.7797871, 63.4029567], [11.7802133, 63.4028504], [11.7804533, 63.4027985], [11.7808663, 63.4027192], [11.7811751, 63.4026684], [11.7816782, 63.4025995], [11.7821563, 63.4025492], [11.7843244, 63.4023748], [11.7847133, 63.4023404], [11.785118, 63.4022971], [11.7855369, 63.4022378], [11.7859847, 63.4021582], [11.7864228, 63.4020592], [11.7868835, 63.4019407], [11.7877236, 63.4017075], [11.7881613, 63.4015934], [11.788554, 63.4014996], [11.7888324, 63.4014373], [11.7893023, 63.4013396], [11.7897633, 63.4012518], [11.790505, 63.4011218], [11.7907803, 63.4010769], [11.7913839, 63.4009861], [11.7920939, 63.4008902], [11.7925025, 63.4008412], [11.7928638, 63.4008011], [11.7934006, 63.4007474], [11.7952611, 63.4005825], [11.7959135, 63.4005116], [11.7960876, 63.4004893], [11.796376, 63.4004476], [11.7966436, 63.4004025], [11.7971369, 63.4003093], [11.7976219, 63.4002032], [11.7986397, 63.399965], [11.7989617, 63.3998978], [11.7993585, 63.3998217], [11.7995471, 63.3997924], [11.7998444, 63.3997532], [11.8003178, 63.3997024], [11.8007751, 63.3996721], [11.8010225, 63.3996603], [11.8013293, 63.3996533], [11.8016, 63.3996543], [11.8019789, 63.399663], [11.8022748, 63.3996732]]}, "properties": {"electrified": "contact_line", "frequency": "16.67", "gauge": "1435", "maxspeed": "70", "name": "Mer\u00e5kerbanen", "operator": "Bane NOR", "passenger_lines": "1", "railway": "rail", "usage": "main", "voltage": "15000", "length_km": 1.322, "maxspeed_kmh": 70.0}}, {"type": "Feature", "geometry": {"type": "LineString", "coordinates": [[11.555377, 63.4561674], [11.5558687, 63.4561146], [11.5572316, 63.4560055], [11.5618373, 63.4556501], [11.5625434, 63.4555913], [11.5632374, 63.4555246], [11.564113, 63.4554295], [11.5647531, 63.4553525], [11.5654329, 63.4552642], [11.5662133, 63.4551517], [11.5672367, 63.4549965], [11.574924, 63.4538217], [11.57608, 63.4536409], [11.5769034, 63.4534951], [11.5775293, 63.4533697], [11.5783616, 63.4531852], [11.5788905, 63.4530545], [11.5794002, 63.4529198], [11.5797896, 63.4528098], [11.5802845, 63.4526606], [11.5809706, 63.4524389], [11.5815659, 63.4522245], [11.5818506, 63.4521174], [11.5822475, 63.4519593], [11.5827949, 63.4517262], [11.5831648, 63.4515577], [11.5835378, 63.451378], [11.5838695, 63.4512084], [11.584203, 63.4510291], [11.5845876, 63.4508061], [11.5849641, 63.4505738], [11.5859858, 63.449894], [11.5862413, 63.449737], [11.5864458, 63.4496195], [11.5867972, 63.4494318], [11.5873249, 63.4491772], [11.5877483, 63.4489929], [11.5883055, 63.4487809], [11.5888368, 63.4485986], [11.5893464, 63.4484408], [11.5900647, 63.4482303], [11.5962677, 63.446458], [11.6008483, 63.4451418], [11.6011957, 63.445042], [11.6023092, 63.444725], [11.6026274, 63.4446378], [11.6031465, 63.4445025], [11.6033691, 63.4444489], [11.6038262, 63.4443459], [11.6042726, 63.444256], [11.604499, 63.4442135], [11.6049804, 63.4441331], [11.60545, 63.4440629], [11.6057644, 63.4440223], [11.6062401, 63.4439644]]}, "properties": {"electrified": "contact_line", "frequency": "16.67", "gauge": "1435", "name": "Mer\u00e5kerbanen", "operator": "Bane NOR", "passenger_lines": "1", "railway": "rail", "usage": "main", "voltage": "15000", "length_km": 2.95}}, {"type": "Feature", "geometry": {"type": "LineString", "coordinates": [[11.6601781, 63.4443192], [11.6605187, 63.4443166], [11.6609965, 63.4443267], [11.6612051, 63.444335], [11.6614998, 63.4443522], [11.6617908, 63.4443774], [11.6622154, 63.4444248], [11.662544, 63.4444702], [11.6632461, 63.4445987], [11.6642464, 63.4448088], [11.6649104, 63.4449382], [11.6652612, 63.4449998], [11.6655704, 63.4450499], [11.6658654, 63.445092], [11.6662257, 63.4451399], [11.6668996, 63.4452178], [11.6695689, 63.445482], [11.67084, 63.4456113], [11.6720679, 63.4457302], [11.6725523, 63.4457728], [11.67294, 63.4457976], [11.6734643, 63.4458181], [11.6737553, 63.4458211], [11.6740686, 63.4458181], [11.6744181, 63.4458051], [11.6747679, 63.4457829], [11.6751229, 63.4457525], [11.6755884, 63.4456965], [11.6759693, 63.4456426], [11.6764238, 63.4455711], [11.6768575, 63.4455011]]}, "properties": {"electrified": "contact_line", "frequency": "16.67", "gauge": "1435", "maxspeed": "70", "name": "Mer\u00e5kerbanen", "operator": "Bane NOR", "passenger_lines": "1", "railway": "rail", "usage": "main", "voltage": "15000", "length_km": 0.862, "maxspeed_kmh": 70.0}}, {"type": "Feature", "geometry": {"type": "LineString", "coordinates": [[11.6241004, 63.4437199], [11.6261151, 63.4437084]]}, "properties": {"bridge": "yes", "electrified": "contact_line", "frequency": "16.67", "gauge": "1435", "maxspeed": "90", "name": "Mer\u00e5kerbanen", "operator": "Bane NOR", "passenger_lines": "1", "railway": "rail", "usage": "main", "voltage": "15000", "length_km": 0.101, "maxspeed_kmh": 90.0}}, {"type": "Feature", "geometry": {"type": "LineString", "coordinates": [[11.6969746, 63.4441694], [11.69721, 63.4441359]]}, "properties": {"bridge": "yes", "electrified": "contact_line", "frequency": "16.67", "gauge": "1435", "maxspeed": "90", "name": "Mer\u00e5kerbanen", "operator": "Bane NOR", "passenger_lines": "1", "railway": "rail", "usage": "main", "voltage": "15000", "length_km": 0.012, "maxspeed_kmh": 90.0}}, {"type": "Feature", "geometry": {"type": "LineString", "coordinates": [[11.7157398, 63.4376771], [11.7165014, 63.437227], [11.7166588, 63.437142], [11.7169602, 63.436993], [11.7172149, 63.4368836], [11.7176601, 63.4367183], [11.717999, 63.4366134], [11.7182613, 63.4365415], [11.7184435, 63.4364966], [11.7189268, 63.436392], [11.7194045, 63.4363091], [11.7199834, 63.4362361], [11.7204066, 63.4362007], [11.7207422, 63.4361804], [11.7212503, 63.4361668], [11.7216709, 63.4361692], [11.7219932, 63.4361796], [11.7221573, 63.4361884], [11.7223825, 63.4362013], [11.7226157, 63.4362214], [11.7230006, 63.4362622], [11.7234797, 63.4363293], [11.7237853, 63.4363839], [11.724021, 63.4364307], [11.7242989, 63.4364927], [11.7249056, 63.4366431], [11.7279121, 63.4374224], [11.7282908, 63.4375092], [11.7285354, 63.4375585], [11.7289649, 63.4376331], [11.7292545, 63.4376727], [11.7295423, 63.4377066], [11.7297802, 63.4377294], [11.7300585, 63.4377503], [11.7306445, 63.4377763], [11.7312483, 63.4377755], [11.7315194, 63.4377666], [11.731915, 63.4377444], [11.7324278, 63.4376974], [11.7327975, 63.4376518], [11.7330809, 63.4376098], [11.7343886, 63.4373865], [11.7347405, 63.4373309], [11.7351205, 63.4372762], [11.7355504, 63.4372199], [11.7358892, 63.4371809], [11.7365, 63.4371226], [11.7369794, 63.4370877], [11.7375715, 63.4370522], [11.7407421, 63.4368834], [11.7412242, 63.436851], [11.7415878, 63.4368212], [11.7421002, 63.4367624], [11.742458, 63.4367077], [11.7427963, 63.4366471], [11.7432727, 63.4365426], [11.7436119, 63.4364554], [11.7439742, 63.4363453], [11.7444013, 63.4361959], [11.7446803, 63.4360823]]}, "properties": {"electrified": "contact_line", "frequency": "16.67", "gauge": "1435", "name": "Mer\u00e5kerbanen", "operator": "Bane NOR", "passenger_lines": "1", "railway": "rail", "usage": "main", "voltage": "15000", "length_km": 1.582}}, {"type": "Feature", "geometry": {"type": "LineString", "coordinates": [[11.8413526, 63.4001235], [11.8416281, 63.3999602]]}, "properties": {"bridge": "yes", "electrified": "contact_line", "frequency": "16.67", "gauge": "1435", "maxspeed": "80", "name": "Mer\u00e5kerbanen", "operator": "Bane NOR", "passenger_lines": "1", "railway": "rail", "usage": "main", "voltage": "15000", "length_km": 0.023, "maxspeed_kmh": 80.0}}, {"type": "Feature", "geometry": {"type": "LineString", "coordinates": [[11.0927318, 63.4602614], [11.0929258, 63.460287]]}, "properties": {"bridge": "yes", "electrified": "contact_line", "frequency": "16.67", "gauge": "1435", "maxspeed": "100", "name": "Mer\u00e5kerbanen", "operator": "Bane NOR", "passenger_lines": "1", "railway": "rail", "usage": "main", "voltage": "15000", "length_km": 0.01, "maxspeed_kmh": 100.0}}, {"type": "Feature", "geometry": {"type": "LineString", "coordinates": [[11.0999603, 63.4610074], [11.1004338, 63.4610289], [11.100784, 63.4610378], [11.1010788, 63.4610425], [11.1034206, 63.4610739], [11.1057813, 63.4611069], [11.1063588, 63.4611137], [11.1069222, 63.4611152], [11.1074123, 63.4611078], [11.1078967, 63.4610939], [11.1088138, 63.4610558], [11.1096374, 63.4610129], [11.1105953, 63.4609545], [11.1108018, 63.4609407], [11.1111554, 63.460915]]}, "properties": {"electrified": "contact_line", "frequency": "16.67", "gauge": "1435", "maxspeed": "75", "name": "Mer\u00e5kerbanen", "operator": "Bane NOR", "passenger_lines": "1", "railway": "rail", "usage": "main", "voltage": "15000", "length_km": 0.56, "maxspeed_kmh": 75.0}}, {"type": "Feature", "geometry": {"type": "LineString", "coordinates": [[11.6062401, 63.4439644], [11.6065156, 63.443936]]}, "properties": {"bridge": "yes", "electrified": "contact_line", "frequency": "16.67", "gauge": "1435", "name": "Mer\u00e5kerbanen", "operator": "Bane NOR", "passenger_lines": "1", "railway": "rail", "usage": "main", "voltage": "15000", "length_km": 0.014}}, {"type": "Feature", "geometry": {"type": "LineString", "coordinates": [[11.6065156, 63.443936], [11.6069555, 63.4438976], [11.6075823, 63.4438551], [11.6082541, 63.4438219], [11.6085897, 63.4438135], [11.6093532, 63.4438027], [11.6115631, 63.4437898], [11.6124121, 63.4437844]]}, "properties": {"electrified": "contact_line", "frequency": "16.67", "gauge": "1435", "name": "Mer\u00e5kerbanen", "operator": "Bane NOR", "passenger_lines": "1", "railway": "rail", "usage": "main", "voltage": "15000", "length_km": 0.295}}, {"type": "Feature", "geometry": {"type": "LineString", "coordinates": [[11.9970781, 63.3661954], [11.9973544, 63.3661442]]}, "properties": {"bridge": "yes", "electrified": "contact_line", "frequency": "16.67", "gauge": "1435", "maxspeed": "80", "name": "Mer\u00e5kerbanen", "operator": "Bane NOR", "passenger_lines": "1", "railway": "rail", "usage": "main", "voltage": "15000", "length_km": 0.015, "maxspeed_kmh": 80.0}}, {"type": "Feature", "geometry": {"type": "LineString", "coordinates": [[12.0312807, 63.3620641], [12.0314171, 63.3619538], [12.031623, 63.3617439], [12.0316981, 63.361659], [12.0318458, 63.3614472], [12.0319035, 63.3613496], [12.0319866, 63.3611639], [12.0320155, 63.3610778], [12.0320383, 63.3609943], [12.0320678, 63.3608314], [12.0320742, 63.3606495], [12.0320688, 63.3605646], [12.0320082, 63.3602909], [12.0319563, 63.3601595], [12.0319079, 63.3600671], [12.0318534, 63.3599706], [12.0317865, 63.3598734], [12.0316787, 63.3597336], [12.0310849, 63.3590669], [12.0308979, 63.3588039], [12.0307564, 63.3585451], [12.0306613, 63.3583082], [12.0306069, 63.3581267], [12.0305934, 63.3580817], [12.0305539, 63.3578225], [12.030551, 63.3575794], [12.0305616, 63.3574501], [12.0306106, 63.357186], [12.0307233, 63.3568716], [12.0308192, 63.3566696], [12.0309297, 63.3564824], [12.0311439, 63.3561933], [12.0314158, 63.3558922], [12.031781, 63.3555257]]}, "properties": {"electrified": "contact_line", "frequency": "16.67", "gauge": "1435", "maxspeed": "80", "name": "Mer\u00e5kerbanen", "operator": "Bane NOR", "passenger_lines": "1", "railway": "rail", "usage": "main", "voltage": "15000", "length_km": 0.757, "maxspeed_kmh": 80.0}}, {"type": "Feature", "geometry": {"type": "LineString", "coordinates": [[10.8861616, 63.4451935], [10.8863409, 63.4452173], [10.8864755, 63.4452349], [10.8866236, 63.4452506], [10.8869597, 63.4452829], [10.8871803, 63.4453057], [10.8873082, 63.445321], [10.8875797, 63.4453597], [10.8879509, 63.4454146], [10.8880699, 63.4454322], [10.8883055, 63.4454681], [10.8885472, 63.4455011], [10.8893165, 63.4456018], [10.8898945, 63.4456758], [10.8906728, 63.4457623], [10.8914581, 63.4458347], [10.891853, 63.4458657], [10.8923484, 63.4458994], [10.8932753, 63.4459463], [10.8955254, 63.4460356], [10.898066, 63.4461377], [10.8981786, 63.4461408]]}, "properties": {"electrified": "contact_line", "frequency": "16.67", "gauge": "1435", "maxspeed": "60", "name": "Mer\u00e5kerbanen", "operator": "Bane NOR", "railway": "rail", "usage": "main", "voltage": "15000", "length_km": 0.611, "maxspeed_kmh": 60.0}}, {"type": "Feature", "geometry": {"type": "LineString", "coordinates": [[11.6124121, 63.4437844], [11.6127922, 63.4437717], [11.6130128, 63.4437591], [11.613261, 63.4437432], [11.6134581, 63.4437348], [11.6136526, 63.4437321], [11.613957, 63.4437294], [11.6170107, 63.4437144], [11.6180152, 63.4437072], [11.6191416, 63.4437027], [11.6208355, 63.4436943], [11.6210581, 63.4436937], [11.6210964, 63.4436937], [11.6212137, 63.4436964], [11.6213954, 63.4437033], [11.6215476, 63.4437108], [11.6217428, 63.4437198], [11.621901, 63.4437243], [11.6223327, 63.443729]]}, "properties": {"electrified": "contact_line", "frequency": "16.67", "gauge": "1435", "maxspeed": "40", "name": "Mer\u00e5kerbanen", "passenger_lines": "1", "railway": "rail", "service": "siding", "voltage": "15000", "length_km": 0.496, "maxspeed_kmh": 40.0}}, {"type": "Feature", "geometry": {"type": "LineString", "coordinates": [[10.9000683, 63.4462156], [10.9009326, 63.4462492], [10.9013328, 63.4462599], [10.9017336, 63.4462636], [10.9021345, 63.4462602], [10.9025347, 63.4462498], [10.9029339, 63.4462326], [10.9032091, 63.4462185]]}, "properties": {"electrified": "contact_line", "frequency": "16.67", "gauge": "1435", "name": "Mer\u00e5kerbanen", "operator": "Bane NOR", "passenger_lines": "1", "railway": "rail", "usage": "main", "voltage": "15000", "length_km": 0.157}}, {"type": "Feature", "geometry": {"type": "LineString", "coordinates": [[11.7585743, 63.4304091], [11.7586853, 63.4304131]]}, "properties": {"bridge": "yes", "electrified": "contact_line", "frequency": "16.67", "gauge": "1435", "name": "Mer\u00e5kerbanen", "operator": "Bane NOR", "passenger_lines": "1", "railway": "rail", "usage": "main", "voltage": "15000", "length_km": 0.006}}, {"type": "Feature", "geometry": {"type": "LineString", "coordinates": [[11.7480741, 63.4321415], [11.748178, 63.431991], [11.7483196, 63.4318055], [11.7484239, 63.4316858], [11.7485901, 63.4315263], [11.7487081, 63.4314252], [11.749032, 63.4311875], [11.7494577, 63.4309444], [11.7496574, 63.4308487], [11.7499302, 63.4307281], [11.7501366, 63.4306456], [11.7504176, 63.4305472], [11.7506166, 63.4304838], [11.7509163, 63.4303957], [11.7512723, 63.430304], [11.7518368, 63.4301876], [11.7521729, 63.4301334], [11.7524302, 63.4300966], [11.7527142, 63.4300633], [11.7531795, 63.4300207], [11.7534436, 63.4300024], [11.7537536, 63.4299898], [11.7541376, 63.4299833], [11.7543961, 63.4299856], [11.7546969, 63.4299928], [11.754956, 63.4300063], [11.7552185, 63.430025], [11.7554334, 63.4300433], [11.7556449, 63.4300636], [11.756027, 63.4301123], [11.7566015, 63.4301924], [11.7571449, 63.4302734], [11.7575435, 63.4303251], [11.7580276, 63.4303752], [11.7583847, 63.4304005], [11.7585743, 63.4304091]]}, "properties": {"electrified": "contact_line", "frequency": "16.67", "gauge": "1435", "name": "Mer\u00e5kerbanen", "operator": "Bane NOR", "passenger_lines": "1", "railway": "rail", "usage": "main", "voltage": "15000", "length_km": 0.644}}, {"type": "Feature", "geometry": {"type": "LineString", "coordinates": [[11.7651323, 63.4284166], [11.7651671, 63.4283631]]}, "properties": {"bridge": "yes", "electrified": "contact_line", "frequency": "16.67", "gauge": "1435", "name": "Mer\u00e5kerbanen", "operator": "Bane NOR", "passenger_lines": "1", "railway": "rail", "usage": "main", "voltage": "15000", "length_km": 0.006}}, {"type": "Feature", "geometry": {"type": "LineString", "coordinates": [[11.7586853, 63.4304131], [11.7589237, 63.4304187], [11.7591718, 63.4304198], [11.7595002, 63.4304147], [11.7597902, 63.4304031], [11.7601702, 63.4303803], [11.7603939, 63.4303605], [11.7605959, 63.4303409], [11.7610537, 63.4302809], [11.7612891, 63.4302448], [11.7616773, 63.4301759], [11.7622586, 63.4300431], [11.7626812, 63.4299234], [11.7629812, 63.4298257], [11.7632207, 63.4297373], [11.7634982, 63.4296235], [11.7637467, 63.4295097], [11.7640749, 63.429334], [11.7643236, 63.4291793], [11.7644605, 63.4290849], [11.764656, 63.4289309], [11.7648269, 63.4287782], [11.7649317, 63.4286712], [11.7650482, 63.4285339], [11.7651323, 63.4284166]]}, "properties": {"electrified": "contact_line", "frequency": "16.67", "gauge": "1435", "name": "Mer\u00e5kerbanen", "operator": "Bane NOR", "passenger_lines": "1", "railway": "rail", "usage": "main", "voltage": "15000", "length_km": 0.422}}, {"type": "Feature", "geometry": {"type": "LineString", "coordinates": [[10.898412, 63.4460819], [10.900071, 63.4460778], [10.9021591, 63.446073], [10.9025359, 63.4460732], [10.9051908, 63.4460704], [10.9053354, 63.4460704], [10.9057243, 63.4460717], [10.9059396, 63.4460683], [10.9061757, 63.4460629], [10.9063916, 63.4460545]]}, "properties": {"electrified": "no", "maxspeed": "40", "name": "Mer\u00e5kerbanen", "railway": "rail", "service": "spur", "length_km": 0.398, "maxspeed_kmh": 40.0}}, {"type": "Feature", "geometry": {"type": "LineString", "coordinates": [[11.4574554, 63.4612974], [11.4574941, 63.4615128], [11.4575484, 63.4617126], [11.4575836, 63.4618147], [11.4576847, 63.4620312], [11.4578393, 63.4622768], [11.4579325, 63.4623993], [11.4580456, 63.462532], [11.4582668, 63.4627562], [11.4585074, 63.4629634], [11.4588381, 63.4632014], [11.4590518, 63.4633354], [11.4593198, 63.4634854], [11.4595432, 63.4635999], [11.4598007, 63.4637208], [11.4600759, 63.4638381], [11.4603646, 63.4639489], [11.46082, 63.4641043], [11.4612306, 63.4642248], [11.4617254, 63.4643487], [11.4619433, 63.4643969], [11.462529, 63.4645107], [11.4628787, 63.4645655], [11.463181, 63.4646067], [11.4635073, 63.4646453], [11.4637803, 63.464672], [11.464135, 63.4647001], [11.4646003, 63.4647296], [11.4650342, 63.4647526], [11.465474, 63.4647738], [11.4663379, 63.4648035], [11.4672815, 63.4648189], [11.4676983, 63.4648222], [11.4682373, 63.4648201], [11.468964, 63.4648114], [11.469977, 63.4647824], [11.470736, 63.4647646], [11.4709455, 63.464761], [11.4714015, 63.4647603], [11.4718034, 63.464765], [11.4720214, 63.4647721], [11.4724875, 63.4647985], [11.4728239, 63.4648233], [11.4732971, 63.4648633], [11.4737274, 63.4649066]]}, "properties": {"electrified": "contact_line", "frequency": "16.67", "gauge": "1435", "maxspeed": "80", "name": "Mer\u00e5kerbanen", "operator": "Bane NOR", "passenger_lines": "1", "railway": "rail", "usage": "main", "voltage": "15000", "length_km": 1.028, "maxspeed_kmh": 80.0}}, {"type": "Feature", "geometry": {"type": "LineString", "coordinates": [[11.4093466, 63.4551796], [11.4096662, 63.4551756], [11.4099017, 63.4551773], [11.4102844, 63.4551896], [11.4105902, 63.4552088], [11.4108564, 63.4552313], [11.4111349, 63.4552618], [11.411523, 63.4553154], [11.4118427, 63.4553702], [11.4121476, 63.4554329], [11.4124175, 63.4554974], [11.4126744, 63.455567], [11.412927, 63.4556431], [11.4132669, 63.4557596], [11.4136084, 63.4558859], [11.4143547, 63.4561789], [11.4154301, 63.4565905], [11.4157084, 63.456688], [11.4159488, 63.4567667], [11.4161636, 63.4568316], [11.4164155, 63.4568985], [11.4166487, 63.4569541], [11.4169171, 63.4570122], [11.4173845, 63.4571], [11.4175935, 63.457133], [11.418011, 63.4571864], [11.4182248, 63.4572081], [11.4184664, 63.4572277], [11.4187111, 63.4572426], [11.4191854, 63.4572581], [11.4194446, 63.4572599], [11.4197507, 63.4572586], [11.4199874, 63.4572521], [11.4202502, 63.4572391], [11.4205262, 63.4572208], [11.4209898, 63.4571835], [11.4215824, 63.4571297]]}, "properties": {"electrified": "contact_line", "frequency": "16.67", "gauge": "1435", "maxspeed": "70", "name": "Mer\u00e5kerbanen", "operator": "Bane NOR", "passenger_lines": "1", "railway": "rail", "usage": "main", "voltage": "15000", "length_km": 0.679, "maxspeed_kmh": 70.0}}, {"type": "Feature", "geometry": {"type": "LineString", "coordinates": [[11.1792861, 63.4589229], [11.1795642, 63.4587254], [11.1812019, 63.457537], [11.1815096, 63.4573229], [11.18183, 63.4571111], [11.1821825, 63.4568948], [11.182604, 63.4566508], [11.1830427, 63.4564135], [11.1832608, 63.4563045], [11.1838334, 63.4560311], [11.1841763, 63.4558782], [11.1847103, 63.4556552], [11.185033, 63.4555275], [11.185332, 63.4554151], [11.1857366, 63.4552684], [11.1862368, 63.4550948], [11.1888503, 63.4542], [11.1890979, 63.4541151], [11.1895623, 63.4539489], [11.1898485, 63.4538382], [11.1901214, 63.4537235], [11.1903376, 63.4536223], [11.1905876, 63.4534969], [11.1907817, 63.4533904], [11.1910563, 63.4532211], [11.1912204, 63.4531107], [11.1914861, 63.4529053], [11.191621, 63.4527902], [11.1917658, 63.4526512], [11.19194, 63.4524576], [11.192094, 63.4522522], [11.1921598, 63.4521477], [11.1922708, 63.4519326], [11.1923513, 63.4517261], [11.1923816, 63.4516139], [11.1924158, 63.4514154], [11.1924379, 63.4511433], [11.1924447, 63.4506691], [11.1924667, 63.4503511], [11.1925105, 63.4500236], [11.192539, 63.4498843]]}, "properties": {"electrified": "contact_line", "frequency": "16.67", "gauge": "1435", "maxspeed": "80", "name": "Mer\u00e5kerbanen", "operator": "Bane NOR", "passenger_lines": "1", "railway": "rail", "usage": "main", "voltage": "15000", "length_km": 1.26, "maxspeed_kmh": 80.0}}, {"type": "Feature", "geometry": {"type": "LineString", "coordinates": [[11.2590297, 63.4402127], [11.263173, 63.4412848], [11.2652095, 63.4418121], [11.2664022, 63.4421246], [11.2676249, 63.4424615], [11.2681005, 63.4426065], [11.2686937, 63.4428038], [11.2692117, 63.4429977], [11.2699565, 63.4433076], [11.2704249, 63.4435222], [11.2709908, 63.443812], [11.2712557, 63.4439533], [11.2715451, 63.4441216], [11.2718455, 63.4443091], [11.2722187, 63.4445633], [11.2725804, 63.4448321], [11.2729204, 63.4451129], [11.2730794, 63.4452513], [11.2734224, 63.4455934], [11.2735669, 63.4457533], [11.2738597, 63.446117], [11.2740799, 63.446442], [11.2742384, 63.4466955], [11.2750042, 63.4479546], [11.2767401, 63.4508054], [11.2799663, 63.4560723]]}, "properties": {"electrified": "contact_line", "frequency": "16.67", "gauge": "1435", "maxspeed": "100", "name": "Mer\u00e5kerbanen", "operator": "Bane NOR", "passenger_lines": "1", "railway": "rail", "usage": "main", "voltage": "15000", "length_km": 2.17, "maxspeed_kmh": 100.0}}, {"type": "Feature", "geometry": {"type": "LineString", "coordinates": [[11.4970288, 63.4641119], [11.4970855, 63.4641004], [11.4976271, 63.4639853], [11.4980761, 63.4638996], [11.4988248, 63.4637646], [11.4998115, 63.4636071], [11.500373, 63.4635314], [11.5008569, 63.4634737], [11.5016541, 63.4633952], [11.5020234, 63.4633664], [11.5028079, 63.4633152], [11.5040779, 63.463249], [11.504969, 63.4632102], [11.5066208, 63.4631491], [11.5081258, 63.4631123], [11.5099854, 63.4630785], [11.5106792, 63.4630459], [11.5114721, 63.4629889], [11.5131146, 63.4628516]]}, "properties": {"electrified": "contact_line", "frequency": "16.67", "gauge": "1435", "maxspeed": "95", "name": "Mer\u00e5kerbanen", "operator": "Bane NOR", "passenger_lines": "1", "railway": "rail", "usage": "main", "voltage": "15000", "length_km": 0.82, "maxspeed_kmh": 95.0}}, {"type": "Feature", "geometry": {"type": "LineString", "coordinates": [[11.0183752, 63.4492898], [11.018984, 63.4493115], [11.0193964, 63.449337], [11.0198224, 63.4493823], [11.0202736, 63.4494435], [11.0206269, 63.4495013], [11.0209695, 63.4495719], [11.0213166, 63.4496525], [11.0215994, 63.4497288], [11.0218979, 63.4498201], [11.0222325, 63.4499364], [11.0225692, 63.4500717], [11.0228122, 63.4501789], [11.0231245, 63.4503259], [11.023968, 63.4507321], [11.0243087, 63.4508787], [11.0248026, 63.4510749], [11.0250759, 63.4511748], [11.0252431, 63.4512326], [11.0258444, 63.4514224], [11.0261272, 63.4515028], [11.0264413, 63.4515856], [11.0270381, 63.4517297], [11.0273474, 63.4517975], [11.0277582, 63.4518771]]}, "properties": {"electrified": "contact_line", "frequency": "16.67", "gauge": "1435", "maxspeed": "70", "name": "Mer\u00e5kerbanen", "operator": "Bane NOR", "passenger_lines": "1", "railway": "rail", "usage": "main", "voltage": "15000", "length_km": 0.563, "maxspeed_kmh": 70.0}}, {"type": "Feature", "geometry": {"type": "LineString", "coordinates": [[11.2799663, 63.4560723], [11.2800368, 63.4561874], [11.2801753, 63.4564066], [11.2803125, 63.4565882], [11.2804124, 63.4567075], [11.2805337, 63.4568364], [11.2807486, 63.4570328], [11.2810202, 63.4572483], [11.2813231, 63.4574488], [11.2816516, 63.4576369], [11.281849, 63.4577406], [11.282294, 63.4579407], [11.2827992, 63.4581364], [11.2830866, 63.4582325], [11.2835621, 63.4583743], [11.2840453, 63.4584952], [11.2844364, 63.4585806], [11.2849536, 63.4586774], [11.2854912, 63.4587542], [11.2860509, 63.4588159], [11.2863128, 63.4588382], [11.2868534, 63.4588713], [11.2873015, 63.4588862], [11.287634, 63.4588901], [11.2882082, 63.4588809], [11.288525, 63.4588685], [11.2888789, 63.4588473], [11.2892571, 63.4588179], [11.2897871, 63.4587633], [11.2905066, 63.4586767], [11.291133, 63.4585876], [11.292063, 63.4584427], [11.2924954, 63.4583672], [11.2931824, 63.4582382], [11.293845, 63.4581027], [11.2944308, 63.45797], [11.2955644, 63.4576904], [11.2960465, 63.4575763], [11.2963876, 63.4575031], [11.2967149, 63.457444], [11.2970379, 63.4573926], [11.2974058, 63.4573459], [11.2977876, 63.4573103], [11.2981403, 63.4572872], [11.298467, 63.4572728], [11.2988212, 63.4572674], [11.2991758, 63.4572701], [11.2999508, 63.4572986], [11.3008391, 63.4573473], [11.301469, 63.4573862]]}, "properties": {"electrified": "contact_line", "frequency": "16.67", "gauge": "1435", "maxspeed": "60", "name": "Mer\u00e5kerbanen", "operator": "Bane NOR", "passenger_lines": "1", "railway": "rail", "usage": "main", "voltage": "15000", "length_km": 1.261, "maxspeed_kmh": 60.0}}, {"type": "Feature", "geometry": {"type": "LineString", "coordinates": [[11.2174335, 63.4394814], [11.2175218, 63.4394499], [11.2177191, 63.4393875], [11.2179878, 63.4393102], [11.2182602, 63.4392381], [11.2185327, 63.4391756], [11.2189608, 63.4390892], [11.2195784, 63.4389807], [11.2199663, 63.4389172], [11.2207955, 63.4387869], [11.2217752, 63.4386393], [11.2226939, 63.4385109], [11.2231928, 63.4384536], [11.2237332, 63.4384099], [11.2239989, 63.4383964], [11.2245719, 63.4383856], [11.2251229, 63.438398], [11.2254062, 63.4384128], [11.2259072, 63.4384541], [11.2261676, 63.4384823], [11.2268291, 63.4385717], [11.2285764, 63.438831], [11.229952, 63.4390008], [11.2306262, 63.4390764], [11.2313749, 63.4391542], [11.2323193, 63.4392484], [11.2334562, 63.4393523], [11.2342212, 63.439414], [11.2347199, 63.4394425], [11.2349348, 63.4394491], [11.2353456, 63.4394549], [11.2356916, 63.4394511], [11.2361734, 63.4394295], [11.2367399, 63.4393801], [11.2372103, 63.4393185], [11.2374749, 63.4392759], [11.2377335, 63.439228], [11.2381798, 63.4391321], [11.2384724, 63.4390634], [11.2400621, 63.4386647], [11.2404736, 63.4385644]]}, "properties": {"electrified": "contact_line", "frequency": "16.67", "gauge": "1435", "maxspeed": "70", "name": "Mer\u00e5kerbanen", "operator": "Bane NOR", "passenger_lines": "1", "railway": "rail", "usage": "main", "voltage": "15000", "length_km": 1.211, "maxspeed_kmh": 70.0}}, {"type": "Feature", "geometry": {"type": "LineString", "coordinates": [[10.9915514, 63.4473888], [10.9920638, 63.447513], [10.9926156, 63.4476529], [10.9929502, 63.4477388], [10.9932004, 63.4478062], [10.9934066, 63.447858], [10.9936305, 63.4479108], [10.993777, 63.4479447], [10.9942532, 63.4480481], [10.994954, 63.4481751], [10.9957346, 63.4482978], [10.9964373, 63.4483998], [10.9970751, 63.4484863], [10.9971954, 63.4485054], [10.9977169, 63.4485718], [10.9984467, 63.4486618], [10.9992567, 63.448755], [10.9996729, 63.4487981], [11.0003818, 63.4488644], [11.0011349, 63.4489231], [11.0017552, 63.4489652], [11.0020278, 63.4489803], [11.0030683, 63.4490292], [11.0034795, 63.4490421], [11.0038012, 63.4490516], [11.0050021, 63.4490723], [11.0055628, 63.4490815], [11.0060078, 63.4490888], [11.0068282, 63.4491029], [11.0077288, 63.449117], [11.0099955, 63.4491569], [11.0117012, 63.4491817], [11.0164204, 63.4492553], [11.0171801, 63.4492708], [11.0181705, 63.4492851], [11.0183752, 63.4492898]]}, "properties": {"electrified": "contact_line", "frequency": "16.67", "gauge": "1435", "maxspeed": "100", "name": "Mer\u00e5kerbanen", "operator": "Bane NOR", "passenger_lines": "1", "railway": "rail", "usage": "main", "voltage": "15000", "length_km": 1.373, "maxspeed_kmh": 100.0}}, {"type": "Feature", "geometry": {"type": "LineString", "coordinates": [[10.9090418, 63.4457719], [10.9100878, 63.4455784], [10.9106149, 63.4454847], [10.9111379, 63.445404], [10.9111971, 63.4453967], [10.9116599, 63.4453398], [10.9121861, 63.4452939], [10.9127138, 63.4452644], [10.9132195, 63.4452511], [10.9132959, 63.4452501], [10.9137599, 63.4452506], [10.9140153, 63.4452548], [10.9144833, 63.4452688], [10.9147366, 63.445281], [10.9150285, 63.4452969], [10.9156437, 63.4453402], [10.9162061, 63.4453947], [10.9164868, 63.4454272], [10.9168173, 63.4454687]]}, "properties": {"electrified": "contact_line", "frequency": "16.67", "gauge": "1435", "maxspeed": "70", "name": "Mer\u00e5kerbanen", "operator": "Bane NOR", "passenger_lines": "1", "railway": "rail", "usage": "main", "voltage": "15000", "length_km": 0.4, "maxspeed_kmh": 70.0}}, {"type": "Feature", "geometry": {"type": "LineString", "coordinates": [[11.7039105, 63.4425271], [11.7041307, 63.442447]]}, "properties": {"bridge": "yes", "electrified": "contact_line", "frequency": "16.67", "gauge": "1435", "maxspeed": "90", "name": "Mer\u00e5kerbanen", "operator": "Bane NOR", "passenger_lines": "1", "railway": "rail", "usage": "main", "voltage": "15000", "length_km": 0.014, "maxspeed_kmh": 90.0}}, {"type": "Feature", "geometry": {"type": "LineString", "coordinates": [[11.6412008, 63.4444107], [11.6432434, 63.444872]]}, "properties": {"electrified": "contact_line", "frequency": "16.67", "gauge": "1435", "maxspeed": "90", "name": "Mer\u00e5kerbanen", "operator": "Bane NOR", "passenger_lines": "1", "railway": "rail", "tunnel": "yes", "usage": "main", "voltage": "15000", "length_km": 0.114, "maxspeed_kmh": 90.0}}, {"type": "Feature", "geometry": {"type": "LineString", "coordinates": [[11.7071104, 63.4412921], [11.7073371, 63.4412049]]}, "properties": {"bridge": "yes", "electrified": "contact_line", "frequency": "16.67", "gauge": "1435", "maxspeed": "90", "name": "Mer\u00e5kerbanen", "operator": "Bane NOR", "passenger_lines": "1", "railway": "rail", "usage": "main", "voltage": "15000", "length_km": 0.015, "maxspeed_kmh": 90.0}}, {"type": "Feature", "geometry": {"type": "LineString", "coordinates": [[11.7041307, 63.442447], [11.7044888, 63.4423161], [11.7071104, 63.4412921]]}, "properties": {"electrified": "contact_line", "frequency": "16.67", "gauge": "1435", "maxspeed": "90", "name": "Mer\u00e5kerbanen", "operator": "Bane NOR", "passenger_lines": "1", "railway": "rail", "usage": "main", "voltage": "15000", "length_km": 0.197, "maxspeed_kmh": 90.0}}, {"type": "Feature", "geometry": {"type": "LineString", "coordinates": [[11.3109345, 63.4584684], [11.3114655, 63.4584788], [11.3124377, 63.458478], [11.3130734, 63.4584678], [11.3138735, 63.458443], [11.3144767, 63.4584156], [11.3149846, 63.4583855], [11.3156595, 63.4583393], [11.3161482, 63.4582997], [11.3167092, 63.4582474], [11.3173052, 63.458185], [11.3176611, 63.4581439], [11.3198481, 63.4578631], [11.3208163, 63.4577344], [11.329091, 63.4566464], [11.3299431, 63.4565413], [11.330478, 63.4564841], [11.3309607, 63.4564403], [11.3314491, 63.4564016], [11.3318273, 63.4563778], [11.3326089, 63.4563393], [11.3331216, 63.4563248], [11.3336102, 63.4563176], [11.3340292, 63.4563172], [11.3348102, 63.4563301], [11.3352534, 63.4563441], [11.3356945, 63.456364], [11.3363022, 63.4564004], [11.3367939, 63.4564379], [11.3373844, 63.4564935], [11.3378742, 63.4565472], [11.3383828, 63.4566103], [11.33887, 63.4566771], [11.3445107, 63.4575082], [11.3457679, 63.4576879], [11.346411, 63.4577706], [11.347582, 63.457908], [11.3482188, 63.457975], [11.3492525, 63.458073], [11.3501384, 63.458146], [11.3502729, 63.4581557], [11.3509988, 63.4582083], [11.3516676, 63.4582512], [11.3526062, 63.4583016], [11.3528369, 63.4583108], [11.3531287, 63.4583254], [11.3541006, 63.4583616], [11.3549204, 63.4583819], [11.355781, 63.4583945], [11.3565888, 63.4583987], [11.3574299, 63.4583969], [11.3580112, 63.4583874], [11.3585082, 63.4583799], [11.3597022, 63.4583455], [11.3604264, 63.4583165], [11.3617381, 63.4582487], [11.3626775, 63.4581873]]}, "properties": {"electrified": "contact_line", "frequency": "16.67", "gauge": "1435", "maxspeed": "100", "name": "Mer\u00e5kerbanen", "operator": "Bane NOR", "passenger_lines": "1", "railway": "rail", "usage": "main", "voltage": "15000", "length_km": 2.643, "maxspeed_kmh": 100.0}}, {"type": "Feature", "geometry": {"type": "LineString", "coordinates": [[11.7073371, 63.4412049], [11.7124656, 63.4391987], [11.7134849, 63.4387942], [11.7141277, 63.4385147], [11.7144272, 63.4383753], [11.7147804, 63.4382032], [11.7152573, 63.4379543]]}, "properties": {"electrified": "contact_line", "frequency": "16.67", "gauge": "1435", "maxspeed": "90", "name": "Mer\u00e5kerbanen", "operator": "Bane NOR", "passenger_lines": "1", "railway": "rail", "usage": "main", "voltage": "15000", "length_km": 0.537, "maxspeed_kmh": 90.0}}, {"type": "Feature", "geometry": {"type": "LineString", "coordinates": [[11.0929258, 63.460287], [11.0945448, 63.4604958], [11.0952146, 63.4605778], [11.0958436, 63.4606502], [11.0966329, 63.460733], [11.0974447, 63.4608109], [11.0984244, 63.4608942], [11.0992419, 63.4609589], [11.0996591, 63.4609888], [11.0999603, 63.4610074]]}, "properties": {"electrified": "contact_line", "frequency": "16.67", "gauge": "1435", "maxspeed": "100", "name": "Mer\u00e5kerbanen", "operator": "Bane NOR", "passenger_lines": "1", "railway": "rail", "usage": "main", "voltage": "15000", "length_km": 0.36, "maxspeed_kmh": 100.0}}, {"type": "Feature", "geometry": {"type": "LineString", "coordinates": [[11.69721, 63.4441359], [11.6977378, 63.4440552], [11.6984396, 63.4439369], [11.6991006, 63.4438138], [11.6998307, 63.443665], [11.7004961, 63.4435163], [11.7011513, 63.4433552], [11.7018118, 63.4431814], [11.7024007, 63.4430128], [11.7030941, 63.4427995], [11.7035966, 63.4426351], [11.7039105, 63.4425271]]}, "properties": {"electrified": "contact_line", "frequency": "16.67", "gauge": "1435", "maxspeed": "90", "name": "Mer\u00e5kerbanen", "operator": "Bane NOR", "passenger_lines": "1", "railway": "rail", "usage": "main", "voltage": "15000", "length_km": 0.381, "maxspeed_kmh": 90.0}}, {"type": "Feature", "geometry": {"type": "LineString", "coordinates": [[11.301469, 63.4573862], [11.3025148, 63.4574541], [11.3037404, 63.4575466], [11.3041171, 63.4575819], [11.3045337, 63.4576289], [11.3048931, 63.4576764], [11.3054586, 63.4577665], [11.3058785, 63.4578454], [11.3070267, 63.4580788], [11.3075108, 63.4581722], [11.3079605, 63.4582445], [11.3083526, 63.4582992], [11.3086788, 63.4583374], [11.3090053, 63.4583703], [11.309334, 63.4583973], [11.3096714, 63.4584212], [11.3102113, 63.4584472], [11.3106122, 63.4584623], [11.3109345, 63.4584684]]}, "properties": {"electrified": "contact_line", "frequency": "16.67", "gauge": "1435", "maxspeed": "80", "name": "Mer\u00e5kerbanen", "operator": "Bane NOR", "passenger_lines": "1", "railway": "rail", "usage": "main", "voltage": "15000", "length_km": 0.491, "maxspeed_kmh": 80.0}}, {"type": "Feature", "geometry": {"type": "LineString", "coordinates": [[11.1175197, 63.4603266], [11.1292548, 63.4592054], [11.1316196, 63.4589801], [11.1346393, 63.4586953], [11.135357, 63.4586353], [11.1360045, 63.4585919], [11.1362787, 63.458577], [11.1368785, 63.4585505], [11.137714, 63.458529], [11.1381852, 63.4585239], [11.1390238, 63.4585299], [11.1397439, 63.4585458], [11.1407193, 63.4585884], [11.141186, 63.4586166], [11.1421805, 63.4586952], [11.1429118, 63.4587634], [11.1435373, 63.4588291], [11.1440549, 63.4588911], [11.1444261, 63.4589447], [11.1449396, 63.4590272], [11.1458196, 63.4591978], [11.1470341, 63.4594455], [11.1473879, 63.4595143], [11.1480214, 63.459625], [11.1483579, 63.4596772], [11.1491124, 63.4597814], [11.1495512, 63.4598339], [11.1499292, 63.4598738], [11.1502473, 63.459903], [11.1507449, 63.4599426], [11.1510394, 63.4599636], [11.1517131, 63.4600009], [11.1524672, 63.4600275], [11.1528123, 63.4600345], [11.1540637, 63.4600435], [11.1619069, 63.4600566], [11.1711947, 63.4600728], [11.1741986, 63.460078]]}, "properties": {"electrified": "contact_line", "frequency": "16.67", "gauge": "1435", "maxspeed": "95", "name": "Mer\u00e5kerbanen", "operator": "Bane NOR", "passenger_lines": "1", "railway": "rail", "usage": "main", "voltage": "15000", "length_km": 2.873, "maxspeed_kmh": 95.0}}, {"type": "Feature", "geometry": {"type": "LineString", "coordinates": [[11.6768575, 63.4455011], [11.6772912, 63.4454328], [11.6776075, 63.4453865], [11.6780838, 63.4453228], [11.6783719, 63.4452926], [11.6789122, 63.4452434], [11.6793882, 63.4452112], [11.6798582, 63.4451888], [11.6816228, 63.4451232], [11.6870746, 63.4449288], [11.6887742, 63.4448545], [11.689329, 63.4448275], [11.6908103, 63.4447409], [11.6913353, 63.444706], [11.6916304, 63.4446848], [11.6920286, 63.4446565], [11.6931426, 63.4445712], [11.6946416, 63.4444394], [11.695406, 63.4443632], [11.6957584, 63.4443257], [11.6961683, 63.4442761], [11.6969746, 63.4441694]]}, "properties": {"electrified": "contact_line", "frequency": "16.67", "gauge": "1435", "maxspeed": "90", "name": "Mer\u00e5kerbanen", "operator": "Bane NOR", "passenger_lines": "1", "railway": "rail", "usage": "main", "voltage": "15000", "length_km": 1.017, "maxspeed_kmh": 90.0}}, {"type": "Feature", "geometry": {"type": "LineString", "coordinates": [[11.2404736, 63.4385644], [11.2410451, 63.438425], [11.2414234, 63.4383391], [11.2417751, 63.438268], [11.2422472, 63.4381815], [11.2426188, 63.4381195], [11.2432374, 63.4380307], [11.2439074, 63.4379535], [11.2445802, 63.4378923], [11.2457613, 63.4378006], [11.2463912, 63.4377636], [11.2468311, 63.4377472], [11.2472412, 63.4377396], [11.2476565, 63.4377404], [11.2480311, 63.4377504], [11.248491, 63.4377746], [11.2488668, 63.4378035], [11.2492787, 63.4378416], [11.2496641, 63.4378928], [11.2499789, 63.4379383], [11.250524, 63.4380373], [11.2510665, 63.4381553], [11.2516294, 63.4382907]]}, "properties": {"electrified": "contact_line", "frequency": "16.67", "gauge": "1435", "maxspeed": "80", "name": "Mer\u00e5kerbanen", "operator": "Bane NOR", "passenger_lines": "1", "railway": "rail", "usage": "main", "voltage": "15000", "length_km": 0.584, "maxspeed_kmh": 80.0}}, {"type": "Feature", "geometry": {"type": "LineString", "coordinates": [[11.5240964, 63.4616393], [11.5244272, 63.4615947], [11.5246156, 63.4615717], [11.5250873, 63.4615202], [11.5253488, 63.4614969], [11.5255748, 63.4614812], [11.5258525, 63.461468], [11.5261322, 63.4614586], [11.5264311, 63.461457], [11.5267531, 63.4614614], [11.5270394, 63.4614717], [11.5274081, 63.4614923], [11.5281222, 63.4615442], [11.5323156, 63.4618738], [11.5330839, 63.4619257], [11.5334936, 63.4619417], [11.5340091, 63.4619451], [11.5344286, 63.4619328], [11.5346487, 63.4619214], [11.5349969, 63.4618959], [11.5353601, 63.4618578], [11.5357102, 63.4618131], [11.535876, 63.4617888], [11.5361529, 63.4617417], [11.5363858, 63.4616974], [11.5368101, 63.4616025], [11.5370422, 63.4615416], [11.537398, 63.4614373], [11.5375518, 63.4613874], [11.5378603, 63.4612771], [11.5382893, 63.4611102], [11.539472, 63.4606349]]}, "properties": {"electrified": "contact_line", "frequency": "16.67", "gauge": "1435", "maxspeed": "70", "name": "Mer\u00e5kerbanen", "operator": "Bane NOR", "passenger_lines": "1", "railway": "rail", "usage": "main", "voltage": "15000", "length_km": 0.819, "maxspeed_kmh": 70.0}}, {"type": "Feature", "geometry": {"type": "LineString", "coordinates": [[11.2002091, 63.4454319], [11.2040115, 63.4446554], [11.2055692, 63.4443208], [11.206856, 63.4440259], [11.2079432, 63.4437644], [11.209263, 63.4434299], [11.2097756, 63.4432947], [11.2104899, 63.443101], [11.2116726, 63.4427697]]}, "properties": {"electrified": "contact_line", "frequency": "16.67", "gauge": "1435", "maxspeed": "90", "name": "Mer\u00e5kerbanen", "operator": "Bane NOR", "passenger_lines": "1", "railway": "rail", "usage": "main", "voltage": "15000", "length_km": 0.645, "maxspeed_kmh": 90.0}}, {"type": "Feature", "geometry": {"type": "LineString", "coordinates": [[11.6285308, 63.4436964], [11.6293368, 63.4436923], [11.6340617, 63.4436682], [11.6346651, 63.4436663], [11.6354128, 63.4436714], [11.6357819, 63.4436796], [11.6362486, 63.4436969], [11.6365941, 63.4437147], [11.6369839, 63.4437409], [11.6377102, 63.4438038], [11.6381569, 63.4438533], [11.6384509, 63.44389], [11.6390189, 63.4439709], [11.639369, 63.4440282], [11.6395765, 63.444066]]}, "properties": {"electrified": "contact_line", "frequency": "16.67", "gauge": "1435", "maxspeed": "90", "name": "Mer\u00e5kerbanen", "operator": "Bane NOR", "passenger_lines": "1", "railway": "rail", "usage": "main", "voltage": "15000", "length_km": 0.557, "maxspeed_kmh": 90.0}}, {"type": "Feature", "geometry": {"type": "LineString", "coordinates": [[10.9894215, 63.4470534], [10.9899373, 63.4471121], [10.9903745, 63.4471713], [10.9906868, 63.4472198], [10.9908881, 63.4472542], [10.9911968, 63.4473145], [10.9915514, 63.4473888]]}, "properties": {"electrified": "contact_line", "frequency": "16.67", "gauge": "1435", "name": "Mer\u00e5kerbanen", "operator": "Bane NOR", "passenger_lines": "1", "railway": "rail", "usage": "main", "voltage": "15000", "length_km": 0.113}}, {"type": "Feature", "geometry": {"type": "LineString", "coordinates": [[11.6442203, 63.4450862], [11.6447617, 63.4452075], [11.645265, 63.445309], [11.6455919, 63.4453688], [11.6457845, 63.4453996], [11.646161, 63.445453], [11.6463938, 63.445482], [11.6468494, 63.4455277], [11.6471229, 63.4455485], [11.6475463, 63.4455738], [11.6481853, 63.4455915], [11.6486376, 63.4455908], [11.6488421, 63.4455864], [11.6490587, 63.4455799], [11.6494195, 63.4455612], [11.6497254, 63.4455409], [11.6499184, 63.4455242], [11.6503014, 63.4454854], [11.6505159, 63.4454594], [11.6509876, 63.4453926], [11.6514358, 63.4453176], [11.6533965, 63.4449588], [11.6541478, 63.4448289], [11.6545085, 63.4447726], [11.6552852, 63.444662], [11.6555738, 63.4446248], [11.6562923, 63.4445411], [11.6566858, 63.4445017], [11.6570046, 63.4444715], [11.6576337, 63.4444216], [11.6583201, 63.4443781], [11.6589599, 63.4443483], [11.6595903, 63.4443281], [11.6601781, 63.4443192]]}, "properties": {"electrified": "contact_line", "frequency": "16.67", "gauge": "1435", "maxspeed": "80", "name": "Mer\u00e5kerbanen", "operator": "Bane NOR", "passenger_lines": "1", "railway": "rail", "usage": "main", "voltage": "15000", "length_km": 0.827, "maxspeed_kmh": 80.0}}, {"type": "Feature", "geometry": {"type": "LineString", "coordinates": [[11.4506742, 63.4571403], [11.4508874, 63.4571693], [11.4513134, 63.4572347], [11.4515129, 63.4572702], [11.4518616, 63.4573374], [11.4521977, 63.4574121], [11.4524719, 63.4574829], [11.4527806, 63.4575703], [11.4530698, 63.4576595], [11.4533055, 63.4577378], [11.4535683, 63.457835], [11.4540661, 63.4580493], [11.4542532, 63.4581413], [11.4545038, 63.458275], [11.4547342, 63.4584129], [11.455098, 63.4586578], [11.455838, 63.4592094], [11.4563944, 63.45964], [11.4566782, 63.4598679], [11.4568345, 63.4600096], [11.4570277, 63.4602172], [11.4570917, 63.4602965], [11.4571556, 63.4603906], [11.4572505, 63.4605547], [11.4573213, 63.4607204], [11.4573998, 63.4609987], [11.4574554, 63.4612974]]}, "properties": {"electrified": "contact_line", "frequency": "16.67", "gauge": "1435", "maxspeed": "70", "name": "Mer\u00e5kerbanen", "operator": "Bane NOR", "passenger_lines": "1", "railway": "rail", "usage": "main", "voltage": "15000", "length_km": 0.607, "maxspeed_kmh": 70.0}}, {"type": "Feature", "geometry": {"type": "LineString", "coordinates": [[11.1741986, 63.460078], [11.1745035, 63.4600759], [11.1748176, 63.4600714], [11.1754256, 63.4600465], [11.1756801, 63.4600268], [11.1761583, 63.4599731], [11.1764562, 63.4599324], [11.176698, 63.4598907], [11.1769395, 63.4598435], [11.1771463, 63.4597951], [11.1775769, 63.4596842], [11.1777611, 63.4596312], [11.1780019, 63.4595523], [11.1781693, 63.459494], [11.1783277, 63.4594315], [11.1784715, 63.4593705], [11.1787435, 63.4592425], [11.1789866, 63.4591067], [11.1792861, 63.4589229]]}, "properties": {"electrified": "contact_line", "frequency": "16.67", "gauge": "1435", "maxspeed": "70", "name": "Mer\u00e5kerbanen", "operator": "Bane NOR", "passenger_lines": "1", "railway": "rail", "usage": "main", "voltage": "15000", "length_km": 0.298, "maxspeed_kmh": 70.0}}, {"type": "Feature", "geometry": {"type": "LineString", "coordinates": [[11.4215824, 63.4571297], [11.4225264, 63.457047], [11.4231193, 63.4570006], [11.4242734, 63.456922], [11.4254207, 63.4568615], [11.4260924, 63.4568318], [11.4269084, 63.4568043], [11.4276532, 63.4567859], [11.4285417, 63.4567734], [11.4294012, 63.4567695], [11.4302248, 63.4567736], [11.4315091, 63.4567885], [11.4363553, 63.4568536], [11.4487583, 63.4570225]]}, "properties": {"electrified": "contact_line", "frequency": "16.67", "gauge": "1435", "maxspeed": "100", "name": "Mer\u00e5kerbanen", "operator": "Bane NOR", "passenger_lines": "1", "railway": "rail", "usage": "main", "voltage": "15000", "length_km": 1.359, "maxspeed_kmh": 100.0}}, {"type": "Feature", "geometry": {"type": "LineString", "coordinates": [[11.0286748, 63.4520299], [11.0290779, 63.4520859], [11.0293073, 63.4521162], [11.0351772, 63.4528715], [11.0376863, 63.4531955], [11.0441539, 63.4540238], [11.0454749, 63.454194], [11.0537602, 63.4552599], [11.0546256, 63.455374], [11.0592446, 63.4559662], [11.0601144, 63.456075]]}, "properties": {"electrified": "contact_line", "frequency": "16.67", "gauge": "1435", "maxspeed": "100", "name": "Mer\u00e5kerbanen", "operator": "Bane NOR", "passenger_lines": "1", "railway": "rail", "usage": "main", "voltage": "15000", "length_km": 1.632, "maxspeed_kmh": 100.0}}, {"type": "Feature", "geometry": {"type": "LineString", "coordinates": [[11.539472, 63.4606349], [11.5418967, 63.4596606], [11.5423143, 63.4594977], [11.5429194, 63.4592751], [11.5434111, 63.4591057], [11.5442067, 63.4588605], [11.5444871, 63.458779], [11.5450963, 63.4586148], [11.5527984, 63.4566387], [11.5531299, 63.4565599]]}, "properties": {"electrified": "contact_line", "frequency": "16.67", "gauge": "1435", "name": "Mer\u00e5kerbanen", "operator": "Bane NOR", "passenger_lines": "1", "railway": "rail", "usage": "main", "voltage": "15000", "length_km": 0.822}}, {"type": "Feature", "geometry": {"type": "LineString", "coordinates": [[12.0336476, 63.3531801], [12.0337076, 63.3529727], [12.0337652, 63.3527341], [12.0338373, 63.3520897], [12.0338897, 63.351773], [12.0339321, 63.3516026], [12.0340227, 63.3513297], [12.0341598, 63.3510233], [12.0342809, 63.3508088], [12.0344221, 63.3505961], [12.0346011, 63.3503648], [12.0347826, 63.3501569], [12.0349884, 63.3499488], [12.0351975, 63.3497506], [12.035714, 63.3493142], [12.0360337, 63.3490618], [12.0362079, 63.3489286], [12.0364325, 63.3487568], [12.0366101, 63.3486225], [12.0371201, 63.3482639], [12.0378278, 63.3477961], [12.0384362, 63.347425], [12.0387595, 63.347239], [12.0391815, 63.3470189], [12.0396961, 63.3467787], [12.0401144, 63.346601], [12.0410822, 63.3462245], [12.0416547, 63.3459989], [12.0419542, 63.345876], [12.0424551, 63.345653]]}, "properties": {"electrified": "contact_line", "frequency": "16.67", "gauge": "1435", "maxspeed": "90", "name": "Mer\u00e5kerbanen", "operator": "Bane NOR", "passenger_lines": "1", "railway": "rail", "usage": "main", "voltage": "15000", "length_km": 0.982, "maxspeed_kmh": 90.0}}, {"type": "Feature", "geometry": {"type": "LineString", "coordinates": [[11.7651671, 63.4283631], [11.7651957, 63.4283152], [11.7652611, 63.4281951], [11.7652999, 63.428112], [11.7653625, 63.4279303], [11.7654016, 63.4276889], [11.7653976, 63.427454], [11.7653483, 63.4272045], [11.7652559, 63.426976], [11.765142, 63.4267768], [11.7650514, 63.4266517], [11.7648882, 63.4264655], [11.7646449, 63.4262394], [11.7643545, 63.4260242], [11.7642609, 63.4259624], [11.7640048, 63.4258113], [11.7637828, 63.4256907], [11.7631498, 63.4253647], [11.7628824, 63.4252219], [11.7625439, 63.4250256], [11.7623758, 63.4249182], [11.7620412, 63.4246807], [11.7619112, 63.4245842], [11.7617172, 63.4244184], [11.7614448, 63.4241563], [11.7612293, 63.4239069], [11.7610352, 63.4236641], [11.7608715, 63.4234593], [11.7605153, 63.4230001], [11.7597047, 63.4219694], [11.7593787, 63.4215469], [11.7593631, 63.4215266], [11.7589623, 63.4210221], [11.7587612, 63.4207879], [11.7586496, 63.420674], [11.7584255, 63.4204706], [11.7582682, 63.4203433], [11.7581024, 63.4202202], [11.7580053, 63.420148], [11.7577286, 63.419964], [11.7575759, 63.4198689], [11.7574081, 63.4197724], [11.7572108, 63.4196674], [11.7568423, 63.419491], [11.7564951, 63.4193449], [11.7557475, 63.4190427], [11.7554241, 63.4189048], [11.7551086, 63.4187561], [11.7549693, 63.4186855], [11.7548127, 63.4185985], [11.7545957, 63.4184663], [11.7544038, 63.418334], [11.7542369, 63.4182025], [11.7540365, 63.4180175], [11.7539256, 63.4178954], [11.7538129, 63.4177489], [11.7537194, 63.4176062], [11.7536511, 63.4174728], [11.7535839, 63.4173076], [11.7535327, 63.4171127], [11.7535143, 63.4169644], [11.7535185, 63.4167487], [11.7535373, 63.4166297], [11.7535672, 63.416507], [11.7536144, 63.4163706], [11.7536659, 63.4162568], [11.753702, 63.4161929], [11.7537665, 63.4160797], [11.7538894, 63.415911], [11.75403, 63.4157476], [11.7545213, 63.4152429], [11.7546884, 63.4150568], [11.7547409, 63.414992], [11.7548422, 63.4148426], [11.754927, 63.4146847], [11.7549668, 63.4145899], [11.7549993, 63.4145059], [11.7550445, 63.414352], [11.7550915, 63.4141994], [11.7551117, 63.4141034]]}, "properties": {"electrified": "contact_line", "frequency": "16.67", "gauge": "1435", "name": "Mer\u00e5kerbanen", "operator": "Bane NOR", "passenger_lines": "1", "railway": "rail", "usage": "main", "voltage": "15000", "length_km": 1.771}}, {"type": "Feature", "geometry": {"type": "LineString", "coordinates": [[11.8312293, 63.4018664], [11.8315851, 63.4018834], [11.8324653, 63.4019195], [11.8328353, 63.4019313], [11.8331278, 63.4019357], [11.8334826, 63.4019379], [11.8337292, 63.4019337], [11.834016, 63.4019268], [11.8344891, 63.4019064], [11.8351484, 63.4018571], [11.8354686, 63.4018253], [11.8360459, 63.4017564], [11.836555, 63.4016804], [11.8370073, 63.4016008], [11.837476, 63.4015064], [11.8379612, 63.4013955], [11.8384334, 63.4012748], [11.8390264, 63.4011001], [11.8393766, 63.4009856], [11.8397794, 63.4008412], [11.8400967, 63.4007177], [11.8404671, 63.4005619], [11.8407238, 63.4004436], [11.8410224, 63.4002985], [11.8413526, 63.4001235]]}, "properties": {"electrified": "contact_line", "frequency": "16.67", "gauge": "1435", "maxspeed": "80", "name": "Mer\u00e5kerbanen", "operator": "Bane NOR", "passenger_lines": "1", "railway": "rail", "usage": "main", "voltage": "15000", "length_km": 0.569, "maxspeed_kmh": 80.0}}, {"type": "Feature", "geometry": {"type": "LineString", "coordinates": [[11.8022748, 63.3996732], [11.8024785, 63.3996816], [11.8041269, 63.3997627], [11.811075, 63.4001166], [11.8121693, 63.4001798], [11.8131981, 63.4002469], [11.8141131, 63.4003141], [11.8147635, 63.4003664], [11.815738, 63.4004501], [11.816923, 63.4005615], [11.8185329, 63.4007289], [11.8236595, 63.4012809], [11.8247659, 63.4013935], [11.8256117, 63.4014729], [11.826529, 63.4015525], [11.8278354, 63.4016558], [11.8291394, 63.4017474], [11.829537, 63.4017733], [11.8304643, 63.4018269], [11.8312293, 63.4018664]]}, "properties": {"electrified": "contact_line", "frequency": "16.67", "gauge": "1435", "maxspeed": "90", "name": "Mer\u00e5kerbanen", "operator": "Bane NOR", "passenger_lines": "1", "railway": "rail", "usage": "main", "voltage": "15000", "length_km": 1.469, "maxspeed_kmh": 90.0}}, {"type": "Feature", "geometry": {"type": "LineString", "coordinates": [[11.7565855, 63.4111791], [11.7566832, 63.4110717], [11.7568039, 63.4109513], [11.7570787, 63.4106854], [11.7572891, 63.4105017], [11.7576691, 63.41019], [11.757887, 63.4100204], [11.7582002, 63.4097956], [11.7584717, 63.4096116], [11.7588539, 63.4093712], [11.7591221, 63.4092112], [11.7595894, 63.4089511], [11.760035, 63.4087235], [11.7608427, 63.4083348], [11.7615549, 63.4079958], [11.7623401, 63.4076342]]}, "properties": {"electrified": "contact_line", "frequency": "16.67", "gauge": "1435", "maxspeed": "90", "name": "Mer\u00e5kerbanen", "operator": "Bane NOR", "passenger_lines": "1", "railway": "rail", "usage": "main", "voltage": "15000", "length_km": 0.492, "maxspeed_kmh": 90.0}}, {"type": "Feature", "geometry": {"type": "LineString", "coordinates": [[11.6283309, 63.443697], [11.6285308, 63.4436964]]}, "properties": {"bridge": "yes", "electrified": "contact_line", "frequency": "16.67", "gauge": "1435", "maxspeed": "90", "name": "Mer\u00e5kerbanen", "operator": "Bane NOR", "passenger_lines": "1", "railway": "rail", "usage": "main", "voltage": "15000", "length_km": 0.01, "maxspeed_kmh": 90.0}}, {"type": "Feature", "geometry": {"type": "LineString", "coordinates": [[11.6261151, 63.4437084], [11.6283309, 63.443697]]}, "properties": {"electrified": "contact_line", "frequency": "16.67", "gauge": "1435", "maxspeed": "90", "name": "Mer\u00e5kerbanen", "operator": "Bane NOR", "passenger_lines": "1", "railway": "rail", "usage": "main", "voltage": "15000", "length_km": 0.111, "maxspeed_kmh": 90.0}}, {"type": "Feature", "geometry": {"type": "LineString", "coordinates": [[11.7480313, 63.432207], [11.7480741, 63.4321415]]}, "properties": {"bridge": "yes", "electrified": "contact_line", "frequency": "16.67", "gauge": "1435", "name": "Mer\u00e5kerbanen", "operator": "Bane NOR", "passenger_lines": "1", "railway": "rail", "usage": "main", "voltage": "15000", "length_km": 0.008}}, {"type": "Feature", "geometry": {"type": "LineString", "coordinates": [[11.7454527, 63.4356776], [11.7456775, 63.4355199], [11.7458997, 63.4353437], [11.7460381, 63.435214], [11.7461856, 63.4350479], [11.7463028, 63.4348975], [11.7467153, 63.4342719], [11.7469825, 63.433847], [11.7480313, 63.432207]]}, "properties": {"electrified": "contact_line", "frequency": "16.67", "gauge": "1435", "name": "Mer\u00e5kerbanen", "operator": "Bane NOR", "passenger_lines": "1", "railway": "rail", "usage": "main", "voltage": "15000", "length_km": 0.409}}, {"type": "Feature", "geometry": {"type": "LineString", "coordinates": [[11.7446803, 63.4360823], [11.7449574, 63.4359543], [11.7451223, 63.4358686], [11.7452329, 63.4358087], [11.7454527, 63.4356776]]}, "properties": {"bridge": "yes", "electrified": "contact_line", "frequency": "16.67", "gauge": "1435", "name": "Mer\u00e5kerbanen", "operator": "Bane NOR", "passenger_lines": "1", "railway": "rail", "usage": "main", "voltage": "15000", "length_km": 0.059}}, {"type": "Feature", "geometry": {"type": "LineString", "coordinates": [[10.898306, 63.4461458], [10.8988411, 63.4461667], [10.9000683, 63.4462156]]}, "properties": {"electrified": "contact_line", "frequency": "16.67", "gauge": "1435", "name": "Mer\u00e5kerbanen", "operator": "Bane NOR", "railway": "rail", "usage": "main", "voltage": "15000", "length_km": 0.088}}, {"type": "Feature", "geometry": {"type": "LineString", "coordinates": [[10.9063916, 63.4460545], [10.9069169, 63.4460278], [10.907215, 63.4460103], [10.9075115, 63.4459881], [10.9079028, 63.4459491], [10.9083831, 63.4458852], [10.9088522, 63.4458061], [10.9090418, 63.4457719]]}, "properties": {"electrified": "contact_line", "frequency": "16.67", "gauge": "1435", "maxspeed": "60", "name": "Mer\u00e5kerbanen", "operator": "Bane NOR", "passenger_lines": "1", "railway": "rail", "usage": "main", "voltage": "15000", "length_km": 0.137, "maxspeed_kmh": 60.0}}, {"type": "Feature", "geometry": {"type": "LineString", "coordinates": [[10.9032091, 63.4462185], [10.9047327, 63.44614], [10.9063916, 63.4460545]]}, "properties": {"electrified": "contact_line", "frequency": "16.67", "gauge": "1435", "name": "Mer\u00e5kerbanen", "operator": "Bane NOR", "passenger_lines": "1", "railway": "rail", "usage": "main", "voltage": "15000", "length_km": 0.16}}, {"type": "Feature", "geometry": {"type": "LineString", "coordinates": [[10.9169447, 63.4454843], [10.917945, 63.4456073], [10.9182837, 63.4456421], [10.9184327, 63.4456545], [10.9185652, 63.4456656], [10.9188524, 63.445684], [10.9191693, 63.4456963], [10.9195712, 63.4457009], [10.9201114, 63.4456916], [10.9210026, 63.4456697], [10.9215271, 63.4456641], [10.9218079, 63.4456672]]}, "properties": {"electrified": "contact_line", "frequency": "16.67", "gauge": "1435", "maxspeed": "70", "name": "Mer\u00e5kerbanen", "operator": "Bane NOR", "passenger_lines": "1", "railway": "rail", "usage": "main", "voltage": "15000", "length_km": 0.246, "maxspeed_kmh": 70.0}}, {"type": "Feature", "geometry": {"type": "LineString", "coordinates": [[10.9168173, 63.4454687], [10.9169447, 63.4454843]]}, "properties": {"bridge": "yes", "electrified": "contact_line", "frequency": "16.67", "gauge": "1435", "maxspeed": "70", "name": "Mer\u00e5kerbanen", "operator": "Bane NOR", "passenger_lines": "1", "railway": "rail", "usage": "main", "voltage": "15000", "length_km": 0.007, "maxspeed_kmh": 70.0}}, {"type": "Feature", "geometry": {"type": "LineString", "coordinates": [[10.9278037, 63.446705], [10.9282653, 63.4468148]]}, "properties": {"bridge": "yes", "electrified": "contact_line", "frequency": "16.67", "gauge": "1435", "maxspeed": "100", "name": "Mer\u00e5kerbanen", "operator": "Bane NOR", "passenger_lines": "1", "railway": "rail", "usage": "main", "voltage": "15000", "length_km": 0.026, "maxspeed_kmh": 100.0}}, {"type": "Feature", "geometry": {"type": "LineString", "coordinates": [[10.9218079, 63.4456672], [10.9223175, 63.4456826], [10.9226165, 63.4456993], [10.9228865, 63.4457189], [10.9231752, 63.4457466], [10.9234969, 63.4457827], [10.9238628, 63.4458326], [10.9242026, 63.4458873], [10.9245998, 63.4459608], [10.9249335, 63.4460309], [10.9253068, 63.4461157], [10.9273486, 63.446598], [10.9273873, 63.4466071], [10.9278037, 63.446705]]}, "properties": {"electrified": "contact_line", "frequency": "16.67", "gauge": "1435", "maxspeed": "100", "name": "Mer\u00e5kerbanen", "operator": "Bane NOR", "passenger_lines": "1", "railway": "rail", "usage": "main", "voltage": "15000", "length_km": 0.324, "maxspeed_kmh": 100.0}}, {"type": "Feature", "geometry": {"type": "LineString", "coordinates": [[10.8981786, 63.4461408], [10.898306, 63.4461458]]}, "properties": {"electrified": "contact_line", "frequency": "16.67", "gauge": "1435", "name": "Mer\u00e5kerbanen", "operator": "Bane NOR", "railway": "rail", "usage": "main", "voltage": "15000", "length_km": 0.006}}, {"type": "Feature", "geometry": {"type": "LineString", "coordinates": [[10.8820452, 63.4445941], [10.882505, 63.4446612], [10.8831807, 63.4447455], [10.8834683, 63.4447851], [10.8848841, 63.4449996], [10.8861616, 63.4451935]]}, "properties": {"electrified": "contact_line", "frequency": "16.67", "gauge": "1435", "maxspeed": "60", "name": "Mer\u00e5kerbanen", "operator": "Bane NOR", "passenger_lines": "2", "railway": "rail", "usage": "main", "voltage": "15000", "length_km": 0.216, "maxspeed_kmh": 60.0}}, {"type": "Feature", "geometry": {"type": "LineString", "coordinates": [[11.2583148, 63.4400232], [11.2590297, 63.4402127]]}, "properties": {"bridge": "yes", "electrified": "contact_line", "frequency": "16.67", "gauge": "1435", "maxspeed": "100", "name": "Mer\u00e5kerbanen", "operator": "Bane NOR", "passenger_lines": "1", "railway": "rail", "usage": "main", "voltage": "15000", "length_km": 0.041, "maxspeed_kmh": 100.0}}, {"type": "Feature", "geometry": {"type": "LineString", "coordinates": [[11.0602297, 63.45609], [11.0648062, 63.4566782], [11.0664913, 63.4568946], [11.0702027, 63.4573712], [11.0755505, 63.4580578], [11.0791316, 63.4585171], [11.0793952, 63.4585509], [11.0927318, 63.4602614]]}, "properties": {"electrified": "contact_line", "frequency": "16.67", "gauge": "1435", "maxspeed": "100", "name": "Mer\u00e5kerbanen", "operator": "Bane NOR", "passenger_lines": "1", "railway": "rail", "usage": "main", "voltage": "15000", "length_km": 1.687, "maxspeed_kmh": 100.0}}, {"type": "Feature", "geometry": {"type": "LineString", "coordinates": [[11.0601144, 63.456075], [11.0602297, 63.45609]]}, "properties": {"bridge": "yes", "electrified": "contact_line", "frequency": "16.67", "gauge": "1435", "maxspeed": "100", "name": "Mer\u00e5kerbanen", "operator": "Bane NOR", "passenger_lines": "1", "railway": "rail", "usage": "main", "voltage": "15000", "length_km": 0.006, "maxspeed_kmh": 100.0}}, {"type": "Feature", "geometry": {"type": "LineString", "coordinates": [[11.2001002, 63.4454542], [11.2002091, 63.4454319]]}, "properties": {"bridge": "yes", "electrified": "contact_line", "frequency": "16.67", "gauge": "1435", "maxspeed": "90", "name": "Mer\u00e5kerbanen", "operator": "Bane NOR", "passenger_lines": "1", "railway": "rail", "usage": "main", "voltage": "15000", "length_km": 0.006, "maxspeed_kmh": 90.0}}, {"type": "Feature", "geometry": {"type": "LineString", "coordinates": [[11.7565231, 63.4112481], [11.7565855, 63.4111791]]}, "properties": {"bridge": "yes", "electrified": "contact_line", "frequency": "16.67", "gauge": "1435", "maxspeed": "90", "name": "Mer\u00e5kerbanen", "operator": "Bane NOR", "passenger_lines": "1", "railway": "rail", "usage": "main", "voltage": "15000", "length_km": 0.008, "maxspeed_kmh": 90.0}}, {"type": "Feature", "geometry": {"type": "LineString", "coordinates": [[11.7551117, 63.4141034], [11.7552725, 63.4134675], [11.755386, 63.4130864], [11.7555206, 63.4127452], [11.7556475, 63.4124853], [11.755744, 63.4123089], [11.7558907, 63.4120654], [11.756069, 63.4118036], [11.7562988, 63.4115048], [11.756395, 63.4113904], [11.7565231, 63.4112481]]}, "properties": {"electrified": "contact_line", "frequency": "16.67", "gauge": "1435", "maxspeed": "90", "name": "Mer\u00e5kerbanen", "operator": "Bane NOR", "passenger_lines": "1", "railway": "rail", "usage": "main", "voltage": "15000", "length_km": 0.327, "maxspeed_kmh": 90.0}}, {"type": "Feature", "geometry": {"type": "LineString", "coordinates": [[11.8439584, 63.3956838], [11.8439618, 63.3956066]]}, "properties": {"bridge": "yes", "electrified": "contact_line", "frequency": "16.67", "gauge": "1435", "maxspeed": "80", "name": "Mer\u00e5kerbanen", "operator": "Bane NOR", "passenger_lines": "1", "railway": "rail", "usage": "main", "voltage": "15000", "length_km": 0.009, "maxspeed_kmh": 80.0}}, {"type": "Feature", "geometry": {"type": "LineString", "coordinates": [[11.8416281, 63.3999602], [11.8420105, 63.3997115], [11.8422871, 63.3995089], [11.8426035, 63.3992529], [11.8427196, 63.3991455], [11.8430741, 63.3987788], [11.8432177, 63.3985966], [11.8433541, 63.3984085], [11.8434717, 63.398226], [11.8436307, 63.397921], [11.8437814, 63.3975427], [11.8438152, 63.3974376], [11.843852, 63.3972873], [11.8438717, 63.3972069], [11.8439069, 63.3969663], [11.8439406, 63.3965556], [11.8439443, 63.3962564], [11.8439466, 63.3960565], [11.8439552, 63.3957862], [11.8439584, 63.3956838]]}, "properties": {"electrified": "contact_line", "frequency": "16.67", "gauge": "1435", "maxspeed": "80", "name": "Mer\u00e5kerbanen", "operator": "Bane NOR", "passenger_lines": "1", "railway": "rail", "usage": "main", "voltage": "15000", "length_km": 0.501, "maxspeed_kmh": 80.0}}, {"type": "Feature", "geometry": {"type": "LineString", "coordinates": [[12.0131139, 63.3656603], [12.0132118, 63.3656396]]}, "properties": {"bridge": "yes", "electrified": "contact_line", "frequency": "16.67", "gauge": "1435", "maxspeed": "80", "name": "Mer\u00e5kerbanen", "operator": "Bane NOR", "passenger_lines": "1", "railway": "rail", "usage": "main", "voltage": "15000", "length_km": 0.005, "maxspeed_kmh": 80.0}}, {"type": "Feature", "geometry": {"type": "LineString", "coordinates": [[11.9973544, 63.3661442], [11.9976382, 63.3660916], [11.9983838, 63.3659649], [11.9988497, 63.3658925], [11.9991934, 63.3658442], [11.999708, 63.3657862], [11.9998829, 63.3657697], [12.0002228, 63.3657459], [12.0005511, 63.3657279], [12.0010136, 63.3657139], [12.0013026, 63.3657123], [12.0017015, 63.365717], [12.0020515, 63.3657309], [12.0024898, 63.3657545], [12.0031342, 63.3658058], [12.0074931, 63.3661854], [12.0081042, 63.3662291], [12.0085664, 63.3662479], [12.0088298, 63.3662519], [12.0090766, 63.3662511], [12.0092699, 63.3662477], [12.009663, 63.3662315], [12.0100464, 63.366205], [12.0104365, 63.3661653], [12.0107975, 63.3661183], [12.0109701, 63.3660921], [12.0113325, 63.3660293], [12.011763, 63.3659449], [12.0131139, 63.3656603]]}, "properties": {"electrified": "contact_line", "frequency": "16.67", "gauge": "1435", "maxspeed": "80", "name": "Mer\u00e5kerbanen", "operator": "Bane NOR", "passenger_lines": "1", "railway": "rail", "usage": "main", "voltage": "15000", "length_km": 0.813, "maxspeed_kmh": 80.0}}, {"type": "Feature", "geometry": {"type": "LineString", "coordinates": [[11.1173829, 63.4603395], [11.1175197, 63.4603266]]}, "properties": {"bridge": "yes", "electrified": "contact_line", "frequency": "16.67", "gauge": "1435", "maxspeed": "95", "name": "Mer\u00e5kerbanen", "operator": "Bane NOR", "passenger_lines": "1", "railway": "rail", "usage": "main", "voltage": "15000", "length_km": 0.007, "maxspeed_kmh": 95.0}}, {"type": "Feature", "geometry": {"type": "LineString", "coordinates": [[11.1111554, 63.460915], [11.1119396, 63.4608525], [11.1134772, 63.4607126], [11.1173829, 63.4603395]]}, "properties": {"electrified": "contact_line", "frequency": "16.67", "gauge": "1435", "maxspeed": "95", "name": "Mer\u00e5kerbanen", "operator": "Bane NOR", "passenger_lines": "1", "railway": "rail", "usage": "main", "voltage": "15000", "length_km": 0.317, "maxspeed_kmh": 95.0}}, {"type": "Feature", "geometry": {"type": "LineString", "coordinates": [[11.7152573, 63.4379543], [11.7153273, 63.4379171]]}, "properties": {"bridge": "yes", "electrified": "contact_line", "frequency": "16.67", "gauge": "1435", "maxspeed": "90", "name": "Mer\u00e5kerbanen", "operator": "Bane NOR", "passenger_lines": "1", "railway": "rail", "usage": "main", "voltage": "15000", "length_km": 0.005, "maxspeed_kmh": 90.0}}, {"type": "Feature", "geometry": {"type": "LineString", "coordinates": [[11.0277582, 63.4518771], [11.028005, 63.4519227]]}, "properties": {"bridge": "yes", "electrified": "contact_line", "frequency": "16.67", "gauge": "1435", "maxspeed": "70", "name": "Mer\u00e5kerbanen", "operator": "Bane NOR", "passenger_lines": "1", "railway": "rail", "usage": "main", "voltage": "15000", "length_km": 0.013, "maxspeed_kmh": 70.0}}, {"type": "Feature", "geometry": {"type": "LineString", "coordinates": [[11.4091643, 63.4551871], [11.4092521, 63.4551823], [11.4093466, 63.4551796]]}, "properties": {"bridge": "yes", "electrified": "contact_line", "frequency": "16.67", "gauge": "1435", "maxspeed": "70", "name": "Mer\u00e5kerbanen", "operator": "Bane NOR", "passenger_lines": "1", "railway": "rail", "usage": "main", "voltage": "15000", "length_km": 0.009, "maxspeed_kmh": 70.0}}, {"type": "Feature", "geometry": {"type": "LineString", "coordinates": [[11.4056204, 63.4558808], [11.4063554, 63.4556559], [11.4068184, 63.4555283], [11.4072218, 63.4554337], [11.4074486, 63.4553865], [11.407826, 63.4553187], [11.4080506, 63.4552865], [11.4084955, 63.4552348], [11.408861, 63.4552047], [11.4091643, 63.4551871]]}, "properties": {"electrified": "contact_line", "frequency": "16.67", "gauge": "1435", "maxspeed": "70", "name": "Mer\u00e5kerbanen", "operator": "Bane NOR", "passenger_lines": "1", "railway": "rail", "usage": "main", "voltage": "15000", "length_km": 0.196, "maxspeed_kmh": 70.0}}, {"type": "Feature", "geometry": {"type": "LineString", "coordinates": [[11.405485, 63.455921], [11.4056204, 63.4558808]]}, "properties": {"bridge": "yes", "electrified": "contact_line", "frequency": "16.67", "gauge": "1435", "maxspeed": "70", "name": "Mer\u00e5kerbanen", "operator": "Bane NOR", "passenger_lines": "1", "railway": "rail", "usage": "main", "voltage": "15000", "length_km": 0.008, "maxspeed_kmh": 70.0}}, {"type": "Feature", "geometry": {"type": "LineString", "coordinates": [[11.2571474, 63.439727], [11.2583148, 63.4400232]]}, "properties": {"electrified": "contact_line", "frequency": "16.67", "gauge": "1435", "maxspeed": "100", "name": "Mer\u00e5kerbanen", "operator": "Bane NOR", "passenger_lines": "1", "railway": "rail", "usage": "main", "voltage": "15000", "length_km": 0.067, "maxspeed_kmh": 100.0}}, {"type": "Feature", "geometry": {"type": "LineString", "coordinates": [[11.2570167, 63.4396928], [11.2571474, 63.439727]]}, "properties": {"bridge": "yes", "electrified": "contact_line", "frequency": "16.67", "gauge": "1435", "maxspeed": "100", "name": "Mer\u00e5kerbanen", "operator": "Bane NOR", "passenger_lines": "1", "railway": "rail", "usage": "main", "voltage": "15000", "length_km": 0.008, "maxspeed_kmh": 100.0}}, {"type": "Feature", "geometry": {"type": "LineString", "coordinates": [[11.1925491, 63.4498408], [11.1925926, 63.4496733], [11.19268, 63.4493918], [11.1927915, 63.4491082], [11.1928623, 63.4489534], [11.1929636, 63.4487601], [11.1930709, 63.4485779], [11.1931464, 63.4484647], [11.1932553, 63.4483202], [11.193378, 63.4481724], [11.1936591, 63.4478877], [11.1937861, 63.4477725], [11.1939341, 63.4476511], [11.1942373, 63.4474253], [11.1944024, 63.447312], [11.1946327, 63.4471665], [11.1948062, 63.4470667], [11.1951792, 63.446866], [11.1954244, 63.4467478], [11.1957179, 63.4466174], [11.1960398, 63.4464861], [11.1964812, 63.4463248], [11.1970615, 63.4461374], [11.197346, 63.4460572], [11.1978116, 63.4459348], [11.198049, 63.4458788], [11.1986677, 63.4457447], [11.2001002, 63.4454542]]}, "properties": {"electrified": "contact_line", "frequency": "16.67", "gauge": "1435", "maxspeed": "80", "name": "Mer\u00e5kerbanen", "operator": "Bane NOR", "passenger_lines": "1", "railway": "rail", "usage": "main", "voltage": "15000", "length_km": 0.657, "maxspeed_kmh": 80.0}}, {"type": "Feature", "geometry": {"type": "LineString", "coordinates": [[11.192539, 63.4498843], [11.1925491, 63.4498408]]}, "properties": {"bridge": "yes", "electrified": "contact_line", "frequency": "16.67", "gauge": "1435", "maxspeed": "80", "name": "Mer\u00e5kerbanen", "operator": "Bane NOR", "passenger_lines": "1", "railway": "rail", "usage": "main", "voltage": "15000", "length_km": 0.005, "maxspeed_kmh": 80.0}}, {"type": "Feature", "geometry": {"type": "LineString", "coordinates": [[11.2173399, 63.4395147], [11.2174335, 63.4394814]]}, "properties": {"bridge": "yes", "electrified": "contact_line", "frequency": "16.67", "gauge": "1435", "maxspeed": "70", "name": "Mer\u00e5kerbanen", "operator": "Bane NOR", "passenger_lines": "1", "railway": "rail", "usage": "main", "voltage": "15000", "length_km": 0.006, "maxspeed_kmh": 70.0}}, {"type": "Feature", "geometry": {"type": "LineString", "coordinates": [[11.2116726, 63.4427697], [11.2125202, 63.4425201], [11.2128041, 63.4424296], [11.2132784, 63.4422584], [11.2136135, 63.4421202], [11.213815, 63.4420218], [11.2140766, 63.4418828], [11.2141902, 63.4418161], [11.2144056, 63.4416752], [11.214522, 63.4415934], [11.2147265, 63.4414292], [11.2148257, 63.4413381], [11.2150604, 63.4410924], [11.2153229, 63.4407882], [11.2155028, 63.4405941], [11.2155949, 63.4405038], [11.2157183, 63.4403933], [11.2158265, 63.4403057], [11.2159683, 63.4402003], [11.2161144, 63.4401061], [11.216258, 63.4400174], [11.2165543, 63.4398535], [11.2168758, 63.439701], [11.2170313, 63.4396337], [11.2173399, 63.4395147]]}, "properties": {"electrified": "contact_line", "frequency": "16.67", "gauge": "1435", "maxspeed": "70", "name": "Mer\u00e5kerbanen", "operator": "Bane NOR", "passenger_lines": "1", "railway": "rail", "usage": "main", "voltage": "15000", "length_km": 0.47, "maxspeed_kmh": 70.0}}, {"type": "Feature", "geometry": {"type": "LineString", "coordinates": [[11.4505298, 63.4571223], [11.4506742, 63.4571403]]}, "properties": {"bridge": "yes", "electrified": "contact_line", "frequency": "16.67", "gauge": "1435", "maxspeed": "70", "name": "Mer\u00e5kerbanen", "operator": "Bane NOR", "passenger_lines": "1", "railway": "rail", "usage": "main", "voltage": "15000", "length_km": 0.007, "maxspeed_kmh": 70.0}}, {"type": "Feature", "geometry": {"type": "LineString", "coordinates": [[11.5133975, 63.462828], [11.516675, 63.462554], [11.5176531, 63.4624671], [11.5182985, 63.4624047], [11.5192443, 63.4623005], [11.5202481, 63.4621747], [11.5240964, 63.4616393]]}, "properties": {"electrified": "contact_line", "frequency": "16.67", "gauge": "1435", "maxspeed": "95", "name": "Mer\u00e5kerbanen", "operator": "Bane NOR", "passenger_lines": "1", "railway": "rail", "usage": "main", "voltage": "15000", "length_km": 0.55, "maxspeed_kmh": 95.0}}, {"type": "Feature", "geometry": {"type": "LineString", "coordinates": [[11.5131146, 63.4628516], [11.5133975, 63.462828]]}, "properties": {"bridge": "yes", "electrified": "contact_line", "frequency": "16.67", "gauge": "1435", "maxspeed": "95", "name": "Mer\u00e5kerbanen", "operator": "Bane NOR", "passenger_lines": "1", "railway": "rail", "usage": "main", "voltage": "15000", "length_km": 0.014, "maxspeed_kmh": 95.0}}, {"type": "Feature", "geometry": {"type": "LineString", "coordinates": [[11.4968673, 63.4641495], [11.4970288, 63.4641119]]}, "properties": {"bridge": "yes", "electrified": "contact_line", "frequency": "16.67", "gauge": "1435", "maxspeed": "95", "name": "Mer\u00e5kerbanen", "operator": "Bane NOR", "passenger_lines": "1", "railway": "rail", "usage": "main", "voltage": "15000", "length_km": 0.009, "maxspeed_kmh": 95.0}}, {"type": "Feature", "geometry": {"type": "LineString", "coordinates": [[11.4737274, 63.4649066], [11.4793858, 63.4655007], [11.483181, 63.4658982], [11.4835145, 63.465932], [11.4841315, 63.4659866], [11.4846008, 63.4660178], [11.485166, 63.4660447], [11.4858343, 63.4660597], [11.4862252, 63.4660599], [11.4865837, 63.4660553], [11.4872237, 63.4660343], [11.4875843, 63.4660148], [11.4881178, 63.4659766], [11.4887584, 63.4659141], [11.489052, 63.4658814], [11.4893095, 63.465848], [11.4898652, 63.4657661], [11.4904074, 63.4656734], [11.4908088, 63.465596], [11.4918102, 63.4653811], [11.4924085, 63.4652457], [11.4933173, 63.4650306], [11.4940213, 63.4648578], [11.496283, 63.4642891], [11.4968673, 63.4641495]]}, "properties": {"electrified": "contact_line", "frequency": "16.67", "gauge": "1435", "maxspeed": "95", "name": "Mer\u00e5kerbanen", "operator": "Bane NOR", "passenger_lines": "1", "railway": "rail", "usage": "main", "voltage": "15000", "length_km": 1.216, "maxspeed_kmh": 95.0}}, {"type": "Feature", "geometry": {"type": "LineString", "coordinates": [[11.6397763, 63.4441024], [11.6398946, 63.4441239], [11.6402717, 63.4442004], [11.6406471, 63.4442818], [11.6412008, 63.4444107]]}, "properties": {"electrified": "contact_line", "frequency": "16.67", "gauge": "1435", "maxspeed": "90", "name": "Mer\u00e5kerbanen", "operator": "Bane NOR", "passenger_lines": "1", "railway": "rail", "usage": "main", "voltage": "15000", "length_km": 0.079, "maxspeed_kmh": 90.0}}, {"type": "Feature", "geometry": {"type": "LineString", "coordinates": [[11.6395765, 63.444066], [11.6397763, 63.4441024]]}, "properties": {"bridge": "yes", "electrified": "contact_line", "frequency": "16.67", "gauge": "1435", "maxspeed": "90", "name": "Mer\u00e5kerbanen", "operator": "Bane NOR", "passenger_lines": "1", "railway": "rail", "usage": "main", "voltage": "15000", "length_km": 0.011, "maxspeed_kmh": 90.0}}, {"type": "Feature", "geometry": {"type": "LineString", "coordinates": [[11.9285576, 63.3784974], [11.9288178, 63.3784047], [11.9293105, 63.3782381], [11.9311397, 63.3776544], [11.9320766, 63.377371], [11.9328274, 63.3771507], [11.9337167, 63.3768999], [11.9339367, 63.3768427], [11.9343294, 63.376749], [11.9345597, 63.3767007], [11.9348187, 63.3766521], [11.9352642, 63.3765803], [11.9354937, 63.376552], [11.9359522, 63.3765045], [11.9364048, 63.3764759], [11.9368539, 63.376461], [11.9374724, 63.3764634], [11.9377377, 63.3764701], [11.9389768, 63.3765222], [11.939536, 63.376537], [11.9399904, 63.3765358], [11.9404658, 63.3765176], [11.940738, 63.3764997], [11.9410029, 63.3764778], [11.9414487, 63.3764288], [11.941715, 63.3763925], [11.9421201, 63.3763245], [11.9425769, 63.3762305], [11.943062, 63.3761088], [11.9432521, 63.3760515], [11.9435142, 63.3759683], [11.9437562, 63.3758808], [11.9440249, 63.3757739], [11.9442343, 63.3756803], [11.9444263, 63.3755856], [11.9446025, 63.3754879], [11.9448386, 63.3753448], [11.9450766, 63.3751785], [11.9452821, 63.3750109], [11.9455396, 63.3747728], [11.9461556, 63.3741638], [11.9463303, 63.3740108], [11.9464844, 63.3738857], [11.9466842, 63.3737381], [11.9468114, 63.3736513], [11.9470546, 63.3734977], [11.9474825, 63.3732555], [11.9477679, 63.3731017], [11.9487377, 63.3725977], [11.9494217, 63.3722574], [11.9498361, 63.3720582], [11.9503694, 63.3718094], [11.9515185, 63.3712889], [11.951979, 63.3711021], [11.9521986, 63.3710209], [11.9524191, 63.3709467], [11.9528107, 63.3708311], [11.9530413, 63.370773], [11.9533596, 63.3707002], [11.9538289, 63.3706113], [11.9542445, 63.3705515], [11.9545022, 63.3705202], [11.9547328, 63.3704974], [11.9551001, 63.3704693], [11.9554575, 63.3704509], [11.9559794, 63.3704414], [11.9564569, 63.3704494], [11.9568871, 63.3704721], [11.9572389, 63.3704993], [11.9573898, 63.3705146], [11.9579445, 63.370583], [11.9618405, 63.3711591], [11.9626048, 63.3712668], [11.9630323, 63.3713187], [11.9635331, 63.3713704], [11.9639466, 63.3714076], [11.9646929, 63.3714546], [11.9652467, 63.3714763], [11.9655322, 63.371483], [11.9662158, 63.3714888], [11.9668702, 63.3714767], [11.9673634, 63.3714581], [11.9679874, 63.3714197], [11.9687196, 63.3713582], [11.9691501, 63.3713119], [11.9695964, 63.3712566], [11.9699546, 63.3712071], [11.9711588, 63.3710276], [11.9716527, 63.3709617], [11.9721447, 63.370905], [11.9725286, 63.3708724], [11.9728613, 63.3708495], [11.9731938, 63.3708333], [11.9736915, 63.3708235], [11.9743484, 63.3708306], [11.9752321, 63.3708565], [11.9756566, 63.3708651], [11.9760927, 63.3708635], [11.9765614, 63.3708459], [11.9767981, 63.3708318], [11.9772345, 63.3707942], [11.9774452, 63.3707713], [11.977696, 63.3707381], [11.9780799, 63.3706795], [11.978523, 63.3705942], [11.9787619, 63.3705416], [11.9791445, 63.3704551], [11.9882933, 63.3680382], [11.9895081, 63.3677149], [11.9903368, 63.3675053], [11.9912396, 63.3672932], [11.9920878, 63.3671087], [11.9927018, 63.3669843], [11.9932378, 63.3668803], [11.9939275, 63.3667526], [11.9970781, 63.3661954]]}, "properties": {"electrified": "contact_line", "frequency": "16.67", "gauge": "1435", "maxspeed": "80", "name": "Mer\u00e5kerbanen", "operator": "Bane NOR", "passenger_lines": "1", "railway": "rail", "usage": "main", "voltage": "15000", "length_km": 3.949, "maxspeed_kmh": 80.0}}, {"type": "Feature", "geometry": {"type": "LineString", "coordinates": [[11.9283963, 63.3785572], [11.9285576, 63.3784974]]}, "properties": {"bridge": "yes", "electrified": "contact_line", "frequency": "16.67", "gauge": "1435", "maxspeed": "80", "name": "Mer\u00e5kerbanen", "operator": "Bane NOR", "passenger_lines": "1", "railway": "rail", "usage": "main", "voltage": "15000", "length_km": 0.01, "maxspeed_kmh": 80.0}}, {"type": "Feature", "geometry": {"type": "LineString", "coordinates": [[12.0336363, 63.3532142], [12.0336476, 63.3531801]]}, "properties": {"bridge": "yes", "electrified": "contact_line", "frequency": "16.67", "gauge": "1435", "maxspeed": "90", "name": "Mer\u00e5kerbanen", "operator": "Bane NOR", "passenger_lines": "1", "railway": "rail", "usage": "main", "voltage": "15000", "length_km": 0.004, "maxspeed_kmh": 90.0}}, {"type": "Feature", "geometry": {"type": "LineString", "coordinates": [[12.031781, 63.3555257], [12.0321061, 63.3551975], [12.0327975, 63.3544876], [12.0329253, 63.3543454], [12.0331023, 63.3541311], [12.0332947, 63.3538654], [12.0334058, 63.3536858], [12.0335452, 63.3534149], [12.0336363, 63.3532142]]}, "properties": {"electrified": "contact_line", "frequency": "16.67", "gauge": "1435", "maxspeed": "90", "name": "Mer\u00e5kerbanen", "operator": "Bane NOR", "passenger_lines": "1", "railway": "rail", "usage": "main", "voltage": "15000", "length_km": 0.275, "maxspeed_kmh": 90.0}}, {"type": "Feature", "geometry": {"type": "LineString", "coordinates": [[12.0425619, 63.3456011], [12.0428429, 63.3454583], [12.0433475, 63.3451837], [12.0486898, 63.3422142], [12.053032, 63.3398004], [12.0539093, 63.3393151], [12.0545656, 63.3389644], [12.055035, 63.3387439], [12.0553871, 63.3385937], [12.0557154, 63.3384608], [12.0559487, 63.3383761], [12.0566293, 63.338138], [12.0602544, 63.3369126]]}, "properties": {"electrified": "contact_line", "frequency": "16.67", "gauge": "1435", "maxspeed": "90", "name": "Mer\u00e5kerbanen", "operator": "Bane NOR", "passenger_lines": "1", "railway": "rail", "usage": "main", "voltage": "15000", "length_km": 1.319, "maxspeed_kmh": 90.0}}, {"type": "Feature", "geometry": {"type": "LineString", "coordinates": [[12.0424551, 63.345653], [12.0425619, 63.3456011]]}, "properties": {"bridge": "yes", "electrified": "contact_line", "frequency": "16.67", "gauge": "1435", "maxspeed": "90", "name": "Mer\u00e5kerbanen", "operator": "Bane NOR", "passenger_lines": "1", "railway": "rail", "usage": "main", "voltage": "15000", "length_km": 0.008, "maxspeed_kmh": 90.0}}, {"type": "Feature", "geometry": {"type": "LineString", "coordinates": [[12.0311062, 63.3621971], [12.0312807, 63.3620641]]}, "properties": {"bridge": "yes", "electrified": "contact_line", "frequency": "16.67", "gauge": "1435", "maxspeed": "80", "name": "Mer\u00e5kerbanen", "operator": "Bane NOR", "passenger_lines": "1", "railway": "rail", "usage": "main", "voltage": "15000", "length_km": 0.017, "maxspeed_kmh": 80.0}}, {"type": "Feature", "geometry": {"type": "LineString", "coordinates": [[12.0132118, 63.3656396], [12.0207592, 63.3640504], [12.0214416, 63.3639201], [12.0219078, 63.3638406], [12.0226112, 63.3637407], [12.022962, 63.3636991], [12.0233189, 63.3636627], [12.0238497, 63.3636168], [12.0245424, 63.3635738], [12.0265793, 63.3634886], [12.0271083, 63.3634489], [12.0275089, 63.3634054], [12.0277085, 63.3633797], [12.0279283, 63.3633454], [12.0284044, 63.363257], [12.0287601, 63.3631782], [12.0291979, 63.3630633], [12.029552, 63.3629505], [12.0298396, 63.3628489], [12.0301023, 63.3627445], [12.0303644, 63.3626271], [12.030594, 63.3625116], [12.0308278, 63.3623801], [12.0311062, 63.3621971]]}, "properties": {"electrified": "contact_line", "frequency": "16.67", "gauge": "1435", "maxspeed": "80", "name": "Mer\u00e5kerbanen", "operator": "Bane NOR", "passenger_lines": "1", "railway": "rail", "usage": "main", "voltage": "15000", "length_km": 0.994, "maxspeed_kmh": 80.0}}, {"type": "Feature", "geometry": {"type": "LineString", "coordinates": [[11.8460435, 63.3928052], [11.8462591, 63.3927216], [11.846416, 63.3926651], [11.8466079, 63.3926009], [11.8467324, 63.3925608], [11.847033, 63.3924747], [11.8472982, 63.3924066], [11.848392, 63.3921619], [11.8487806, 63.3920759], [11.8494182, 63.3919207], [11.8497968, 63.3918209], [11.850368, 63.3916597], [11.8507331, 63.3915478], [11.8509814, 63.391468], [11.8515688, 63.3912697], [11.8522056, 63.3910438], [11.8532596, 63.3906475], [11.8534952, 63.3905583]]}, "properties": {"electrified": "contact_line", "frequency": "16.67", "gauge": "1435", "maxspeed": "80", "name": "Mer\u00e5kerbanen", "operator": "Bane NOR", "passenger_lines": "1", "railway": "rail", "usage": "main", "voltage": "15000", "length_km": 0.451, "maxspeed_kmh": 80.0}}, {"type": "Feature", "geometry": {"type": "LineString", "coordinates": [[11.8439618, 63.3956066], [11.8439847, 63.3948481], [11.8440023, 63.3947059], [11.8440427, 63.3945111], [11.8440863, 63.3943852], [11.8442052, 63.3941507], [11.8442525, 63.3940772], [11.8443996, 63.3938845], [11.8445694, 63.3937043], [11.8447172, 63.3935706], [11.8448603, 63.3934553], [11.845044, 63.3933221], [11.845234, 63.3932025], [11.8454184, 63.3930963], [11.8455911, 63.3930064], [11.8458199, 63.3928978], [11.8459432, 63.392846], [11.8460435, 63.3928052]]}, "properties": {"electrified": "contact_line", "frequency": "16.67", "gauge": "1435", "maxspeed": "80", "name": "Mer\u00e5kerbanen", "operator": "Bane NOR", "passenger_lines": "1", "railway": "rail", "usage": "main", "voltage": "15000", "length_km": 0.342, "maxspeed_kmh": 80.0}}, {"type": "Feature", "geometry": {"type": "LineString", "coordinates": [[11.7775787, 63.4037465], [11.7777903, 63.4036653]]}, "properties": {"bridge": "yes", "electrified": "contact_line", "frequency": "16.67", "gauge": "1435", "maxspeed": "70", "name": "Mer\u00e5kerbanen", "operator": "Bane NOR", "passenger_lines": "1", "railway": "rail", "usage": "main", "voltage": "15000", "length_km": 0.014, "maxspeed_kmh": 70.0}}, {"type": "Feature", "geometry": {"type": "LineString", "coordinates": [[11.7623401, 63.4076342], [11.7626686, 63.4074919], [11.76286, 63.4074167], [11.763253, 63.4072828], [11.7636015, 63.4071798], [11.7638058, 63.4071266], [11.7642204, 63.4070325], [11.7645231, 63.4069755], [11.7648097, 63.4069289], [11.7652118, 63.4068746], [11.766564, 63.406727], [11.7670313, 63.4066652], [11.7672545, 63.4066302], [11.7676786, 63.4065504], [11.7679558, 63.4064894], [11.7681169, 63.4064484], [11.7682784, 63.4064062], [11.7685853, 63.406315], [11.768899, 63.4062067], [11.7690705, 63.4061423], [11.7693548, 63.4060212], [11.7696828, 63.4058637], [11.7706469, 63.4053618], [11.7709254, 63.4052275], [11.7712132, 63.4051105], [11.7714196, 63.4050337], [11.7716792, 63.4049448], [11.7718827, 63.4048834], [11.772108, 63.4048207], [11.7724178, 63.4047468], [11.7727012, 63.4046859], [11.7729608, 63.4046375], [11.7731961, 63.4045989], [11.7735801, 63.4045429], [11.7749901, 63.404356], [11.7755515, 63.4042744], [11.775761, 63.40424], [11.7760153, 63.4041914], [11.7762408, 63.4041446], [11.7764651, 63.4040925], [11.7768883, 63.4039795], [11.7771723, 63.4038917], [11.777432, 63.4038017], [11.7775787, 63.4037465]]}, "properties": {"electrified": "contact_line", "frequency": "16.67", "gauge": "1435", "maxspeed": "70", "name": "Mer\u00e5kerbanen", "operator": "Bane NOR", "passenger_lines": "1", "railway": "rail", "usage": "main", "voltage": "15000", "length_km": 0.894, "maxspeed_kmh": 70.0}}, {"type": "Feature", "geometry": {"type": "LineString", "coordinates": [[11.7153273, 63.4379171], [11.7157398, 63.4376771]]}, "properties": {"electrified": "contact_line", "frequency": "16.67", "gauge": "1435", "maxspeed": "90", "name": "Mer\u00e5kerbanen", "operator": "Bane NOR", "passenger_lines": "1", "railway": "rail", "usage": "main", "voltage": "15000", "length_km": 0.034, "maxspeed_kmh": 90.0}}, {"type": "Feature", "geometry": {"type": "LineString", "coordinates": [[11.6432434, 63.444872], [11.6435183, 63.4449292], [11.6442203, 63.4450862]]}, "properties": {"electrified": "contact_line", "frequency": "16.67", "gauge": "1435", "maxspeed": "90", "name": "Mer\u00e5kerbanen", "operator": "Bane NOR", "passenger_lines": "1", "railway": "rail", "usage": "main", "voltage": "15000", "length_km": 0.054, "maxspeed_kmh": 90.0}}, {"type": "Feature", "geometry": {"type": "LineString", "coordinates": [[11.6124121, 63.4437844], [11.6179692, 63.4437528], [11.6223327, 63.443729], [11.6233717, 63.4437233], [11.6237112, 63.4437206], [11.6241004, 63.4437199]]}, "properties": {"electrified": "contact_line", "frequency": "16.67", "gauge": "1435", "name": "Mer\u00e5kerbanen", "operator": "Bane NOR", "passenger_lines": "1", "railway": "rail", "usage": "main", "voltage": "15000", "length_km": 0.583}}, {"type": "Feature", "geometry": {"type": "LineString", "coordinates": [[11.5531299, 63.4565599], [11.5534722, 63.4564799], [11.5538146, 63.4564086], [11.5543704, 63.4563082], [11.5548653, 63.4562316], [11.555377, 63.4561674]]}, "properties": {"electrified": "contact_line", "frequency": "16.67", "gauge": "1435", "maxspeed": "90", "name": "Mer\u00e5kerbanen", "operator": "Bane NOR", "passenger_lines": "1", "railway": "rail", "usage": "main", "voltage": "15000", "length_km": 0.121, "maxspeed_kmh": 90.0}}, {"type": "Feature", "geometry": {"type": "LineString", "coordinates": [[11.4487583, 63.4570225], [11.449553, 63.4570461], [11.4500455, 63.4570751], [11.4505298, 63.4571223]]}, "properties": {"electrified": "contact_line", "frequency": "16.67", "gauge": "1435", "maxspeed": "70", "name": "Mer\u00e5kerbanen", "operator": "Bane NOR", "passenger_lines": "1", "railway": "rail", "usage": "main", "voltage": "15000", "length_km": 0.089, "maxspeed_kmh": 70.0}}, {"type": "Feature", "geometry": {"type": "LineString", "coordinates": [[11.405282, 63.4559818], [11.405485, 63.455921]]}, "properties": {"electrified": "contact_line", "frequency": "16.67", "gauge": "1435", "maxspeed": "70", "name": "Mer\u00e5kerbanen", "operator": "Bane NOR", "passenger_lines": "1", "railway": "rail", "usage": "main", "voltage": "15000", "length_km": 0.012, "maxspeed_kmh": 70.0}}, {"type": "Feature", "geometry": {"type": "LineString", "coordinates": [[11.3626775, 63.4581873], [11.3643252, 63.458075]]}, "properties": {"electrified": "contact_line", "frequency": "16.67", "gauge": "1435", "name": "Mer\u00e5kerbanen", "operator": "Bane NOR", "passenger_lines": "1", "railway": "rail", "usage": "main", "voltage": "15000", "length_km": 0.083}}, {"type": "Feature", "geometry": {"type": "LineString", "coordinates": [[11.3643252, 63.458075], [11.3676035, 63.4578515], [11.3688836, 63.4577814], [11.3692778, 63.4577615], [11.3697361, 63.4577406], [11.3706463, 63.457705], [11.3718144, 63.4576689], [11.3736059, 63.4576387], [11.3746273, 63.4576339], [11.3760287, 63.4576422], [11.3772826, 63.457665], [11.3783888, 63.4576974], [11.3793226, 63.4577319], [11.3805776, 63.4577922], [11.3843882, 63.4580133], [11.3885338, 63.4582542], [11.389473, 63.4582985], [11.3899633, 63.4583152], [11.3905951, 63.4583276], [11.3913968, 63.4583329], [11.3920042, 63.4583277], [11.3927551, 63.4583078], [11.3933819, 63.4582825], [11.3939274, 63.4582534], [11.3945655, 63.4582102], [11.3951005, 63.4581671], [11.3956438, 63.458117], [11.3963877, 63.4580376], [11.3968932, 63.4579752], [11.397584, 63.4578802], [11.3980158, 63.4578145], [11.3990355, 63.4576387], [11.3995536, 63.4575396], [11.4000402, 63.4574387], [11.4009183, 63.4572393], [11.4015339, 63.4570851], [11.4021746, 63.4569077], [11.4029312, 63.4566865], [11.405282, 63.4559818]]}, "properties": {"electrified": "contact_line", "frequency": "16.67", "gauge": "1435", "maxspeed": "100", "name": "Mer\u00e5kerbanen", "operator": "Bane NOR", "passenger_lines": "1", "railway": "rail", "usage": "main", "voltage": "15000", "length_km": 2.112, "maxspeed_kmh": 100.0}}, {"type": "Feature", "geometry": {"type": "LineString", "coordinates": [[11.2516294, 63.4382907], [11.2527479, 63.4385838], [11.2540763, 63.4389299], [11.2570167, 63.4396928]]}, "properties": {"electrified": "contact_line", "frequency": "16.67", "gauge": "1435", "maxspeed": "100", "name": "Mer\u00e5kerbanen", "operator": "Bane NOR", "passenger_lines": "1", "railway": "rail", "usage": "main", "voltage": "15000", "length_km": 0.311, "maxspeed_kmh": 100.0}}, {"type": "Feature", "geometry": {"type": "LineString", "coordinates": [[11.028005, 63.4519227], [11.0284693, 63.4519997], [11.0286748, 63.4520299]]}, "properties": {"electrified": "contact_line", "frequency": "16.67", "gauge": "1435", "maxspeed": "70", "name": "Mer\u00e5kerbanen", "operator": "Bane NOR", "passenger_lines": "1", "railway": "rail", "usage": "main", "voltage": "15000", "length_km": 0.035, "maxspeed_kmh": 70.0}}, {"type": "Feature", "geometry": {"type": "LineString", "coordinates": [[10.9712394, 63.4452393], [10.9715547, 63.445251], [10.9720647, 63.4452776], [10.9725195, 63.4453086], [10.973587, 63.4454033], [10.9789138, 63.4459606], [10.9798653, 63.44606]]}, "properties": {"electrified": "contact_line", "frequency": "16.67", "gauge": "1435", "name": "Mer\u00e5kerbanen", "operator": "Bane NOR", "passenger_lines": "1", "railway": "rail", "usage": "main", "voltage": "15000", "length_km": 0.44}}, {"type": "Feature", "geometry": {"type": "LineString", "coordinates": [[10.9798653, 63.44606], [10.9830183, 63.4463895], [10.9856435, 63.4466611], [10.9858258, 63.4466811], [10.986383, 63.4467364], [10.9879084, 63.4468976], [10.9881215, 63.4469167], [10.9892174, 63.4470325], [10.9894215, 63.4470534]]}, "properties": {"electrified": "contact_line", "frequency": "16.67", "gauge": "1435", "name": "Mer\u00e5kerbanen", "operator": "Bane NOR", "passenger_lines": "1", "railway": "rail", "usage": "main", "voltage": "15000", "length_km": 0.49}}]}