{"type": "FeatureCollection", "features": [{"type": "Feature", "geometry": {"type": "LineString", "coordinates": [[10.7230003, 63.4310973], [10.7235018, 63.4311526], [10.7239289, 63.4312084], [10.7245494, 63.431287], [10.7318325, 63.4319508], [10.736435, 63.4323737]]}, "properties": {"electrified": "no", "gauge": "1435", "name": "Midtsandan", "railway": "rail", "service": "siding", "length_km": 0.686}}, {"type": "Feature", "geometry": {"type": "LineString", "coordinates": [[10.736435, 63.4323737], [10.7365913, 63.4323887]]}, "properties": {"bridge": "yes", "electrified": "no", "gauge": "1435", "name": "Midtsandan", "railway": "rail", "service": "siding", "length_km": 0.008}}, {"type": "Feature", "geometry": {"type": "LineString", "coordinates": [[10.7365913, 63.4323887], [10.7410767, 63.4327826], [10.7413968, 63.432809], [10.7417496, 63.4328336], [10.7421264, 63.4328558], [10.7423839, 63.432866], [10.7426595, 63.4328726], [10.7430048, 63.4328744], [10.7432616, 63.4328699], [10.743491, 63.4328633], [10.7437485, 63.4328522], [10.744236, 63.4328231], [10.7444807, 63.4328108], [10.7450202, 63.4327907]]}, "properties": {"electrified": "no", "gauge": "1435", "name": "Midtsandan", "railway": "rail", "service": "siding", "length_km": 0.426}}]}