{"type": "FeatureCollection", "features": [{"type": "Feature", "geometry": {"type": "LineString", "coordinates": [[10.7731301, 59.9053267], [10.7733788, 59.9052968], [10.7735392, 59.905284], [10.7736751, 59.9052743], [10.7738059, 59.905268], [10.7741418, 59.9052572], [10.77431, 59.9052521], [10.7744598, 59.9052437], [10.7746164, 59.9052349], [10.7750571, 59.9052088], [10.7761012, 59.9051462], [10.776637, 59.9051138], [10.7769389, 59.9050995], [10.7771298, 59.9050928], [10.7773283, 59.9050856], [10.777676, 59.9050747], [10.7787419, 59.9050418], [10.7795628, 59.9050166], [10.7798365, 59.9050076], [10.7800378, 59.9049989], [10.7802698, 59.9049841], [10.7805691, 59.9049607]]}, "properties": {"electrified": "contact_line", "frequency": "16.67", "gauge": "1435", "name": "Midtre bakkespor", "railway": "rail", "service": "yard", "voltage": "15000", "length_km": 0.419}}]}