{"type": "FeatureCollection", "features": [{"type": "Feature", "geometry": {"type": "LineString", "coordinates": [[10.8635072, 63.443705], [10.8638477, 63.4438417], [10.8641167, 63.4439361], [10.86438, 63.4440155], [10.8646793, 63.4440969], [10.8648983, 63.4441494], [10.8651873, 63.4442118], [10.8656114, 63.444285], [10.8658369, 63.4443176], [10.866124, 63.4443532], [10.8664887, 63.4443863], [10.8669308, 63.4444151], [10.8674683, 63.4444401], [10.8683229, 63.4444753], [10.869283, 63.4445078], [10.8696765, 63.4445147], [10.8702006, 63.4445161], [10.8706237, 63.4445099], [10.8707128, 63.4445075], [10.8710393, 63.4444958], [10.871415, 63.444478], [10.8717703, 63.444456], [10.872405, 63.4444063], [10.8735979, 63.4442939], [10.8745515, 63.4442093], [10.8750235, 63.4441777], [10.875408, 63.4441597], [10.8760642, 63.4441394], [10.87645, 63.4441356], [10.8771053, 63.4441406], [10.8773954, 63.4441475], [10.877919, 63.4441699], [10.878378, 63.4441969], [10.8797478, 63.4442882], [10.8799364, 63.4443033], [10.8806025, 63.444372], [10.8809584, 63.4444185]]}, "properties": {"electrified": "no", "gauge": "1435", "name": "Muruvik sidespor", "operator": "Bane NOR", "railway": "rail", "service": "spur", "length_km": 0.899}}, {"type": "Feature", "geometry": {"type": "LineString", "coordinates": [[10.8283522, 63.4340924], [10.8286384, 63.4341028], [10.8289358, 63.4341188], [10.8291648, 63.4341357], [10.8295073, 63.4341694], [10.8297055, 63.4341929], [10.8301133, 63.4342508], [10.8304505, 63.4343045], [10.8313416, 63.4344581], [10.8320845, 63.4345898], [10.8339097, 63.4349138], [10.8356531, 63.4352218], [10.8363094, 63.4353345], [10.8368514, 63.4354139], [10.8372117, 63.4354551], [10.8377439, 63.4354955], [10.8379118, 63.4355034], [10.8382303, 63.4355117], [10.8384155, 63.4355137], [10.838775, 63.4355085], [10.8390628, 63.4354957], [10.8394516, 63.4354686], [10.8398738, 63.4354265], [10.8401438, 63.4353917], [10.8406397, 63.4353154], [10.8415282, 63.4351688], [10.8420877, 63.435091], [10.8423536, 63.4350615], [10.8426981, 63.4350333], [10.843085, 63.4350145], [10.8434249, 63.4350072], [10.8436172, 63.4350079], [10.8439912, 63.4350163], [10.8441688, 63.435025], [10.8445056, 63.4350496], [10.8448425, 63.4350823], [10.8450194, 63.435103], [10.8454328, 63.4351649], [10.8458086, 63.4352352], [10.8461886, 63.4353218], [10.8463551, 63.4353659], [10.8467509, 63.4354858], [10.8469722, 63.4355624], [10.847166, 63.4356372], [10.8475238, 63.4357886], [10.8492966, 63.4365768], [10.8523307, 63.4379306], [10.8527375, 63.4381197], [10.8530091, 63.4382579], [10.8531242, 63.4383227], [10.8533483, 63.4384611], [10.8534714, 63.4385479], [10.8537076, 63.4387313], [10.8542726, 63.4392251], [10.8544845, 63.4394001], [10.8546199, 63.4395014], [10.8549351, 63.4397015], [10.8551213, 63.4398066], [10.8553594, 63.4399256], [10.8555803, 63.4400237], [10.8558828, 63.4401472], [10.8561685, 63.4402482], [10.8566391, 63.4403904], [10.8572068, 63.4405404], [10.8578697, 63.4407019], [10.858679, 63.4408899], [10.8589368, 63.4409547], [10.8593639, 63.4410721], [10.8597666, 63.4411995], [10.8599318, 63.4412601], [10.860072, 63.4413141], [10.8603981, 63.4414564], [10.8606867, 63.4416032], [10.8608157, 63.4416782], [10.8610407, 63.4418241], [10.8611504, 63.4419074], [10.8613457, 63.442068], [10.8614254, 63.4421426], [10.861857, 63.4425744], [10.8620062, 63.4427213], [10.8622644, 63.4429521], [10.8623935, 63.443057], [10.8626286, 63.4432265], [10.862742, 63.4433025]]}, "properties": {"electrified": "no", "gauge": "1435", "name": "Muruvik sidespor", "operator": "Bane NOR", "railway": "rail", "service": "spur", "length_km": 2.169}}, {"type": "Feature", "geometry": {"type": "LineString", "coordinates": [[10.8281443, 63.4340891], [10.8283522, 63.4340924]]}, "properties": {"bridge": "yes", "electrified": "no", "gauge": "1435", "name": "Muruvik sidespor", "operator": "Bane NOR", "railway": "rail", "service": "spur", "length_km": 0.01}}, {"type": "Feature", "geometry": {"type": "LineString", "coordinates": [[10.8233769, 63.4347302], [10.8237923, 63.4346715], [10.8242059, 63.434597], [10.8255967, 63.434313], [10.8258519, 63.434268], [10.8262893, 63.4342018], [10.8267154, 63.4341534], [10.8269318, 63.4341353], [10.8274073, 63.4341042], [10.8277887, 63.4340912], [10.8280173, 63.434089], [10.8281443, 63.4340891]]}, "properties": {"electrified": "no", "gauge": "1435", "name": "Muruvik sidespor", "operator": "Bane NOR", "railway": "rail", "service": "spur", "length_km": 0.251}}, {"type": "Feature", "geometry": {"type": "LineString", "coordinates": [[10.862742, 63.4433025], [10.8628689, 63.443386], [10.862971, 63.4434472], [10.863099, 63.4435128], [10.8633043, 63.4436126], [10.8635072, 63.443705]]}, "properties": {"electrified": "no", "gauge": "1435", "name": "Muruvik sidespor", "operator": "Bane NOR", "railway": "rail", "service": "spur", "tunnel": "yes", "length_km": 0.059}}]}