{"type": "FeatureCollection", "features": [{"type": "Feature", "geometry": {"type": "LineString", "coordinates": [[17.4354397, 68.4421075], [17.4351203, 68.4420842], [17.4348226, 68.4420578], [17.4341657, 68.4419818], [17.4339261, 68.4419521], [17.4336894, 68.4419198], [17.4332075, 68.4418468], [17.4327412, 68.4417616], [17.4322968, 68.4416622], [17.4318816, 68.4415566], [17.4315026, 68.4414409], [17.4311145, 68.4413132], [17.4307553, 68.4411738], [17.4304359, 68.4410387], [17.4301264, 68.4408879], [17.4299314, 68.4407859]]}, "properties": {"electrified": "contact_line", "frequency": "16.67", "gauge": "1435", "name": "Narvik Driftsbaneg\u00e5rd", "operator": "Bane NOR", "railway": "rail", "service": "yard", "voltage": "15000", "length_km": 0.278}}, {"type": "Feature", "geometry": {"type": "LineString", "coordinates": [[17.4365564, 68.4421205], [17.435731, 68.4421453], [17.4354073, 68.442144], [17.4350444, 68.442134], [17.4347877, 68.4421191], [17.4345209, 68.4421007], [17.4341442, 68.4420666], [17.4338476, 68.4420354], [17.4335794, 68.4420021], [17.4330527, 68.4419214], [17.4326324, 68.4418469], [17.4321961, 68.4417514], [17.4317287, 68.4416345], [17.431333, 68.441521], [17.4309227, 68.4413861], [17.4305575, 68.4412403], [17.4299449, 68.4409702]]}, "properties": {"electrified": "contact_line", "frequency": "16.67", "gauge": "1435", "name": "Narvik Driftsbaneg\u00e5rd", "operator": "Bane NOR", "railway": "rail", "service": "yard", "voltage": "15000", "length_km": 0.315}}, {"type": "Feature", "geometry": {"type": "LineString", "coordinates": [[17.4354397, 68.4421075], [17.4349078, 68.44208], [17.4346289, 68.4420636], [17.4343546, 68.4420438], [17.4341849, 68.4420297], [17.4340181, 68.4420122], [17.4338181, 68.4419893], [17.4336202, 68.4419624], [17.4331202, 68.4418885], [17.4326529, 68.4417992], [17.432242, 68.4417101], [17.4318051, 68.441603], [17.4314002, 68.4414862], [17.4310005, 68.4413506], [17.4306318, 68.4412114], [17.4302991, 68.4410702], [17.4300091, 68.4409338], [17.4298848, 68.440874], [17.429792, 68.4408179]]}, "properties": {"electrified": "contact_line", "frequency": "16.67", "gauge": "1435", "name": "Narvik Driftsbaneg\u00e5rd", "operator": "Bane NOR", "railway": "rail", "service": "yard", "voltage": "15000", "length_km": 0.282}}, {"type": "Feature", "geometry": {"type": "LineString", "coordinates": [[17.4374325, 68.442092], [17.4369074, 68.4421117], [17.4365564, 68.4421205], [17.4362721, 68.4421251], [17.4359717, 68.4421247], [17.4356944, 68.4421175], [17.4354397, 68.4421075]]}, "properties": {"electrified": "contact_line", "frequency": "16.67", "gauge": "1435", "name": "Narvik Driftsbaneg\u00e5rd", "operator": "Bane NOR", "railway": "rail", "service": "yard", "voltage": "15000", "length_km": 0.082}}]}