{"type": "FeatureCollection", "features": [{"type": "Feature", "geometry": {"type": "LineString", "coordinates": [[10.7811699, 59.9048728], [10.7809366, 59.9048913], [10.7804531, 59.9049292], [10.7802368, 59.9049455], [10.7800688, 59.9049543], [10.7799153, 59.9049613], [10.7797562, 59.9049647], [10.7795325, 59.9049687], [10.7787363, 59.9049794], [10.777665, 59.9049959], [10.7774214, 59.9049997], [10.7771982, 59.9050033], [10.7770088, 59.9050064], [10.7768617, 59.9050104], [10.7767194, 59.9050176], [10.7765666, 59.9050266], [10.7763519, 59.9050431], [10.7752152, 59.9051328], [10.7748697, 59.9051603], [10.7747098, 59.9051715], [10.7745498, 59.9051793], [10.7744083, 59.9051864], [10.7742631, 59.905195], [10.7740829, 59.9052087], [10.773864, 59.9052293], [10.7735935, 59.9052593]]}, "properties": {"electrified": "contact_line", "frequency": "16.67", "gauge": "1435", "name": "Nedre bakkespor", "railway": "rail", "service": "yard", "voltage": "15000", "length_km": 0.427}}]}