{"type": "FeatureCollection", "features": [{"type": "Feature", "geometry": {"type": "LineString", "coordinates": [[9.1518613, 58.9764579], [9.1520325, 58.9763095], [9.1521335, 58.9762333], [9.1523009, 58.9761184], [9.1525327, 58.9759545], [9.1529821, 58.9756359], [9.1532175, 58.9754703], [9.1535071, 58.9752654], [9.1535219, 58.975255]]}, "properties": {"electrified": "contact_line", "frequency": "16.67", "gauge": "1435", "maxspeed": "40", "name": "Neslandsvatn omformerstasjons sidespor", "railway": "rail", "service": "spur", "voltage": "15000", "length_km": 0.165, "maxspeed_kmh": 40.0}}, {"type": "Feature", "geometry": {"type": "LineString", "coordinates": [[9.1537139, 58.9751209], [9.1538159, 58.9750497]]}, "properties": {"electrified": "contact_line", "frequency": "16.67", "gauge": "1435", "maxspeed": "40", "name": "Neslandsvatn omformerstasjons sidespor", "railway": "rail", "service": "spur", "voltage": "15000", "length_km": 0.01, "maxspeed_kmh": 40.0}}, {"type": "Feature", "geometry": {"type": "LineString", "coordinates": [[9.1535219, 58.975255], [9.1537139, 58.9751209]]}, "properties": {"electrified": "contact_line", "frequency": "16.67", "gauge": "1435", "maxspeed": "40", "name": "Neslandsvatn omformerstasjons sidespor", "railway": "rail", "service": "spur", "voltage": "15000", "length_km": 0.019, "maxspeed_kmh": 40.0}}]}