{"type": "FeatureCollection", "features": [{"type": "Feature", "geometry": {"type": "LineString", "coordinates": [[10.4084312, 63.4370754], [10.4092653, 63.4370956]]}, "properties": {"bridge": "movable", "electrified": "no", "gauge": "1435", "maxspeed": "30", "name": "Nidelv jernbanebru", "operator": "Bane NOR", "passenger_lines": "2", "railway": "rail", "service": "spur", "length_km": 0.042, "maxspeed_kmh": 30.0}}, {"type": "Feature", "geometry": {"type": "LineString", "coordinates": [[10.4062906, 63.4370175], [10.4070447, 63.4370379], [10.4084312, 63.4370754]]}, "properties": {"bridge": "yes", "electrified": "no", "gauge": "1435", "maxspeed": "30", "name": "Nidelv jernbanebru", "operator": "Bane NOR", "passenger_lines": "2", "railway": "rail", "service": "spur", "length_km": 0.107, "maxspeed_kmh": 30.0}}, {"type": "Feature", "geometry": {"type": "LineString", "coordinates": [[10.4092653, 63.4370956], [10.4104658, 63.4371267]]}, "properties": {"bridge": "yes", "electrified": "no", "gauge": "1435", "maxspeed": "30", "name": "Nidelv jernbanebru", "operator": "Bane NOR", "passenger_lines": "2", "railway": "rail", "service": "spur", "length_km": 0.06, "maxspeed_kmh": 30.0}}]}