{"type": "FeatureCollection", "features": [{"type": "Feature", "geometry": {"type": "LineString", "coordinates": [[7.8595404, 58.1509087], [7.8590233, 58.1508521], [7.8588462, 58.1508374], [7.8585973, 58.150826], [7.8583426, 58.1508217], [7.8580876, 58.1508222], [7.8577482, 58.1508289], [7.8573243, 58.1508434], [7.8541056, 58.1509701], [7.8535134, 58.1509989], [7.8530927, 58.1510297], [7.8526764, 58.1510734], [7.8522659, 58.1511311], [7.8518631, 58.1512021], [7.8515473, 58.1512684], [7.8512383, 58.1513429], [7.8510771, 58.1513862]]}, "properties": {"electrified": "contact_line", "frequency": "16.67", "gauge": "1435", "maxspeed": "100", "name": "Nodehei tunnel", "operator": "Bane NOR", "passenger_lines": "1", "railway": "rail", "tunnel": "yes", "usage": "main", "voltage": "15000", "length_km": 0.508, "maxspeed_kmh": 100.0}}]}