{"type": "FeatureCollection", "features": [{"type": "Feature", "geometry": {"type": "LineString", "coordinates": [[9.5798682, 59.7761714], [9.5800106, 59.7763105], [9.5803539, 59.7766554], [9.5817141, 59.7780174], [9.5826752, 59.7789703], [9.5834989, 59.7798056], [9.5836878, 59.7799856], [9.5838341, 59.7801133], [9.584118, 59.7803365], [9.584553, 59.7806435], [9.5847612, 59.7807796], [9.5851785, 59.7810646], [9.5854371, 59.781286], [9.5855497, 59.7813966], [9.5856371, 59.7815074], [9.5857141, 59.781611], [9.5857764, 59.7817117], [9.5858269, 59.7818158], [9.585864, 59.7819036], [9.5859091, 59.7820891], [9.5859371, 59.7823155], [9.5859222, 59.7833652], [9.5859365, 59.7837522], [9.5859852, 59.7841713], [9.5860328, 59.784437], [9.5860628, 59.784676], [9.5860715, 59.7848193], [9.5860672, 59.7849688], [9.5860219, 59.7852006], [9.5859637, 59.7853674], [9.5859204, 59.785464], [9.5857907, 59.785688], [9.5856699, 59.7858578], [9.5853278, 59.7863023], [9.5852123, 59.7864636], [9.5851375, 59.7865851], [9.5850576, 59.7867604], [9.5850019, 59.7869186], [9.5849769, 59.7870584], [9.5849611, 59.7871844], [9.5849405, 59.7876276], [9.5849196, 59.7878059], [9.5848846, 59.7879642], [9.5848311, 59.7881109], [9.5847769, 59.7882225], [9.5847746, 59.7882224], [9.5847293, 59.7883039], [9.5846241, 59.7884515], [9.5844506, 59.7886447], [9.5843137, 59.7887701], [9.5842218, 59.7888445], [9.5840524, 59.7889663], [9.5838356, 59.789099], [9.5837339, 59.7891555], [9.5834954, 59.7892703], [9.5831105, 59.7894252], [9.5829754, 59.7894731], [9.5825342, 59.7896124], [9.5799425, 59.7903583], [9.5796617, 59.7904425], [9.5794179, 59.7905211], [9.5792099, 59.7905979], [9.5789138, 59.7907208], [9.5787183, 59.790813], [9.5785255, 59.7909203], [9.5783538, 59.7910254], [9.5781709, 59.7911585], [9.5780959, 59.7912167], [9.5779394, 59.7913575], [9.577802, 59.7915026], [9.5777232, 59.7916036], [9.5776266, 59.7917534], [9.5775574, 59.7918821]]}, "properties": {"electrified": "no", "gauge": "1435", "maxspeed": "40", "name": "Numedalsbanen", "railway": "rail", "usage": "industrial", "length_km": 2.036, "maxspeed_kmh": 40.0}}, {"type": "Feature", "geometry": {"type": "LineString", "coordinates": [[9.5650982, 59.8360226], [9.5648558, 59.8360401], [9.5645691, 59.8360528], [9.5642415, 59.836059], [9.5639546, 59.836058], [9.5636708, 59.8360486], [9.5629171, 59.8360137], [9.5624976, 59.8359989], [9.5620457, 59.8359946], [9.5618581, 59.8359991], [9.5616456, 59.8360095], [9.5612679, 59.8360341], [9.5610608, 59.8360545], [9.5606435, 59.836109], [9.5600839, 59.8362039], [9.5542343, 59.837248], [9.5533781, 59.8374094], [9.5529192, 59.8375056], [9.5527161, 59.8375507], [9.5520683, 59.8377066], [9.5513957, 59.8378888], [9.5508223, 59.8380638], [9.5499793, 59.8383377], [9.5495769, 59.838462], [9.5491295, 59.8385835], [9.5489098, 59.8386339], [9.548464, 59.838717], [9.5480402, 59.8387752], [9.5476464, 59.8388104], [9.5473224, 59.8388333], [9.5469554, 59.8388395], [9.5466731, 59.83884], [9.5463694, 59.8388365], [9.5451444, 59.8388066], [9.544327, 59.8387906], [9.5440588, 59.8387793], [9.5409615, 59.8387057], [9.5404595, 59.8386992], [9.5399866, 59.8387028], [9.5397649, 59.8387099], [9.5393129, 59.8387382], [9.5390923, 59.8387567], [9.5386403, 59.8388064], [9.538152, 59.8388783], [9.5379223, 59.8389186], [9.5374721, 59.8390115], [9.5372961, 59.839053], [9.5370182, 59.8391261], [9.5366923, 59.8392178], [9.5362868, 59.8393521], [9.5360562, 59.8394382], [9.5358553, 59.839518], [9.5354982, 59.8396763], [9.5352091, 59.8398223], [9.5349936, 59.8399415], [9.5348006, 59.8400604], [9.5346345, 59.840172], [9.5342215, 59.8404759], [9.532989, 59.8414433], [9.5329727, 59.8414559], [9.531566, 59.8425694], [9.5312341, 59.84282], [9.5309678, 59.8429943], [9.5306837, 59.8431487], [9.5305308, 59.84322], [9.5303571, 59.8432937], [9.5300662, 59.8434011], [9.5298558, 59.8434684], [9.529633, 59.8435313], [9.5294382, 59.8435782], [9.5292264, 59.8436232], [9.5288744, 59.8436845], [9.5286557, 59.8437147], [9.5282663, 59.8437569], [9.5273769, 59.8438354], [9.5180328, 59.8446331], [9.5175943, 59.8446747], [9.5173127, 59.8447055], [9.5168715, 59.8447617], [9.5166052, 59.8448037], [9.5161868, 59.8448776], [9.5159126, 59.8449309], [9.5156425, 59.8449902], [9.5153669, 59.8450559], [9.5151316, 59.845117], [9.5148691, 59.84519], [9.5144663, 59.8453139], [9.5139743, 59.8454881], [9.513754, 59.8455743], [9.5133988, 59.845729], [9.5131858, 59.8458272], [9.5129021, 59.8459705], [9.5126382, 59.846115], [9.5123137, 59.8463046], [9.5074203, 59.8492944], [9.5070813, 59.849491], [9.5066274, 59.8497233], [9.5062601, 59.8498891], [9.5058619, 59.8500489], [9.5054896, 59.8501831], [9.5050713, 59.8503162], [9.5047285, 59.8504139], [9.5041947, 59.8505473], [9.503703, 59.8506495], [9.5032864, 59.8507225], [9.5027193, 59.8508094], [9.4943251, 59.8519691], [9.4936714, 59.8520578], [9.4819057, 59.8536823], [9.4803384, 59.853901], [9.4798326, 59.8539691], [9.4793829, 59.8540226], [9.4791157, 59.8540466], [9.478661, 59.8540731], [9.4782097, 59.8540777], [9.4779386, 59.8540713], [9.4776442, 59.8540571], [9.47746, 59.8540415], [9.4771733, 59.8540145], [9.476904, 59.85398], [9.4765011, 59.8539174], [9.476212, 59.8538594], [9.4759331, 59.8537949], [9.4755083, 59.8536807], [9.4689623, 59.8518062], [9.4685337, 59.8516889], [9.4680564, 59.8515643], [9.4676064, 59.8514555], [9.4675218, 59.8514361], [9.4670741, 59.8513381], [9.4665673, 59.8512347], [9.4659655, 59.8511244], [9.4651609, 59.8509958], [9.4647872, 59.8509489], [9.4644068, 59.8509149], [9.4641176, 59.850902], [9.4638982, 59.8508981], [9.4637069, 59.8508983], [9.463407, 59.8509085], [9.463195, 59.850922], [9.462983, 59.8509408], [9.4627537, 59.850967], [9.4625563, 59.8509951], [9.4621903, 59.8510615], [9.4618821, 59.8511306], [9.4613656, 59.851267], [9.4606567, 59.8514712], [9.460197, 59.8515971], [9.4600918, 59.8516223], [9.4598744, 59.8516796], [9.459525, 59.851763], [9.4588831, 59.8519046], [9.4581715, 59.8520347], [9.4576953, 59.8521134], [9.4574038, 59.8521545], [9.4568916, 59.85222], [9.4563876, 59.8522791], [9.4559364, 59.8523218], [9.455535, 59.8523467], [9.4546847, 59.8524152], [9.454376, 59.8524471], [9.4540394, 59.852488], [9.4534313, 59.8525853], [9.4530876, 59.8526516], [9.4524555, 59.8528086], [9.4521118, 59.8529053], [9.4518353, 59.8530071], [9.4515222, 59.8531293], [9.4512508, 59.8532418], [9.4509652, 59.853374], [9.4506417, 59.853547], [9.4503761, 59.8536989], [9.449485, 59.8542495], [9.4492283, 59.8544131], [9.449116, 59.8544829], [9.4479059, 59.8552373], [9.4472337, 59.8556431], [9.4467622, 59.8559039], [9.4463255, 59.8561253], [9.4458991, 59.8563293], [9.4454396, 59.856534], [9.4446047, 59.856897], [9.4424366, 59.8578311], [9.441814, 59.8580941], [9.4413035, 59.8583042], [9.4405044, 59.8586237], [9.4401357, 59.858767], [9.4392674, 59.8590939], [9.4386908, 59.8593029], [9.4374643, 59.8597277], [9.4362427, 59.8601288], [9.4348718, 59.8605578], [9.433867, 59.8608668], [9.4307773, 59.8618211], [9.4306762, 59.861853], [9.4298019, 59.8621285]]}, "properties": {"electrified": "no", "gauge": "1435", "maxspeed": "40", "name": "Numedalsbanen", "railway": "rail", "usage": "industrial", "length_km": 8.739, "maxspeed_kmh": 40.0}}, {"type": "Feature", "geometry": {"type": "LineString", "coordinates": [[9.5653009, 59.8360037], [9.5650982, 59.8360226]]}, "properties": {"bridge": "yes", "electrified": "no", "gauge": "1435", "maxspeed": "40", "name": "Numedalsbanen", "railway": "rail", "usage": "industrial", "length_km": 0.012, "maxspeed_kmh": 40.0}}, {"type": "Feature", "geometry": {"type": "LineString", "coordinates": [[9.5774995, 59.7920429], [9.577475, 59.7921394], [9.5774587, 59.7922429], [9.5774492, 59.7924272], [9.5774821, 59.7926383], [9.5775115, 59.7927529], [9.5775587, 59.792867], [9.5776185, 59.7929877], [9.577773, 59.7932145], [9.5778628, 59.7933267], [9.5782099, 59.7937005], [9.5810546, 59.7967005], [9.5821587, 59.7978772], [9.582642, 59.7983735], [9.5829198, 59.7986764], [9.5830935, 59.7988789], [9.5833443, 59.7992001], [9.5835043, 59.799432], [9.5837414, 59.7998107], [9.5839007, 59.8001038], [9.5840602, 59.8004548], [9.5841641, 59.8007259], [9.5843508, 59.8012869], [9.58443, 59.8015598], [9.5849315, 59.8031177], [9.5849834, 59.8033429], [9.585017, 59.8035953], [9.5850339, 59.8037877], [9.5850305, 59.803979], [9.5850102, 59.8042159], [9.5849827, 59.8043813], [9.584944, 59.804546], [9.5848925, 59.8047212], [9.584818, 59.8049227], [9.584733, 59.8051173], [9.5846264, 59.8053184], [9.5846075, 59.8053485], [9.5845313, 59.805476], [9.5843461, 59.8057507], [9.5833852, 59.8070411], [9.582382, 59.808428], [9.582162, 59.8087328], [9.581988, 59.808987], [9.5818842, 59.809157], [9.581745, 59.8094359], [9.5816621, 59.8096433], [9.5815875, 59.8098692], [9.5814248, 59.81056], [9.5813373, 59.8109714], [9.5812284, 59.8115352], [9.5810793, 59.8124243], [9.5809751, 59.8132004], [9.5809146, 59.8137354], [9.5808479, 59.8144642], [9.5807894, 59.8154673], [9.5807167, 59.8180537], [9.5806657, 59.8198064], [9.58065, 59.8199776], [9.5806268, 59.8201122], [9.5805775, 59.8203105], [9.5805345, 59.8204402], [9.5804535, 59.8206258], [9.5803524, 59.8208072], [9.5802477, 59.8209641], [9.5800736, 59.8211864], [9.5799447, 59.8213289], [9.5798642, 59.8214082], [9.579677, 59.8215762], [9.5794078, 59.8217959], [9.579036, 59.8220814], [9.5788121, 59.822264], [9.5786985, 59.8223667], [9.5785855, 59.8224826], [9.5784911, 59.8225933], [9.5784046, 59.8227136], [9.5783294, 59.8228409], [9.578276, 59.8229612], [9.5782336, 59.8230797], [9.5782068, 59.8231976], [9.5781905, 59.8233246], [9.5781876, 59.8234302], [9.5781989, 59.8235559], [9.5782159, 59.8236534], [9.5782838, 59.823864], [9.5783829, 59.824056], [9.5784555, 59.824163], [9.5785265, 59.824253], [9.5786647, 59.8244057], [9.5787562, 59.8244927], [9.5789806, 59.8246886], [9.5794148, 59.8250452], [9.5797675, 59.8253646], [9.5799889, 59.8255992], [9.5802048, 59.8258807], [9.5802707, 59.8259794], [9.5804006, 59.8261964], [9.5805046, 59.8264102], [9.5805937, 59.8266348], [9.5806554, 59.826856], [9.5807049, 59.8271093], [9.5807304, 59.8273866], [9.5807339, 59.8276705], [9.5807167, 59.8279816], [9.5806817, 59.8282587], [9.5806128, 59.8286146], [9.5804833, 59.829042], [9.5803589, 59.8293549], [9.5802674, 59.8295531], [9.5800998, 59.8298651], [9.58002, 59.8300018], [9.5798921, 59.8301987], [9.5797165, 59.8304495], [9.5795175, 59.8306999], [9.5792964, 59.8309515], [9.5790619, 59.8311907], [9.5788645, 59.8313761], [9.5785909, 59.8316188], [9.5781746, 59.8319493], [9.5778217, 59.8322077], [9.5776467, 59.8323286], [9.5773121, 59.8325476], [9.5769965, 59.8327412], [9.5764857, 59.8330354], [9.5762022, 59.8331886], [9.5755549, 59.8335139], [9.5751032, 59.8337224], [9.5746428, 59.8339213], [9.5743401, 59.8340469], [9.5738037, 59.8342574], [9.5732652, 59.8344551], [9.572909, 59.8345745], [9.572592, 59.8346713], [9.5720043, 59.8348265]]}, "properties": {"electrified": "no", "gauge": "1435", "maxspeed": "40", "name": "Numedalsbanen", "railway": "rail", "usage": "industrial", "length_km": 5.129, "maxspeed_kmh": 40.0}}, {"type": "Feature", "geometry": {"type": "LineString", "coordinates": [[9.6118231, 59.7157403], [9.6116189, 59.7158435], [9.6112579, 59.7160138], [9.6110768, 59.7160945], [9.6106105, 59.7162781], [9.6101625, 59.7164331], [9.6079089, 59.7172072], [9.607356, 59.7173962], [9.6070504, 59.7175006], [9.6068256, 59.7175746], [9.6067996, 59.7175831], [9.6066756, 59.7176237], [9.6063274, 59.717732], [9.6059115, 59.7178468], [9.6057081, 59.717898], [9.6052562, 59.7180042], [9.6045203, 59.7181683], [9.6040914, 59.7182588], [9.6034302, 59.7184085], [9.6030862, 59.7184869], [9.6025104, 59.7186339], [9.6020232, 59.7187803], [9.6017293, 59.718879], [9.6016439, 59.7189113], [9.601338, 59.7190282], [9.6009834, 59.719176], [9.6007892, 59.7192639], [9.6002879, 59.7195125], [9.6000824, 59.7196342], [9.5997902, 59.7198172], [9.5996113, 59.7199371], [9.5993819, 59.7200933], [9.5991067, 59.7202896], [9.598484, 59.7207147], [9.5981792, 59.7209262]]}, "properties": {"electrified": "no", "gauge": "1435", "maxspeed": "40", "name": "Numedalsbanen", "railway": "rail", "usage": "industrial", "length_km": 0.976, "maxspeed_kmh": 40.0}}, {"type": "Feature", "geometry": {"type": "LineString", "coordinates": [[9.6293648, 59.7034473], [9.6290564, 59.7035728], [9.6280261, 59.7040197], [9.6268738, 59.7045465], [9.625942, 59.7049978], [9.6252011, 59.7053757], [9.6246517, 59.7056595], [9.623952, 59.7060389], [9.6233292, 59.7063863], [9.6228434, 59.7066682], [9.6218439, 59.7072735], [9.6214316, 59.7075329], [9.6210506, 59.7077823], [9.6206351, 59.7080545], [9.6200758, 59.7084388], [9.6194257, 59.7089008], [9.6192012, 59.7090713], [9.6188919, 59.7093273], [9.6185846, 59.70961], [9.6184033, 59.7097937], [9.617957, 59.7102758], [9.6177151, 59.7105223], [9.6176001, 59.7106315], [9.6173434, 59.7108577], [9.6169, 59.711201], [9.6163663, 59.7115623], [9.6157375, 59.711978], [9.6154786, 59.7121584], [9.6150484, 59.7125046], [9.6147782, 59.7127533], [9.6145839, 59.7129589], [9.6144373, 59.7131306], [9.6143335, 59.7132589], [9.6142239, 59.7134097], [9.6137678, 59.7141029], [9.6136378, 59.7142821], [9.613474, 59.7144832], [9.6133306, 59.7146417], [9.6131954, 59.7147719], [9.6129926, 59.7149545], [9.6127624, 59.7151382], [9.6125834, 59.7152689], [9.6123703, 59.7154137], [9.6120389, 59.7156177], [9.6118231, 59.7157403]]}, "properties": {"electrified": "no", "gauge": "1435", "maxspeed": "40", "name": "Numedalsbanen", "railway": "rail", "usage": "industrial", "length_km": 1.709, "maxspeed_kmh": 40.0}}, {"type": "Feature", "geometry": {"type": "LineString", "coordinates": [[9.6478442, 59.6739183], [9.6476459, 59.6740121], [9.646973, 59.6743294], [9.6468386, 59.6744003], [9.6466017, 59.6745366], [9.6463777, 59.6746811], [9.6461708, 59.6748222], [9.6458012, 59.6750794]]}, "properties": {"electrified": "no", "gauge": "1435", "maxspeed": "40", "name": "Numedalsbanen", "railway": "rail", "usage": "industrial", "length_km": 0.174, "maxspeed_kmh": 40.0}}, {"type": "Feature", "geometry": {"type": "LineString", "coordinates": [[9.6449871, 59.6760574], [9.644755, 59.6764303], [9.6444312, 59.676978], [9.6441346, 59.6775128], [9.6438653, 59.6780271], [9.6436131, 59.6785391], [9.6433852, 59.6790374], [9.6430349, 59.6798652], [9.6429207, 59.6801605], [9.6426783, 59.6808356], [9.6425097, 59.6813713], [9.64245, 59.6816545], [9.6424135, 59.681923], [9.6424046, 59.6820493], [9.6424015, 59.6823062], [9.6424137, 59.6825174], [9.642434, 59.682678], [9.6424844, 59.6829414], [9.6425593, 59.6832128], [9.6426588, 59.6834733], [9.6429592, 59.6841761], [9.6430213, 59.6843454], [9.6430598, 59.6844898], [9.6430872, 59.6846136], [9.6431135, 59.6847813], [9.6431281, 59.684922], [9.6431469, 59.6852667], [9.6431574, 59.685376], [9.6431782, 59.6854892], [9.6432434, 59.6856933], [9.6433512, 59.6858949], [9.6434211, 59.6859928], [9.6435293, 59.6861281], [9.6436658, 59.6862708], [9.6440912, 59.6866721], [9.6442205, 59.6868018], [9.6443445, 59.6869465], [9.6444454, 59.6870875], [9.6445263, 59.6872239], [9.6446137, 59.6874454], [9.6446435, 59.6875613], [9.6446583, 59.6876511], [9.6446607, 59.687876], [9.6446261, 59.6880827], [9.6445815, 59.6882196], [9.6445539, 59.6882857], [9.6444846, 59.6884266], [9.6444176, 59.6885276], [9.644294, 59.6886856], [9.6441563, 59.6888318], [9.6440145, 59.6889589], [9.6438546, 59.6890838], [9.6436635, 59.6892073], [9.6435001, 59.6893015], [9.6432796, 59.6894157], [9.6430511, 59.689517], [9.6427946, 59.689616], [9.6425395, 59.6897003], [9.6422505, 59.6897808], [9.6419582, 59.6898496], [9.6416445, 59.6899133], [9.6408132, 59.6900638], [9.6404339, 59.6901476], [9.6401614, 59.6902208], [9.6398567, 59.6903188], [9.6397579, 59.6903565], [9.639631, 59.6904052], [9.6393363, 59.690535], [9.6390611, 59.6906744], [9.6389402, 59.6907405], [9.6386793, 59.6908949], [9.6385261, 59.6909938], [9.6382924, 59.6911614], [9.6381088, 59.6913081], [9.6379017, 59.6914974], [9.6377177, 59.6916914], [9.6376207, 59.691805], [9.6375493, 59.6919011], [9.6374074, 59.6921164], [9.637343, 59.6922326], [9.6372536, 59.6924245], [9.6371851, 59.6926341], [9.6371497, 59.6927759], [9.6371135, 59.6930488], [9.6371141, 59.6932211], [9.6371263, 59.6933836], [9.6371761, 59.6936311], [9.6372542, 59.6938601], [9.6373414, 59.6940565], [9.6373701, 59.6941173], [9.6373881, 59.6941553], [9.6376024, 59.69458]]}, "properties": {"electrified": "no", "gauge": "1435", "maxspeed": "40", "name": "Numedalsbanen", "railway": "rail", "usage": "industrial", "length_km": 2.294, "maxspeed_kmh": 40.0}}, {"type": "Feature", "geometry": {"type": "LineString", "coordinates": [[9.59531, 59.7403847], [9.5952333, 59.740573], [9.5951377, 59.7407376], [9.5950528, 59.7408548], [9.5949637, 59.7409589], [9.5948578, 59.7410681], [9.5947548, 59.7411635], [9.5946353, 59.7412586], [9.5944222, 59.7414091], [9.5942758, 59.7415028], [9.5941437, 59.7415758], [9.5939656, 59.7416666], [9.5933586, 59.7419645], [9.5931722, 59.7420694], [9.5930346, 59.7421544], [9.5928548, 59.7422816], [9.592741, 59.7423724], [9.5925862, 59.7425145], [9.5925076, 59.742596], [9.5923689, 59.7427624], [9.5921582, 59.7430506], [9.5919628, 59.7433352], [9.5917532, 59.7436587], [9.5916485, 59.7438426], [9.5915673, 59.74402], [9.5915114, 59.7441921], [9.5914663, 59.7443779], [9.5914438, 59.7445543], [9.5914063, 59.7454129], [9.5913726, 59.74595], [9.5913175, 59.7464308], [9.5912613, 59.7467893], [9.5912472, 59.7468897], [9.591198, 59.7471465], [9.5911672, 59.7472976], [9.5911108, 59.747553], [9.5909363, 59.7482078], [9.5908549, 59.7484745], [9.5905633, 59.7493374], [9.5904932, 59.7495662], [9.5904471, 59.7497676], [9.5904191, 59.7499902], [9.5904124, 59.7502832], [9.5904451, 59.7506042], [9.5904852, 59.7507864], [9.5907501, 59.7518106], [9.590814, 59.7521088], [9.590835, 59.7522885], [9.5908349, 59.7523477], [9.5908343, 59.7525192], [9.5907991, 59.7527829], [9.5907757, 59.7529013], [9.590641, 59.7533534], [9.5905644, 59.7536722], [9.5905563, 59.7538102], [9.5905713, 59.754002], [9.5906075, 59.7541407], [9.5906577, 59.7542803], [9.5907187, 59.7544026], [9.5907845, 59.7545056], [9.5909811, 59.7547664], [9.591109, 59.7549553], [9.5912671, 59.7551672], [9.5915448, 59.7556251], [9.5916412, 59.755883], [9.5916759, 59.7560242], [9.5917232, 59.7562655], [9.5917784, 59.7566199], [9.5918311, 59.7568482], [9.5918661, 59.7569584], [9.5919624, 59.7571579], [9.5920562, 59.7573105], [9.5921361, 59.7574183], [9.5923854, 59.7577152], [9.5927267, 59.758112]]}, "properties": {"electrified": "no", "gauge": "1435", "maxspeed": "40", "name": "Numedalsbanen", "railway": "rail", "usage": "industrial", "length_km": 2.062, "maxspeed_kmh": 40.0}}, {"type": "Feature", "geometry": {"type": "LineString", "coordinates": [[9.5953362, 59.7402951], [9.59531, 59.7403847]]}, "properties": {"bridge": "yes", "electrified": "no", "gauge": "1435", "maxspeed": "40", "name": "Numedalsbanen", "railway": "rail", "usage": "industrial", "length_km": 0.01, "maxspeed_kmh": 40.0}}, {"type": "Feature", "geometry": {"type": "LineString", "coordinates": [[9.5720043, 59.8348265], [9.5715384, 59.8349332]]}, "properties": {"bridge": "yes", "electrified": "no", "gauge": "1435", "maxspeed": "40", "name": "Numedalsbanen", "railway": "rail", "usage": "industrial", "length_km": 0.029, "maxspeed_kmh": 40.0}}, {"type": "Feature", "geometry": {"type": "LineString", "coordinates": [[9.5715384, 59.8349332], [9.5712698, 59.8349875], [9.5709888, 59.835039], [9.5704937, 59.8351207], [9.56984, 59.8352206], [9.569128, 59.8353275], [9.5685084, 59.8354303], [9.5679368, 59.8355344], [9.5674082, 59.835639], [9.566728, 59.8357817], [9.5664362, 59.8358368], [9.5658835, 59.835933], [9.5656265, 59.8359678], [9.5653009, 59.8360037]]}, "properties": {"electrified": "no", "gauge": "1435", "maxspeed": "40", "name": "Numedalsbanen", "railway": "rail", "usage": "industrial", "length_km": 0.37, "maxspeed_kmh": 40.0}}, {"type": "Feature", "geometry": {"type": "LineString", "coordinates": [[9.5775574, 59.7918821], [9.5775284, 59.7919511], [9.5774995, 59.7920429]]}, "properties": {"electrified": "no", "gauge": "1435", "maxspeed": "40", "name": "Numedalsbanen", "railway": "rail", "tunnel": "yes", "usage": "industrial", "length_km": 0.018, "maxspeed_kmh": 40.0}}, {"type": "Feature", "geometry": {"type": "LineString", "coordinates": [[9.6485078, 59.6736122], [9.6482112, 59.6737479], [9.6478442, 59.6739183]]}, "properties": {"electrified": "contact_line", "frequency": "16.67", "gauge": "1435", "maxspeed": "40", "name": "Numedalsbanen", "railway": "rail", "usage": "branch", "voltage": "15000", "length_km": 0.051, "maxspeed_kmh": 40.0}}, {"type": "Feature", "geometry": {"type": "LineString", "coordinates": [[9.6458012, 59.6750794], [9.6457169, 59.67514], [9.6455756, 59.6752559], [9.6454862, 59.6753402], [9.6454054, 59.6754249], [9.6453461, 59.6755005], [9.6452813, 59.6755891], [9.6451338, 59.6758167], [9.6449871, 59.6760574]]}, "properties": {"electrified": "no", "gauge": "1435", "maxspeed": "40", "name": "Numedalsbanen", "railway": "rail", "usage": "industrial", "length_km": 0.119, "maxspeed_kmh": 40.0}}, {"type": "Feature", "geometry": {"type": "LineString", "coordinates": [[9.5776443, 59.7734682], [9.5776959, 59.7736062], [9.5777332, 59.7736922], [9.577801, 59.7738331], [9.5779216, 59.7740397], [9.5781215, 59.7743385], [9.5782437, 59.7745008], [9.578506, 59.7748011], [9.5795643, 59.7758671], [9.5797578, 59.7760576], [9.5798682, 59.7761714]]}, "properties": {"electrified": "no", "gauge": "1435", "maxspeed": "40", "name": "Numedalsbanen", "railway": "rail", "usage": "industrial", "length_km": 0.328, "maxspeed_kmh": 40.0}}, {"type": "Feature", "geometry": {"type": "LineString", "coordinates": [[9.5927267, 59.758112], [9.592906, 59.7583181], [9.5930099, 59.7584659], [9.5931288, 59.7586512], [9.5933296, 59.7589809], [9.5934485, 59.7593123], [9.5935109, 59.7595202], [9.5935539, 59.7596953], [9.5935821, 59.7599091], [9.5935968, 59.7601277], [9.5935948, 59.7605241], [9.5935509, 59.7607717], [9.5934328, 59.7611993], [9.5933703, 59.7613653], [9.5932023, 59.7617182], [9.5931037, 59.7618723], [9.5930207, 59.7619808], [9.5929358, 59.7620785], [9.5927861, 59.7622232], [9.5926746, 59.7623195], [9.5925888, 59.7623885], [9.5923726, 59.7625335], [9.5920411, 59.7627248], [9.5919329, 59.7627837], [9.5918794, 59.7628128], [9.5911889, 59.7631825], [9.590745, 59.7634107], [9.5889335, 59.76439], [9.5886344, 59.7645443], [9.5883682, 59.7646682], [9.5881256, 59.7647673], [9.5878205, 59.7648702], [9.5876225, 59.7649271], [9.5873109, 59.7650044], [9.5870887, 59.7650525], [9.5867939, 59.7651062], [9.5864026, 59.7651563], [9.5862004, 59.7651777], [9.5860219, 59.7651913], [9.5856762, 59.765205], [9.5852817, 59.7652055], [9.5847644, 59.7651764], [9.58439, 59.7651388], [9.5834738, 59.7650281], [9.5832718, 59.7650107], [9.5828961, 59.7649869], [9.582668, 59.7649785], [9.5822916, 59.7649813], [9.5820576, 59.7649903], [9.5817405, 59.7650158], [9.5816503, 59.7650235], [9.581362, 59.7650582], [9.5811058, 59.7650972], [9.5809633, 59.7651233], [9.5806243, 59.7651966], [9.5803881, 59.7652574], [9.5800642, 59.7653563], [9.5797429, 59.7654741], [9.5795269, 59.7655705], [9.5792612, 59.765704], [9.5791565, 59.7657649], [9.5789428, 59.7659007], [9.5788496, 59.7659682], [9.5786593, 59.7661261], [9.5785447, 59.7662395], [9.5784139, 59.7663894], [9.5782978, 59.7665531], [9.5781888, 59.7667474], [9.5780535, 59.7670233], [9.5778636, 59.7674916], [9.5778114, 59.767642], [9.5776664, 59.7681464], [9.5776019, 59.7684632], [9.5775586, 59.7687586], [9.5775182, 59.7689356], [9.57751, 59.7690789], [9.5774842, 59.7706239], [9.5774884, 59.7707752], [9.5774785, 59.7709677], [9.5774781, 59.7713751], [9.57747, 59.7715441], [9.5774744, 59.7718839], [9.5774641, 59.772265], [9.5774683, 59.7725798], [9.5774795, 59.7727473], [9.577503, 59.772943], [9.5775722, 59.7732553], [9.5776443, 59.7734682]]}, "properties": {"electrified": "no", "gauge": "1435", "maxspeed": "40", "name": "Numedalsbanen", "railway": "rail", "usage": "industrial", "length_km": 2.279, "maxspeed_kmh": 40.0}}, {"type": "Feature", "geometry": {"type": "LineString", "coordinates": [[9.4298019, 59.8621285], [9.4296101, 59.8621834], [9.4277263, 59.8627694], [9.4274586, 59.8628529], [9.4261489, 59.863259], [9.4257435, 59.8633768], [9.4254755, 59.8634484], [9.4252537, 59.8635126]]}, "properties": {"electrified": "no", "gauge": "1435", "maxspeed": "40", "name": "Numedalsbanen", "railway": "rail", "usage": "industrial", "length_km": 0.298, "maxspeed_kmh": 40.0}}, {"type": "Feature", "geometry": {"type": "LineString", "coordinates": [[9.4252537, 59.8635126], [9.4248016, 59.8636293], [9.4247631, 59.8636386], [9.4241567, 59.8637839], [9.4234674, 59.8639281], [9.4231069, 59.8639974], [9.4227737, 59.8640573], [9.4221894, 59.8641522], [9.4220971, 59.8641665], [9.4217519, 59.864219], [9.4214223, 59.8642642], [9.4212657, 59.8642845], [9.4188005, 59.864576], [9.4179806, 59.8646694], [9.4177999, 59.8646932], [9.4175941, 59.8647165], [9.4170271, 59.8647799], [9.4166232, 59.8648206], [9.4155948, 59.8649092]]}, "properties": {"electrified": "no", "gauge": "1435", "maxspeed": "40", "name": "Numedalsbanen", "railway": "rail", "usage": "industrial", "length_km": 0.566, "maxspeed_kmh": 40.0}}, {"type": "Feature", "geometry": {"type": "LineString", "coordinates": [[9.5977575, 59.7212186], [9.5971807, 59.7216188], [9.5967956, 59.7218901], [9.5966383, 59.7220085], [9.5964642, 59.7221481], [9.5962815, 59.7223113], [9.5960589, 59.7225237], [9.5958846, 59.7227083], [9.5958023, 59.7228036], [9.5957323, 59.7228848], [9.5956117, 59.7230403], [9.5954155, 59.7233289], [9.5953391, 59.7234576], [9.5951681, 59.7238041], [9.5951111, 59.7239572], [9.5950152, 59.7242634], [9.5949028, 59.7246943], [9.5948406, 59.7249042], [9.594772, 59.7251108], [9.5947003, 59.7252969], [9.5945976, 59.7255502], [9.5944957, 59.7257292], [9.5943751, 59.7259814], [9.5941759, 59.7263394], [9.5940604, 59.7265622], [9.593987, 59.7267362], [9.5939475, 59.7268651], [9.5939265, 59.7269865], [9.5939199, 59.7271662], [9.5939582, 59.7274162], [9.5940133, 59.7275857], [9.5940552, 59.727675], [9.5941203, 59.7277964], [9.5944307, 59.7282896], [9.5945356, 59.7284725], [9.5946135, 59.7286292], [9.5946803, 59.7287959], [9.5947274, 59.7289547], [9.5947705, 59.7291297], [9.594797, 59.7292778], [9.5948237, 59.7295435], [9.5948618, 59.7302456], [9.5948835, 59.7308575], [9.5948915, 59.731358], [9.5948855, 59.7320122], [9.5948734, 59.7324528], [9.5948228, 59.7334679], [9.5947787, 59.7337399], [9.5947419, 59.7338778], [9.594682, 59.734053], [9.5945013, 59.7344729], [9.5944241, 59.734685], [9.5943673, 59.7349314], [9.5943564, 59.7350806], [9.5943632, 59.7352507], [9.594394, 59.7354214], [9.5944539, 59.7356415], [9.5947928, 59.7366236], [9.5948996, 59.7369788], [9.5949248, 59.7371344], [9.5949385, 59.7372771], [9.594937, 59.7373838], [9.5949284, 59.7375612], [9.5948486, 59.7380832], [9.59483, 59.7382475], [9.5948323, 59.7385198], [9.5948726, 59.7387243], [9.5949067, 59.7388308], [9.5949596, 59.7389561], [9.5950736, 59.7391853], [9.5952029, 59.7394211], [9.5953042, 59.7396557], [9.5953524, 59.7398295], [9.5953665, 59.7400823], [9.5953549, 59.7401997], [9.5953362, 59.7402951]]}, "properties": {"electrified": "no", "gauge": "1435", "maxspeed": "40", "name": "Numedalsbanen", "railway": "rail", "usage": "industrial", "length_km": 2.186, "maxspeed_kmh": 40.0}}, {"type": "Feature", "geometry": {"type": "LineString", "coordinates": [[9.5981792, 59.7209262], [9.5977575, 59.7212186]]}, "properties": {"electrified": "no", "gauge": "1435", "maxspeed": "40", "name": "Numedalsbanen", "railway": "rail", "usage": "industrial", "length_km": 0.04, "maxspeed_kmh": 40.0}}, {"type": "Feature", "geometry": {"type": "LineString", "coordinates": [[9.6376432, 59.694661], [9.6380222, 59.6954122], [9.6381023, 59.6955975], [9.6381728, 59.6957904], [9.638255, 59.6960777], [9.6382963, 59.696282], [9.6383326, 59.6965367], [9.6383404, 59.6966387], [9.6383423, 59.6966806], [9.6383471, 59.6967827], [9.6383436, 59.6969726], [9.6383335, 59.6971395], [9.6383078, 59.6973422], [9.6382808, 59.6975006], [9.638246, 59.6976483], [9.6381415, 59.6979875], [9.6379817, 59.6983579], [9.6379035, 59.6985121], [9.637773, 59.6987341], [9.6375838, 59.6990153], [9.6374547, 59.6991843], [9.6373301, 59.6993351], [9.6370893, 59.6996006], [9.6369397, 59.6997502], [9.6366947, 59.6999749], [9.636498, 59.7001413], [9.6363481, 59.7002638], [9.6362089, 59.7003698], [9.6358905, 59.7005975], [9.6356755, 59.7007385], [9.6352606, 59.7009905], [9.6350539, 59.7011051], [9.6348762, 59.7012037], [9.6346334, 59.7013272], [9.6341691, 59.7015462], [9.6338739, 59.701674], [9.6335829, 59.7017921], [9.6313206, 59.7026646], [9.6302922, 59.7030659], [9.6293648, 59.7034473]]}, "properties": {"electrified": "no", "gauge": "1435", "maxspeed": "40", "name": "Numedalsbanen", "railway": "rail", "usage": "industrial", "length_km": 1.183, "maxspeed_kmh": 40.0}}, {"type": "Feature", "geometry": {"type": "LineString", "coordinates": [[9.6376024, 59.69458], [9.6376432, 59.694661]]}, "properties": {"bridge": "yes", "electrified": "no", "gauge": "1435", "maxspeed": "40", "name": "Numedalsbanen", "railway": "rail", "usage": "industrial", "length_km": 0.009, "maxspeed_kmh": 40.0}}]}