{"type": "FeatureCollection", "features": [{"type": "Feature", "geometry": {"type": "LineString", "coordinates": [[5.7019676, 58.8080353], [5.7019553, 58.8085027], [5.7019371, 58.8089879], [5.7019362, 58.8091326], [5.7019486, 58.8093014], [5.7019841, 58.8094636], [5.7020371, 58.8096188], [5.7020847, 58.8097244], [5.7021692, 58.8098734], [5.702316, 58.8100811], [5.7024211, 58.8101985]]}, "properties": {"electrified": "contact_line", "frequency": "16.67", "name": "Oppstillingsspor", "railway": "rail", "service": "siding", "voltage": "15000", "length_km": 0.246}}, {"type": "Feature", "geometry": {"type": "LineString", "coordinates": [[5.7019676, 58.8080353], [5.7019977, 58.8071632], [5.702019, 58.8065554], [5.7020492, 58.8055451], [5.7020599, 58.805277], [5.7021, 58.8050066], [5.7021684, 58.8047386], [5.7022731, 58.8044584], [5.702414, 58.8041814], [5.702593, 58.8038577], [5.7030302, 58.8030625], [5.7037571, 58.8017386], [5.7042834, 58.8008197], [5.7044417, 58.8005429], [5.7045402, 58.8003824], [5.704626, 58.8002538], [5.7047227, 58.8001208], [5.7049848, 58.7997662], [5.705066, 58.7996536], [5.7051411, 58.7995369], [5.7052541, 58.7993435]]}, "properties": {"electrified": "contact_line", "frequency": "16.67", "maxspeed": "60", "name": "Oppstillingsspor", "railway": "rail", "service": "spur", "voltage": "15000", "length_km": 0.998, "maxspeed_kmh": 60.0}}, {"type": "Feature", "geometry": {"type": "LineString", "coordinates": [[5.7018813, 58.8078178], [5.7018925, 58.8073767], [5.7019244, 58.8065555], [5.7019568, 58.8054746], [5.7019673, 58.8052746], [5.7020033, 58.8050019], [5.7020718, 58.8047294], [5.7021759, 58.8044463], [5.7023162, 58.8041676], [5.7024954, 58.803844], [5.7029323, 58.8030483], [5.7036551, 58.8017351], [5.7038274, 58.8014165], [5.7039361, 58.8012199], [5.7040468, 58.801052], [5.704626, 58.8002538]]}, "properties": {"electrified": "contact_line", "frequency": "16.67", "name": "Oppstillingsspor", "railway": "rail", "service": "spur", "voltage": "15000", "length_km": 0.868}}, {"type": "Feature", "geometry": {"type": "LineString", "coordinates": [[5.7018813, 58.8078178], [5.7018777, 58.8078998], [5.7018701, 58.8082027], [5.701864, 58.8083319], [5.7018493, 58.8088816], [5.7018416, 58.8091452], [5.7018547, 58.8093094], [5.7018862, 58.8094661], [5.7019439, 58.8096331], [5.7019874, 58.80974], [5.7020733, 58.809889], [5.7022195, 58.8101023], [5.7023296, 58.8102237]]}, "properties": {"electrified": "contact_line", "frequency": "16.67", "name": "Oppstillingsspor", "railway": "rail", "service": "siding", "voltage": "15000", "length_km": 0.273}}, {"type": "Feature", "geometry": {"type": "LineString", "coordinates": [[5.7017939, 58.8072002], [5.7018091, 58.8070927], [5.7018154, 58.8069809], [5.7018249, 58.8067235], [5.7018372, 58.8063469], [5.7018426, 58.8061166], [5.701862, 58.8055457], [5.7018701, 58.8052729], [5.7019046, 58.8049979], [5.7019717, 58.8047209], [5.7020786, 58.804432], [5.7022143, 58.8041525], [5.7023951, 58.8038291], [5.7028323, 58.8030326], [5.7034482, 58.8019128], [5.7035633, 58.8017213], [5.7040468, 58.801052]]}, "properties": {"electrified": "contact_line", "frequency": "16.67", "name": "Oppstillingsspor", "railway": "rail", "service": "spur", "voltage": "15000", "length_km": 0.705}}, {"type": "Feature", "geometry": {"type": "LineString", "coordinates": [[5.7013308, 58.8092664], [5.7012968, 58.8094226], [5.7012901, 58.809524], [5.7012928, 58.8096268], [5.7013129, 58.8097852], [5.7013584, 58.8099457], [5.7014309, 58.8101088], [5.7015093, 58.8102374], [5.7016475, 58.8104119]]}, "properties": {"electrified": "contact_line", "frequency": "16.67", "name": "Oppstillingsspor", "railway": "rail", "service": "siding", "voltage": "15000", "length_km": 0.131}}]}