{"type": "FeatureCollection", "features": [{"type": "Feature", "geometry": {"type": "LineString", "coordinates": [[9.6898402, 59.0650202], [9.6898639, 59.0648711], [9.6898787, 59.0647697], [9.6898803, 59.0646477], [9.6898725, 59.0645387], [9.6898456, 59.0644187], [9.6897996, 59.0643013], [9.6897614, 59.0642272], [9.6896984, 59.0641289], [9.6896272, 59.0640394], [9.6895328, 59.0639427], [9.6894785, 59.0638894], [9.6893808, 59.0638103], [9.6892794, 59.0637355], [9.6891203, 59.0636334], [9.6890165, 59.063575], [9.6888834, 59.0635095], [9.6888172, 59.063479], [9.688639, 59.0634019]]}, "properties": {"electrified": "contact_line", "frequency": "16.67", "maxspeed": "30", "name": "\u00d8rvik sidespor", "railway": "rail", "service": "spur", "voltage": "15000", "length_km": 0.203, "maxspeed_kmh": 30.0}}, {"type": "Feature", "geometry": {"type": "LineString", "coordinates": [[9.688639, 59.0634019], [9.6884864, 59.0633513], [9.688088, 59.0632751], [9.687713, 59.0632084], [9.6873091, 59.0631609], [9.6867903, 59.0631248], [9.686324, 59.0631004]]}, "properties": {"maxspeed": "30", "name": "\u00d8rvik sidespor", "railway": "rail", "service": "spur", "tunnel": "yes", "length_km": 0.138, "maxspeed_kmh": 30.0}}]}