{"type": "FeatureCollection", "features": [{"type": "Feature", "geometry": {"type": "LineString", "coordinates": [[10.7540373, 59.9113179], [10.7538381, 59.9113558], [10.7535849, 59.911404], [10.753276, 59.9114553], [10.7530668, 59.911489], [10.752621, 59.9115531]]}, "properties": {"electrified": "contact_line", "frequency": "16.67", "gauge": "1435", "maxspeed": "40", "name": "Oslotunnelen", "operator": "Bane NOR", "railway": "rail", "tunnel": "yes", "usage": "main", "voltage": "15000", "length_km": 0.084, "maxspeed_kmh": 40.0}}, {"type": "Feature", "geometry": {"type": "LineString", "coordinates": [[10.7509547, 59.9117705], [10.751215, 59.9117165], [10.7515809, 59.9116401], [10.7521136, 59.9115143], [10.7526765, 59.9113768], [10.7530297, 59.9112894], [10.7538265, 59.9110933]]}, "properties": {"electrified": "contact_line", "frequency": "16.67", "gauge": "1435", "maxspeed": "40", "name": "Oslotunnelen", "operator": "Bane NOR", "railway": "rail", "tunnel": "yes", "voltage": "15000", "length_km": 0.178, "maxspeed_kmh": 40.0}}, {"type": "Feature", "geometry": {"type": "LineString", "coordinates": [[10.7529694, 59.9114266], [10.753131, 59.9113871], [10.7533072, 59.9113446], [10.7534047, 59.9113207], [10.7535065, 59.9112958], [10.7537316, 59.9112426], [10.7539175, 59.9111959]]}, "properties": {"electrified": "contact_line", "frequency": "16.67", "gauge": "1435", "maxspeed": "40", "name": "Oslotunnelen", "operator": "Bane NOR", "railway": "rail", "tunnel": "yes", "voltage": "15000", "length_km": 0.059, "maxspeed_kmh": 40.0}}, {"type": "Feature", "geometry": {"type": "LineString", "coordinates": [[10.7539513, 59.9112286], [10.7537717, 59.9112689], [10.7535153, 59.9113219], [10.7533182, 59.91136], [10.7529694, 59.9114266]]}, "properties": {"electrified": "contact_line", "frequency": "16.67", "gauge": "1435", "maxspeed": "40", "name": "Oslotunnelen", "operator": "Bane NOR", "railway": "rail", "tunnel": "yes", "voltage": "15000", "length_km": 0.059, "maxspeed_kmh": 40.0}}, {"type": "Feature", "geometry": {"type": "LineString", "coordinates": [[10.7508993, 59.911637], [10.75121, 59.9115516], [10.7514019, 59.9114937], [10.7516313, 59.9114214], [10.7519218, 59.9113228], [10.7522618, 59.9112098], [10.7525955, 59.9110986], [10.7528439, 59.9110217], [10.7530659, 59.9109562], [10.7532897, 59.9108932], [10.7535533, 59.9108191]]}, "properties": {"electrified": "contact_line", "frequency": "16.67", "gauge": "1435", "maxspeed": "40", "name": "Oslotunnelen", "operator": "Bane NOR", "railway": "rail", "tunnel": "yes", "usage": "main", "voltage": "15000", "length_km": 0.174, "maxspeed_kmh": 40.0}}, {"type": "Feature", "geometry": {"type": "LineString", "coordinates": [[10.7501553, 59.9118634], [10.75048, 59.91177], [10.7506798, 59.9117086], [10.7508993, 59.911637]]}, "properties": {"electrified": "contact_line", "frequency": "16.67", "gauge": "1435", "maxspeed": "40", "name": "Oslotunnelen", "operator": "Bane NOR", "railway": "rail", "tunnel": "yes", "usage": "main", "voltage": "15000", "length_km": 0.049, "maxspeed_kmh": 40.0}}, {"type": "Feature", "geometry": {"type": "LineString", "coordinates": [[10.7501553, 59.9118634], [10.7505921, 59.9117631], [10.7508675, 59.9116936], [10.7510895, 59.9116311], [10.7512929, 59.911571], [10.751502, 59.9115063], [10.7519565, 59.9113578], [10.7522708, 59.9112605], [10.7525324, 59.9111845], [10.7528337, 59.9111034], [10.7531453, 59.9110262], [10.7536542, 59.9109092]]}, "properties": {"electrified": "contact_line", "frequency": "16.67", "gauge": "1435", "maxspeed": "40", "name": "Oslotunnelen", "operator": "Bane NOR", "railway": "rail", "tunnel": "yes", "usage": "branch", "voltage": "15000", "length_km": 0.223, "maxspeed_kmh": 40.0}}, {"type": "Feature", "geometry": {"type": "LineString", "coordinates": [[10.7540696, 59.9113578], [10.7538851, 59.9113915], [10.7536975, 59.9114222], [10.7535064, 59.9114509], [10.7532887, 59.9114807], [10.7530868, 59.911504], [10.7528695, 59.9115284], [10.752621, 59.9115531]]}, "properties": {"electrified": "contact_line", "frequency": "16.67", "gauge": "1435", "maxspeed": "40", "name": "Oslotunnelen", "operator": "Bane NOR", "railway": "rail", "tunnel": "yes", "voltage": "15000", "length_km": 0.084, "maxspeed_kmh": 40.0}}, {"type": "Feature", "geometry": {"type": "LineString", "coordinates": [[10.7501742, 59.9119308], [10.7507319, 59.91179], [10.7510139, 59.9117172]]}, "properties": {"electrified": "contact_line", "frequency": "16.67", "gauge": "1435", "maxspeed": "60", "name": "Oslotunnelen", "operator": "Bane NOR", "railway": "rail", "tunnel": "yes", "usage": "main", "voltage": "15000", "length_km": 0.053, "maxspeed_kmh": 60.0}}, {"type": "Feature", "geometry": {"type": "LineString", "coordinates": [[10.7510139, 59.9117172], [10.75137, 59.9116331], [10.7516584, 59.9115633], [10.7520633, 59.9114668], [10.7526336, 59.9113296], [10.7529851, 59.9112448], [10.7537919, 59.9110506]]}, "properties": {"electrified": "contact_line", "frequency": "16.67", "gauge": "1435", "maxspeed": "60", "name": "Oslotunnelen", "operator": "Bane NOR", "railway": "rail", "tunnel": "yes", "usage": "main", "voltage": "15000", "length_km": 0.172, "maxspeed_kmh": 60.0}}, {"type": "Feature", "geometry": {"type": "LineString", "coordinates": [[10.7510139, 59.9117172], [10.7511777, 59.911671], [10.7513511, 59.9116195], [10.7516204, 59.9115377], [10.7520047, 59.91141], [10.7523262, 59.9113117], [10.7525951, 59.9112312], [10.7528878, 59.9111493], [10.7531931, 59.9110702], [10.753691, 59.9109497]]}, "properties": {"electrified": "contact_line", "frequency": "16.67", "gauge": "1435", "maxspeed": "40", "name": "Oslotunnelen", "operator": "Bane NOR", "railway": "rail", "tunnel": "yes", "usage": "main", "voltage": "15000", "length_km": 0.173, "maxspeed_kmh": 40.0}}, {"type": "Feature", "geometry": {"type": "LineString", "coordinates": [[10.7516233, 59.9113787], [10.7517769, 59.9113213], [10.7519208, 59.9112678], [10.7520684, 59.9112135], [10.7522876, 59.9111345], [10.752527, 59.9110553], [10.7527849, 59.9109733], [10.7530079, 59.9109084], [10.7532401, 59.9108447], [10.7535222, 59.9107713]]}, "properties": {"electrified": "contact_line", "frequency": "16.67", "gauge": "1435", "maxspeed": "40", "name": "Oslotunnelen", "operator": "Bane NOR", "railway": "rail", "tunnel": "yes", "voltage": "15000", "length_km": 0.126, "maxspeed_kmh": 40.0}}, {"type": "Feature", "geometry": {"type": "LineString", "coordinates": [[10.7508993, 59.911637], [10.751122, 59.9115684], [10.751378, 59.9114711], [10.7516233, 59.9113787]]}, "properties": {"electrified": "contact_line", "frequency": "16.67", "gauge": "1435", "maxspeed": "40", "name": "Oslotunnelen", "operator": "Bane NOR", "railway": "rail", "tunnel": "yes", "usage": "main", "voltage": "15000", "length_km": 0.05, "maxspeed_kmh": 40.0}}, {"type": "Feature", "geometry": {"type": "LineString", "coordinates": [[10.7356202, 59.914418], [10.7353734, 59.9144867], [10.7351643, 59.9145452], [10.7349233, 59.914611], [10.7347049, 59.9146679], [10.7344484, 59.9147357], [10.7341766, 59.9148], [10.7338928, 59.9148684], [10.7335945, 59.9149335], [10.7331651, 59.9150194], [10.7328321, 59.9150809], [10.7324954, 59.915139], [10.7320852, 59.9151979], [10.7317299, 59.9152452], [10.7313887, 59.9152862], [10.730958, 59.9153314], [10.7305589, 59.9153714], [10.7285525, 59.9155599], [10.7267122, 59.9157365], [10.7256548, 59.9158397], [10.7251941, 59.9158852], [10.7247582, 59.9159322], [10.7242395, 59.9159968], [10.7237942, 59.9160592], [10.723401, 59.9161223], [10.7230187, 59.9161893], [10.7225423, 59.9162818], [10.7221215, 59.9163705], [10.7215784, 59.9164932], [10.721187, 59.9165844], [10.7206964, 59.9167017], [10.7203839, 59.9167729], [10.7201141, 59.9168367]]}, "properties": {"electrified": "contact_line", "frequency": "16.67", "gauge": "1435", "maxspeed": "80", "name": "Oslotunnelen", "operator": "Bane NOR", "passenger_lines": "4", "railway": "rail", "tunnel": "yes", "usage": "main", "voltage": "15000", "length_km": 0.914, "maxspeed_kmh": 80.0}}, {"type": "Feature", "geometry": {"type": "LineString", "coordinates": [[10.7294533, 59.9150598], [10.7297216, 59.915039], [10.7299498, 59.9150229], [10.7301856, 59.9150087], [10.7305172, 59.9149922], [10.7309359, 59.9149735], [10.7313366, 59.9149548], [10.7318317, 59.9149331], [10.7321066, 59.9149215], [10.7323739, 59.9149087], [10.7325495, 59.9148987], [10.7327267, 59.9148845], [10.7329678, 59.9148637], [10.7330997, 59.9148511], [10.7332837, 59.9148297], [10.7335642, 59.9147922]]}, "properties": {"electrified": "contact_line", "frequency": "16.67", "gauge": "1435", "name": "Oslotunnelen", "operator": "Bane NOR", "passenger_lines": "4", "railway": "rail", "tunnel": "yes", "usage": "main", "voltage": "15000", "length_km": 0.232}}, {"type": "Feature", "geometry": {"type": "LineString", "coordinates": [[10.7212002, 59.9164409], [10.7216473, 59.9163137], [10.7222954, 59.9161302], [10.7225447, 59.9160591], [10.7228761, 59.9159759], [10.7231576, 59.9159135], [10.7234028, 59.9158617], [10.7236526, 59.9158133], [10.7239333, 59.9157623], [10.7242929, 59.9157055], [10.7246194, 59.9156606], [10.724886, 59.9156297], [10.7251653, 59.9155994], [10.7256416, 59.915554], [10.7275629, 59.9153748], [10.7295159, 59.915184], [10.7299962, 59.9151393], [10.7302598, 59.9151158], [10.7305404, 59.9150943], [10.7310301, 59.9150619], [10.7313609, 59.9150397], [10.7316249, 59.9150198], [10.7318475, 59.9150025], [10.7320809, 59.9149805], [10.7322411, 59.9149653], [10.7323773, 59.9149511], [10.7325413, 59.914933], [10.7327354, 59.9149097], [10.7329763, 59.9148795], [10.7331352, 59.9148572], [10.7332903, 59.9148342], [10.7335642, 59.9147922]]}, "properties": {"electrified": "contact_line", "frequency": "16.67", "gauge": "1435", "maxspeed": "80", "name": "Oslotunnelen", "operator": "Bane NOR", "passenger_lines": "4", "railway": "rail", "tunnel": "yes", "usage": "main", "voltage": "15000", "length_km": 0.721, "maxspeed_kmh": 80.0}}, {"type": "Feature", "geometry": {"type": "LineString", "coordinates": [[10.7356202, 59.914418], [10.7353635, 59.9144813], [10.7351567, 59.9145292], [10.7349073, 59.9145852], [10.7347064, 59.9146271], [10.7344217, 59.9146888], [10.7341286, 59.9147491], [10.7338513, 59.9148064], [10.7335407, 59.9148676], [10.7331169, 59.9149416], [10.7327811, 59.9149938], [10.7324706, 59.9150379], [10.7320373, 59.9150908], [10.7317155, 59.9151292], [10.7313227, 59.9151688], [10.7309348, 59.9152053], [10.7304998, 59.9152464], [10.7285149, 59.9154347], [10.7266591, 59.9156113], [10.7256227, 59.9157152], [10.7251554, 59.9157705], [10.7246838, 59.9158302], [10.7241942, 59.9159045], [10.7237726, 59.915978], [10.7233758, 59.9160523], [10.7229608, 59.9161355], [10.7224923, 59.9162373], [10.7220938, 59.9163293], [10.7215259, 59.9164612], [10.7211644, 59.9165508], [10.7206709, 59.9166834], [10.7201141, 59.9168367]]}, "properties": {"electrified": "contact_line", "frequency": "16.67", "gauge": "1435", "maxspeed": "70", "name": "Oslotunnelen", "operator": "Bane NOR", "passenger_lines": "4", "railway": "rail", "tunnel": "yes", "usage": "main", "voltage": "15000", "length_km": 0.914, "maxspeed_kmh": 70.0}}, {"type": "Feature", "geometry": {"type": "LineString", "coordinates": [[10.7516777, 59.9116579], [10.751447, 59.9116916], [10.7512205, 59.911725], [10.7509547, 59.9117705]]}, "properties": {"electrified": "contact_line", "frequency": "16.67", "gauge": "1435", "maxspeed": "40", "name": "Oslotunnelen", "operator": "Bane NOR", "railway": "rail", "tunnel": "yes", "usage": "main", "voltage": "15000", "length_km": 0.042, "maxspeed_kmh": 40.0}}, {"type": "Feature", "geometry": {"type": "LineString", "coordinates": [[10.7529694, 59.9114266], [10.7526169, 59.9114955], [10.7522829, 59.911559], [10.7520353, 59.9116007], [10.7516777, 59.9116579]]}, "properties": {"electrified": "contact_line", "frequency": "16.67", "gauge": "1435", "maxspeed": "40", "name": "Oslotunnelen", "operator": "Bane NOR", "railway": "rail", "tunnel": "yes", "voltage": "15000", "length_km": 0.077, "maxspeed_kmh": 40.0}}, {"type": "Feature", "geometry": {"type": "LineString", "coordinates": [[10.7522568, 59.9110975], [10.7524241, 59.9110338], [10.7525574, 59.9109852], [10.7526902, 59.9109377], [10.7528622, 59.9108781], [10.7530052, 59.9108314], [10.7532126, 59.9107649], [10.7534438, 59.9106949]]}, "properties": {"electrified": "contact_line", "frequency": "16.67", "gauge": "1435", "maxspeed": "40", "name": "Oslotunnelen", "operator": "Bane NOR", "railway": "rail", "tunnel": "yes", "voltage": "15000", "length_km": 0.08, "maxspeed_kmh": 40.0}}, {"type": "Feature", "geometry": {"type": "LineString", "coordinates": [[10.7522568, 59.9110975], [10.7525234, 59.9109786], [10.7526611, 59.9109221], [10.75282, 59.9108581], [10.7529664, 59.9108035], [10.7531693, 59.9107312], [10.7534015, 59.9106566]]}, "properties": {"electrified": "contact_line", "frequency": "16.67", "gauge": "1435", "maxspeed": "40", "name": "Oslotunnelen", "operator": "Bane NOR", "railway": "rail", "tunnel": "yes", "usage": "main", "voltage": "15000", "length_km": 0.081, "maxspeed_kmh": 40.0}}, {"type": "Feature", "geometry": {"type": "LineString", "coordinates": [[10.7509547, 59.9117705], [10.7505424, 59.9118535], [10.7501742, 59.9119308]]}, "properties": {"electrified": "contact_line", "frequency": "16.67", "gauge": "1435", "maxspeed": "40", "name": "Oslotunnelen", "operator": "Bane NOR", "railway": "rail", "tunnel": "yes", "usage": "main", "voltage": "15000", "length_km": 0.047, "maxspeed_kmh": 40.0}}, {"type": "Feature", "geometry": {"type": "LineString", "coordinates": [[10.7255826, 59.9154292], [10.7261599, 59.9153722], [10.7275065, 59.9152474], [10.7294533, 59.9150598]]}, "properties": {"electrified": "contact_line", "frequency": "16.67", "gauge": "1435", "name": "Oslotunnelen", "operator": "Bane NOR", "passenger_lines": "4", "railway": "rail", "tunnel": "yes", "usage": "main", "voltage": "15000", "length_km": 0.22}}, {"type": "Feature", "geometry": {"type": "LineString", "coordinates": [[10.7212002, 59.9164409], [10.7215939, 59.9163098], [10.7219983, 59.9161742], [10.7222353, 59.9160932], [10.722478, 59.9160139], [10.7227026, 59.9159454], [10.7229549, 59.9158732], [10.7233304, 59.915777], [10.7236174, 59.9157124], [10.723868, 59.9156615], [10.7242022, 59.9155988], [10.7245565, 59.9155434], [10.7248045, 59.91551], [10.7251118, 59.9154731], [10.7255826, 59.9154292]]}, "properties": {"electrified": "contact_line", "frequency": "16.67", "gauge": "1435", "name": "Oslotunnelen", "operator": "Bane NOR", "passenger_lines": "4", "railway": "rail", "tunnel": "yes", "usage": "main", "voltage": "15000", "length_km": 0.273}}, {"type": "Feature", "geometry": {"type": "LineString", "coordinates": [[10.7516233, 59.9113787], [10.751766, 59.9113153], [10.7518989, 59.9112555], [10.7520294, 59.9111943], [10.7521388, 59.9111474], [10.7522568, 59.9110975]]}, "properties": {"electrified": "contact_line", "frequency": "16.67", "gauge": "1435", "maxspeed": "40", "name": "Oslotunnelen", "operator": "Bane NOR", "railway": "rail", "tunnel": "yes", "usage": "main", "voltage": "15000", "length_km": 0.047, "maxspeed_kmh": 40.0}}, {"type": "Feature", "geometry": {"type": "LineString", "coordinates": [[10.752621, 59.9115531], [10.7522518, 59.9115936], [10.7519605, 59.9116254], [10.7516777, 59.9116579]]}, "properties": {"electrified": "contact_line", "frequency": "16.67", "gauge": "1435", "maxspeed": "40", "name": "Oslotunnelen", "operator": "Bane NOR", "railway": "rail", "tunnel": "yes", "usage": "main", "voltage": "15000", "length_km": 0.054, "maxspeed_kmh": 40.0}}]}