{"type": "FeatureCollection", "features": [{"type": "Feature", "geometry": {"type": "LineString", "coordinates": [[10.838038, 59.7147819], [10.8382285, 59.7147489], [10.8384225, 59.7147181], [10.838634, 59.7146888], [10.8389316, 59.714654], [10.8392402, 59.7146239], [10.8396252, 59.7145864], [10.8431541, 59.7142491], [10.8439833, 59.7141663], [10.8447818, 59.7140796], [10.845328, 59.7140144], [10.8458746, 59.713949], [10.8463736, 59.7138808], [10.8468774, 59.7138118], [10.8474069, 59.7137346], [10.8483476, 59.7135899], [10.8504613, 59.713262], [10.8536463, 59.712763], [10.8557911, 59.7124284], [10.8559321, 59.7124063], [10.8607519, 59.711656], [10.8635359, 59.7112198], [10.864548, 59.7110604], [10.8655212, 59.7109091], [10.8661004, 59.7108167], [10.8671986, 59.7106472], [10.8682004, 59.7104907], [10.8689813, 59.7103663], [10.8694556, 59.7102895], [10.8699027, 59.7102068], [10.8703324, 59.7101243], [10.8707646, 59.710028], [10.8711495, 59.7099361], [10.8715414, 59.7098347], [10.871939, 59.7097242], [10.8723078, 59.7096119], [10.8727161, 59.7094782], [10.8730506, 59.7093613], [10.8734622, 59.7092099], [10.8737464, 59.7090989], [10.8740481, 59.708971], [10.874344, 59.7088372], [10.8746573, 59.7086894], [10.8749823, 59.7085277], [10.8752097, 59.7084049], [10.8754443, 59.7082763], [10.8756585, 59.7081498], [10.8758757, 59.7080138], [10.8760637, 59.7078947], [10.8762823, 59.7077433], [10.8764849, 59.7075978], [10.8767137, 59.7074265], [10.8768871, 59.7072839], [10.8770853, 59.7071133], [10.8772981, 59.7069155], [10.8774803, 59.7067384], [10.8776508, 59.7065575], [10.8777922, 59.7063958], [10.8779481, 59.7062032], [10.8780924, 59.7060113], [10.8782105, 59.7058334], [10.8783227, 59.7056525], [10.8784318, 59.7054591], [10.8785348, 59.7052563], [10.8787173, 59.7048677], [10.878945, 59.7043331], [10.8799379, 59.7019828], [10.8808211, 59.6999278], [10.8816239, 59.6980371], [10.8820448, 59.697063], [10.8829558, 59.6949279], [10.8835515, 59.6935197], [10.8841266, 59.6921652], [10.8843667, 59.6916041], [10.8845728, 59.6911298], [10.8847542, 59.6906981], [10.8849026, 59.6903507], [10.8850407, 59.6900282], [10.8851865, 59.6897044]]}, "properties": {"electrified": "contact_line", "frequency": "16.67", "gauge": "1435", "name": "\u00d8stfoldbanen \u00d8stre linje", "operator": "Bane NOR", "passenger_lines": "1", "railway": "rail", "usage": "branch", "voltage": "15000", "length_km": 4.405}}, {"type": "Feature", "geometry": {"type": "LineString", "coordinates": [[11.1738731, 59.5792903], [11.1749549, 59.5789518], [11.1757519, 59.5787058], [11.1762242, 59.5785642], [11.1765949, 59.5784545], [11.176832, 59.5783913], [11.1771311, 59.5783092], [11.177512, 59.578211], [11.1778279, 59.5781315], [11.1781791, 59.5780493], [11.1784182, 59.5779963], [11.1786062, 59.5779531], [11.1790204, 59.577865], [11.1793678, 59.5777941], [11.1797404, 59.5777233], [11.1801094, 59.5776548], [11.1804679, 59.5775916], [11.1808918, 59.577523], [11.1812855, 59.577464], [11.1816612, 59.5774091], [11.1824021, 59.5773134], [11.1830933, 59.5772332], [11.183928, 59.5771377], [11.1853299, 59.5769739], [11.1897243, 59.5764651], [11.1922603, 59.576171], [11.1926327, 59.5761278], [11.1953226, 59.5758179], [11.1962989, 59.5757036], [11.1975099, 59.5755617], [11.1983655, 59.5754618], [11.1988129, 59.575413], [11.1996232, 59.5753168], [11.2005743, 59.5752065], [11.2012757, 59.5751248], [11.2063115, 59.5745378], [11.2092114, 59.5741971], [11.2098689, 59.5741199], [11.2115512, 59.5739228], [11.2123994, 59.5738231], [11.2131361, 59.5737352], [11.2141849, 59.5736136], [11.2156655, 59.5734408], [11.2168166, 59.5733031]]}, "properties": {"electrified": "contact_line", "frequency": "16.67", "gauge": "1435", "name": "\u00d8stfoldbanen \u00d8stre linje", "operator": "Bane NOR", "passenger_lines": "1", "railway": "rail", "usage": "branch", "voltage": "15000", "length_km": 2.529}}, {"type": "Feature", "geometry": {"type": "LineString", "coordinates": [[11.3400072, 59.4240605], [11.3402545, 59.4227502], [11.3403087, 59.422529], [11.3404556, 59.4219303]]}, "properties": {"electrified": "contact_line", "frequency": "16.67", "gauge": "1435", "name": "\u00d8stfoldbanen \u00d8stre linje", "operator": "Bane NOR", "passenger_lines": "1", "railway": "rail", "usage": "branch", "voltage": "15000", "length_km": 0.239}}, {"type": "Feature", "geometry": {"type": "LineString", "coordinates": [[11.2188368, 59.2998771], [11.2182249, 59.2995331], [11.21806, 59.2994269], [11.2178979, 59.2993198], [11.2177118, 59.2991781], [11.2176053, 59.2990916], [11.2175149, 59.2990072], [11.2173809, 59.2988711], [11.2172299, 59.2986924], [11.2171104, 59.2985157], [11.2170025, 59.298313], [11.2169278, 59.298107], [11.2168843, 59.2979201], [11.2168554, 59.2976927], [11.2168564, 59.297383], [11.2168671, 59.2966865], [11.2168625, 59.2965347], [11.2168408, 59.2963687], [11.2168037, 59.2962063], [11.2167535, 59.296066], [11.2166663, 59.2958793], [11.2165413, 59.2956705], [11.2163948, 59.2954846], [11.2162782, 59.295368], [11.2161547, 59.2952447], [11.2159692, 59.2950843], [11.215767, 59.294941], [11.2155243, 59.2947844], [11.2153287, 59.294673], [11.2149709, 59.2944944], [11.2144664, 59.2942722], [11.2139468, 59.2940536], [11.2133708, 59.2938212], [11.2129849, 59.2936735], [11.2125827, 59.2935244], [11.2120225, 59.2933257], [11.2114122, 59.2931192], [11.2113701, 59.2931059], [11.2108216, 59.2929323], [11.2104488, 59.2928217], [11.2101024, 59.2927272], [11.2097703, 59.2926472], [11.2094819, 59.2925862], [11.2092193, 59.2925441], [11.2089247, 59.2925022], [11.208656, 59.292473], [11.2083878, 59.2924487], [11.2080359, 59.2924347], [11.2075017, 59.2924253], [11.2068305, 59.2924106], [11.2038178, 59.2923624], [11.2027816, 59.292351], [11.2024202, 59.2923458], [11.2018653, 59.292331], [11.2014119, 59.2923134], [11.2007883, 59.2922677], [11.2002684, 59.2922175], [11.1998212, 59.2921626], [11.1993869, 59.2920983], [11.1989958, 59.2920338], [11.1984858, 59.2919354], [11.1978756, 59.291801], [11.1973317, 59.2916591], [11.196853, 59.2915176], [11.1963445, 59.2913474], [11.1959352, 59.2911974], [11.195513, 59.2910249], [11.1950935, 59.2908359], [11.1946684, 59.2906235], [11.1943419, 59.2904392], [11.1939855, 59.2902217], [11.1936821, 59.2900189], [11.1933769, 59.2897955], [11.193067, 59.2895368], [11.1928761, 59.2893583], [11.1926626, 59.2891425], [11.1924479, 59.2888994], [11.1922863, 59.2886997], [11.1921181, 59.2884676], [11.1918257, 59.288031], [11.1916878, 59.2878344], [11.191523, 59.2876327], [11.1913347, 59.2874189], [11.1911345, 59.287229], [11.1908537, 59.2869975], [11.1905788, 59.2867967], [11.1902994, 59.28661], [11.1899977, 59.2864334], [11.1896962, 59.2862801], [11.18935, 59.286124], [11.1889592, 59.2859619], [11.1886077, 59.2858359], [11.188237, 59.2857133], [11.1879042, 59.2856133], [11.1874217, 59.2854901], [11.186886, 59.2853728], [11.1864824, 59.2852972], [11.1854928, 59.2851335], [11.1849613, 59.2850419], [11.1844917, 59.2849477], [11.1841197, 59.2848596], [11.1837411, 59.2847481], [11.1834652, 59.2846558], [11.1831252, 59.2845213], [11.1828786, 59.2844067], [11.1826043, 59.2842624], [11.1823435, 59.2841027], [11.1821257, 59.2839473], [11.1819181, 59.2837757], [11.1817402, 59.2836122], [11.1815607, 59.283403], [11.1814447, 59.2832337], [11.1813285, 59.2830066], [11.181249, 59.2828036], [11.1811618, 59.2825048], [11.180985, 59.281631], [11.1807828, 59.2804848], [11.1807006, 59.280201], [11.1806179, 59.2799073], [11.1805199, 59.2796617], [11.1804672, 59.2795259], [11.1804309, 59.2794506], [11.1803097, 59.2792129], [11.1801187, 59.2788893], [11.179988, 59.2786823], [11.179787, 59.2784155], [11.1795868, 59.2781693], [11.1794161, 59.2779784], [11.1792212, 59.2777828], [11.1790174, 59.2775883], [11.1788276, 59.2774234], [11.1785661, 59.2772059], [11.1783181, 59.2770186], [11.1780635, 59.2768364], [11.1778129, 59.2766739], [11.1773082, 59.2764031], [11.1770161, 59.2762712], [11.1767197, 59.2761522], [11.1763915, 59.2760353], [11.1761185, 59.2759483], [11.1758794, 59.2758769], [11.1755708, 59.2757952], [11.1752664, 59.2757271], [11.1749583, 59.2756635], [11.1746211, 59.2756045], [11.1743326, 59.2755639], [11.1739461, 59.2755177], [11.1735615, 59.2754827], [11.1732832, 59.2754696], [11.1730448, 59.2754597], [11.1729493, 59.2754595], [11.1726364, 59.2754529], [11.1716875, 59.2754569], [11.1713511, 59.2754558], [11.1710028, 59.2754459], [11.1706644, 59.275428], [11.1703271, 59.2753956], [11.1700031, 59.2753561], [11.169617, 59.2752944], [11.1692299, 59.2752146], [11.1688912, 59.2751281], [11.1685531, 59.2750291], [11.1681148, 59.2748732], [11.1672599, 59.2745555], [11.1668307, 59.2744131], [11.1664697, 59.2742989], [11.1661566, 59.2742169], [11.165751, 59.2741293], [11.1654316, 59.2740756], [11.1651112, 59.2740336], [11.1647835, 59.2739984], [11.1643439, 59.2739675], [11.1639698, 59.2739544], [11.1636056, 59.2739562], [11.1633278, 59.2739664], [11.1630104, 59.2739882], [11.1627119, 59.2740084], [11.1623625, 59.2740521], [11.1620505, 59.2740998], [11.1618895, 59.2741298], [11.1616078, 59.2741894], [11.1613031, 59.2742629], [11.1609651, 59.2743622], [11.1606619, 59.2744662], [11.1604348, 59.2745521], [11.1602388, 59.2746353], [11.159993, 59.2747466], [11.1595731, 59.2749476], [11.1592468, 59.275099], [11.1589211, 59.2752379], [11.158668, 59.2753346], [11.1583333, 59.2754406], [11.1580752, 59.2755125], [11.1577742, 59.2755867], [11.1574844, 59.275648], [11.1572172, 59.2756948], [11.1569524, 59.2757324], [11.1566874, 59.2757651], [11.1563792, 59.2757936], [11.1559542, 59.2758153], [11.1556484, 59.2758229], [11.1553159, 59.2758223], [11.1549693, 59.2758069], [11.1545932, 59.2757781], [11.1542981, 59.2757454], [11.1537122, 59.2756631], [11.1523032, 59.2754266], [11.1509626, 59.2751719], [11.1493683, 59.2748922], [11.1479115, 59.2747393], [11.1470245, 59.274711], [11.1460585, 59.274742], [11.1441451, 59.2748485], [11.1410965, 59.2750326], [11.1395544, 59.2751268], [11.1379015, 59.2752251], [11.1372778, 59.2752622], [11.1369235, 59.2752836], [11.1365263, 59.2753193], [11.1362265, 59.2753552], [11.1359709, 59.2753912], [11.1356679, 59.2754444], [11.1354688, 59.2754864], [11.1352704, 59.2755286], [11.1351135, 59.2755658], [11.1349739, 59.275602], [11.1346675, 59.2756894]]}, "properties": {"electrified": "contact_line", "frequency": "16.67", "gauge": "1435", "name": "\u00d8stfoldbanen \u00d8stre linje", "operator": "Bane NOR", "passenger_lines": "1", "railway": "rail", "usage": "branch", "voltage": "15000", "length_km": 6.512}}, {"type": "Feature", "geometry": {"type": "LineString", "coordinates": [[11.1696175, 59.5805283], [11.1699009, 59.5804662], [11.1701438, 59.5804081], [11.1704462, 59.5803332], [11.1707563, 59.5802523], [11.1710748, 59.580162], [11.1713502, 59.5800781], [11.1716979, 59.5799717], [11.1719028, 59.5799073], [11.172499, 59.5797199], [11.1729144, 59.5795903], [11.1731984, 59.5795016], [11.1738731, 59.5792903]]}, "properties": {"electrified": "contact_line", "frequency": "16.67", "gauge": "1435", "name": "\u00d8stfoldbanen \u00d8stre linje", "operator": "Bane NOR", "passenger_lines": "1", "railway": "rail", "usage": "branch", "voltage": "15000", "length_km": 0.278}}, {"type": "Feature", "geometry": {"type": "LineString", "coordinates": [[11.1684783, 59.5807542], [11.1688819, 59.5806783], [11.1696175, 59.5805283]]}, "properties": {"bridge": "yes", "electrified": "contact_line", "frequency": "16.67", "gauge": "1435", "name": "\u00d8stfoldbanen \u00d8stre linje", "operator": "Bane NOR", "passenger_lines": "1", "railway": "rail", "usage": "branch", "voltage": "15000", "length_km": 0.069}}, {"type": "Feature", "geometry": {"type": "LineString", "coordinates": [[10.8375465, 59.7148801], [10.8377813, 59.7148312], [10.838038, 59.7147819]]}, "properties": {"bridge": "yes", "electrified": "contact_line", "frequency": "16.67", "gauge": "1435", "name": "\u00d8stfoldbanen \u00d8stre linje", "operator": "Bane NOR", "passenger_lines": "1", "railway": "rail", "usage": "branch", "voltage": "15000", "length_km": 0.03}}, {"type": "Feature", "geometry": {"type": "LineString", "coordinates": [[10.8934724, 59.6817975], [10.8933594, 59.6818747], [10.8932602, 59.6819485], [10.8931688, 59.6820218], [10.8930999, 59.6820778], [10.8930516, 59.6821157], [10.8929699, 59.682175], [10.892766, 59.6823127], [10.8921612, 59.6827229], [10.8920959, 59.68277], [10.8917904, 59.6829796], [10.8914445, 59.6832098], [10.8908959, 59.6835755], [10.8904875, 59.6838662], [10.8903389, 59.6839757], [10.8901629, 59.6841071], [10.8899919, 59.6842424], [10.8898541, 59.6843558], [10.8896718, 59.6845062], [10.8895492, 59.6846131], [10.8894374, 59.684706], [10.8893219, 59.6848027], [10.8892071, 59.6848909], [10.8891076, 59.6849649], [10.889031, 59.6850167], [10.8889417, 59.6850772], [10.8886419, 59.6853163]]}, "properties": {"electrified": "contact_line", "frequency": "16.67", "gauge": "1435", "name": "\u00d8stfoldbanen \u00d8stre linje", "operator": "Bane NOR", "passenger_lines": "2", "railway": "rail", "service": "siding", "voltage": "15000", "length_km": 0.478}}, {"type": "Feature", "geometry": {"type": "LineString", "coordinates": [[10.9984853, 59.6609008], [10.9987979, 59.6608272], [10.9989315, 59.6607899], [10.999095, 59.6607409], [10.9992518, 59.6606934], [10.9994043, 59.6606518], [10.9997472, 59.6605643], [11.000071, 59.6604796], [11.0001985, 59.6604485], [11.0003853, 59.6603989], [11.0006658, 59.6603315], [11.0008787, 59.6602815], [11.0011617, 59.6602192], [11.0014725, 59.6601552], [11.0018124, 59.6600891], [11.0023576, 59.6599762], [11.0029791, 59.6598574], [11.0034491, 59.6597662], [11.0038013, 59.659705], [11.0042595, 59.6596246], [11.0045044, 59.659585], [11.0047284, 59.6595542], [11.00495, 59.6595304], [11.0051655, 59.6595055], [11.0053444, 59.6594815], [11.005618, 59.6594426]]}, "properties": {"electrified": "contact_line", "frequency": "16.67", "gauge": "1435", "name": "\u00d8stfoldbanen \u00d8stre linje", "operator": "Bane NOR", "passenger_lines": "2", "railway": "rail", "service": "siding", "voltage": "15000", "length_km": 0.435}}, {"type": "Feature", "geometry": {"type": "LineString", "coordinates": [[11.0829343, 59.6219755], [11.0824491, 59.6218488], [11.0820776, 59.6217627], [11.0818347, 59.6216953], [11.0814063, 59.6215663], [11.0812828, 59.6215292], [11.0810278, 59.6214524], [11.0800721, 59.6211735], [11.0789669, 59.6208611], [11.0780518, 59.6205986], [11.077334, 59.6203991], [11.076951, 59.6202856], [11.0765403, 59.6201451], [11.0760822, 59.6199982]]}, "properties": {"electrified": "contact_line", "frequency": "16.67", "gauge": "1435", "name": "\u00d8stfoldbanen \u00d8stre linje", "operator": "Bane NOR", "passenger_lines": "2", "railway": "rail", "service": "siding", "voltage": "15000", "length_km": 0.445}}, {"type": "Feature", "geometry": {"type": "LineString", "coordinates": [[11.3233709, 59.5577592], [11.323403, 59.5576468], [11.3234141, 59.5575895], [11.3234284, 59.5574942], [11.3234391, 59.5573759], [11.3234488, 59.5572537], [11.323468, 59.5570576], [11.3235402, 59.55639]]}, "properties": {"electrified": "contact_line", "frequency": "16.67", "gauge": "1435", "name": "\u00d8stfoldbanen \u00d8stre linje", "operator": "Bane NOR", "passenger_lines": "2", "railway": "rail", "service": "siding", "voltage": "15000", "length_km": 0.153}}, {"type": "Feature", "geometry": {"type": "LineString", "coordinates": [[11.3233608, 59.5518546], [11.3232712, 59.5517003]]}, "properties": {"bridge": "yes", "electrified": "contact_line", "frequency": "16.67", "gauge": "1435", "name": "\u00d8stfoldbanen \u00d8stre linje", "operator": "Bane NOR", "passenger_lines": "1", "railway": "rail", "usage": "branch", "voltage": "15000", "length_km": 0.018}}, {"type": "Feature", "geometry": {"type": "LineString", "coordinates": [[11.1164103, 59.6090685], [11.1171362, 59.6084975]]}, "properties": {"bridge": "yes", "electrified": "contact_line", "frequency": "16.67", "gauge": "1435", "name": "\u00d8stfoldbanen \u00d8stre linje", "operator": "Bane NOR", "passenger_lines": "1", "railway": "rail", "usage": "branch", "voltage": "15000", "length_km": 0.076}}, {"type": "Feature", "geometry": {"type": "LineString", "coordinates": [[10.9870038, 59.6614253], [10.9883544, 59.6615402], [10.9896923, 59.6616417]]}, "properties": {"bridge": "viaduct", "electrified": "contact_line", "frequency": "16.67", "gauge": "1435", "name": "\u00d8stfoldbanen \u00d8stre linje", "operator": "Bane NOR", "passenger_lines": "1", "railway": "rail", "usage": "branch", "voltage": "15000", "length_km": 0.153}}, {"type": "Feature", "geometry": {"type": "LineString", "coordinates": [[10.9896923, 59.6616417], [10.9899351, 59.6616611], [10.9901618, 59.6616777], [10.9903832, 59.6616898], [10.9905993, 59.6616983], [10.9909174, 59.6617048], [10.9911673, 59.6617037], [10.9914195, 59.6616971], [10.9916888, 59.6616852], [10.9919533, 59.6616674], [10.9923363, 59.6616344], [10.9926999, 59.6615989], [10.9931605, 59.6615546], [10.9957116, 59.6613044], [10.9961821, 59.6612589], [10.996617, 59.6612147], [10.9969787, 59.6611706], [10.9972769, 59.6611294], [10.9976568, 59.6610667], [10.9979583, 59.6610088], [10.9982724, 59.6609454], [10.9984853, 59.6609008]]}, "properties": {"electrified": "contact_line", "frequency": "16.67", "gauge": "1435", "name": "\u00d8stfoldbanen \u00d8stre linje", "operator": "Bane NOR", "passenger_lines": "1", "railway": "rail", "usage": "branch", "voltage": "15000", "length_km": 0.507}}, {"type": "Feature", "geometry": {"type": "LineString", "coordinates": [[10.9984853, 59.6609008], [10.9990824, 59.6607688], [10.999501, 59.6606731], [10.9997832, 59.6606062], [11.0000948, 59.6605257], [11.0002163, 59.6604943], [11.0004037, 59.6604457], [11.0007175, 59.6603681], [11.0009202, 59.6603189], [11.0011927, 59.6602571], [11.0015247, 59.6601836], [11.0019305, 59.6600993], [11.0023749, 59.6600111], [11.0026846, 59.6599476], [11.0030185, 59.6598832], [11.0034619, 59.6597993], [11.0038366, 59.6597334], [11.0044773, 59.659625], [11.0049713, 59.6595516], [11.005618, 59.6594426]]}, "properties": {"electrified": "contact_line", "frequency": "16.67", "gauge": "1435", "name": "\u00d8stfoldbanen \u00d8stre linje", "operator": "Bane NOR", "passenger_lines": "2", "railway": "rail", "usage": "branch", "voltage": "15000", "length_km": 0.434}}, {"type": "Feature", "geometry": {"type": "LineString", "coordinates": [[11.0760822, 59.6199982], [11.0773823, 59.6203624], [11.0781066, 59.6205667], [11.0790114, 59.620821], [11.0801065, 59.6211337], [11.0805816, 59.6212673], [11.0810618, 59.6214131], [11.0813186, 59.6214907], [11.0814448, 59.6215288], [11.0818873, 59.6216625], [11.0829343, 59.6219755]]}, "properties": {"electrified": "contact_line", "frequency": "16.67", "gauge": "1435", "name": "\u00d8stfoldbanen \u00d8stre linje", "operator": "Bane NOR", "passenger_lines": "2", "railway": "rail", "usage": "branch", "voltage": "15000", "length_km": 0.445}}, {"type": "Feature", "geometry": {"type": "LineString", "coordinates": [[11.1599111, 59.5824283], [11.160423, 59.5823381], [11.160761, 59.5822698], [11.1609797, 59.5822278], [11.1610581, 59.5822128], [11.1611399, 59.5821975], [11.1612558, 59.5821759], [11.1614794, 59.5821319], [11.1619116, 59.5820455], [11.1624021, 59.5819491], [11.1631461, 59.5818032], [11.1653139, 59.581377], [11.1684783, 59.5807542]]}, "properties": {"electrified": "contact_line", "frequency": "16.67", "gauge": "1435", "name": "\u00d8stfoldbanen \u00d8stre linje", "operator": "Bane NOR", "passenger_lines": "1", "railway": "rail", "usage": "branch", "voltage": "15000", "length_km": 0.519}}, {"type": "Feature", "geometry": {"type": "LineString", "coordinates": [[10.8886419, 59.6853163], [10.888895, 59.6850894], [10.8891034, 59.6849047], [10.8892649, 59.6847688], [10.8894345, 59.684623], [10.8895971, 59.6844857], [10.88977, 59.6843383], [10.8899277, 59.6842134], [10.8900885, 59.6840888], [10.8902614, 59.6839538], [10.890418, 59.6838426], [10.890825, 59.6835529], [10.8913781, 59.6831851], [10.8917028, 59.6829598], [10.8920235, 59.6827452], [10.8920942, 59.6826992], [10.8927096, 59.6822816], [10.8929173, 59.682147], [10.8934724, 59.6817975]]}, "properties": {"electrified": "contact_line", "frequency": "16.67", "gauge": "1435", "name": "\u00d8stfoldbanen \u00d8stre linje", "operator": "Bane NOR", "passenger_lines": "2", "railway": "rail", "usage": "branch", "voltage": "15000", "length_km": 0.478}}, {"type": "Feature", "geometry": {"type": "LineString", "coordinates": [[11.1685244, 59.5807911], [11.168409, 59.5808124], [11.1653439, 59.5814165], [11.1631724, 59.5818442], [11.1624377, 59.5819902], [11.1619448, 59.5820844], [11.1615085, 59.5821707], [11.1612816, 59.5822155], [11.1611636, 59.5822368], [11.1610837, 59.5822513], [11.1610061, 59.5822646], [11.1609039, 59.5822821], [11.1607075, 59.5823139], [11.1604744, 59.5823478], [11.1599111, 59.5824283]]}, "properties": {"electrified": "contact_line", "frequency": "16.67", "gauge": "1435", "name": "\u00d8stfoldbanen \u00d8stre linje", "operator": "Bane NOR", "railway": "rail", "service": "siding", "voltage": "15000", "length_km": 0.52}}, {"type": "Feature", "geometry": {"type": "LineString", "coordinates": [[11.0093873, 59.6587953], [11.0106665, 59.6585798], [11.0112271, 59.6584771], [11.0116799, 59.6583772], [11.0120845, 59.6582661], [11.0124499, 59.6581423], [11.0127497, 59.6580278], [11.0130545, 59.6578887], [11.0132652, 59.6577801], [11.0135108, 59.6576375], [11.0137539, 59.6574762], [11.0140208, 59.6572674], [11.0141999, 59.6570995], [11.0143581, 59.6569233], [11.014477, 59.6567568], [11.0145807, 59.656579], [11.0146689, 59.6563969], [11.014727, 59.6562288], [11.0147671, 59.6560297], [11.0147814, 59.6558647], [11.0147699, 59.6556475], [11.0147357, 59.6554612], [11.0146313, 59.6550459], [11.0145724, 59.6548187], [11.0145431, 59.6546698], [11.0145316, 59.6545301], [11.0145336, 59.6543991], [11.0145421, 59.6542804], [11.0145593, 59.6541765], [11.014592, 59.6540512], [11.0146324, 59.6539317], [11.0146892, 59.6538093], [11.0149138, 59.6534647], [11.0149376, 59.6534229], [11.015083, 59.6532594], [11.0152665, 59.6530813], [11.0155455, 59.6528595], [11.0157775, 59.6526981], [11.0161052, 59.6524826], [11.0164287, 59.6522672], [11.0167327, 59.6520528], [11.0169634, 59.6518863], [11.0171984, 59.6516974], [11.0174673, 59.6514595], [11.0176699, 59.651269], [11.0178503, 59.6510817], [11.0181105, 59.6508041], [11.0187424, 59.6501097], [11.0225942, 59.6458812], [11.0232209, 59.6452017], [11.0235682, 59.6447998], [11.0237854, 59.6445401], [11.0240146, 59.6442293], [11.0244065, 59.643685], [11.0247995, 59.6431171], [11.0279124, 59.6386137], [11.027953, 59.638555], [11.0291513, 59.6368287], [11.0295744, 59.6362099], [11.0300972, 59.635371], [11.0303495, 59.6349416], [11.0305504, 59.6345667], [11.0307821, 59.6341213], [11.0310295, 59.6335901], [11.031164, 59.6332867], [11.0314108, 59.6326954], [11.0316055, 59.6321797], [11.0317564, 59.6317081], [11.0319026, 59.6312212], [11.0321015, 59.6304263], [11.0321423, 59.630206], [11.0321952, 59.6299595], [11.0322656, 59.6295101], [11.0323279, 59.629085], [11.0323825, 59.6285306], [11.0324157, 59.6280908], [11.0324288, 59.6277969], [11.032443, 59.6264313], [11.0324556, 59.625881], [11.0324598, 59.6255433], [11.0324698, 59.6253902], [11.0324959, 59.6252362], [11.0325312, 59.6250827], [11.0325917, 59.6249249], [11.0326427, 59.624811], [11.0327124, 59.6246895], [11.0328038, 59.62455], [11.0329862, 59.6243292], [11.0331774, 59.6241422], [11.0333678, 59.6239841], [11.0336373, 59.6237923], [11.0339895, 59.6235827], [11.034385, 59.6233916], [11.0347208, 59.6232565], [11.0350047, 59.6231573], [11.0354469, 59.6230258], [11.0358779, 59.6229219], [11.0363222, 59.6228407], [11.0368466, 59.6227674], [11.0372751, 59.6227269], [11.0376083, 59.6227084], [11.0380053, 59.6227051]]}, "properties": {"electrified": "contact_line", "frequency": "16.67", "gauge": "1435", "name": "\u00d8stfoldbanen \u00d8stre linje", "operator": "Bane NOR", "passenger_lines": "1", "railway": "rail", "usage": "branch", "voltage": "15000", "length_km": 4.556}}, {"type": "Feature", "geometry": {"type": "LineString", "coordinates": [[11.3235402, 59.55639], [11.3235408, 59.5563193], [11.3235382, 59.55623], [11.3235314, 59.5561506], [11.3235205, 59.5560663], [11.3235063, 59.5559475], [11.3234923, 59.5558339], [11.3234889, 59.5557402], [11.3234885, 59.5556182], [11.323502, 59.5555001], [11.3235081, 59.5554251], [11.3236358, 59.5543111], [11.3237126, 59.5535253], [11.3237483, 59.5532266]]}, "properties": {"electrified": "contact_line", "frequency": "16.67", "gauge": "1435", "name": "\u00d8stfoldbanen \u00d8stre linje", "operator": "Bane NOR", "passenger_lines": "2", "railway": "rail", "service": "siding", "voltage": "15000", "length_km": 0.353}}, {"type": "Feature", "geometry": {"type": "LineString", "coordinates": [[11.3235707, 59.5522371], [11.323719, 59.552481], [11.3237689, 59.5525702], [11.3238275, 59.5526876], [11.3238698, 59.5527815], [11.3238982, 59.5528694], [11.323919, 59.5529544], [11.3239339, 59.5530342], [11.3239429, 59.5531164], [11.3239497, 59.5532281], [11.3239454, 59.553293]]}, "properties": {"electrified": "contact_line", "frequency": "16.67", "gauge": "1435", "name": "\u00d8stfoldbanen \u00d8stre linje", "operator": "Bane NOR", "passenger_lines": "2", "railway": "rail", "usage": "branch", "voltage": "15000", "length_km": 0.12}}, {"type": "Feature", "geometry": {"type": "LineString", "coordinates": [[11.1133884, 59.6121896], [11.1136793, 59.6119805], [11.1140273, 59.6117049], [11.1142411, 59.6115203], [11.1143716, 59.6113896], [11.1144983, 59.6112377], [11.1146275, 59.6110747], [11.1147193, 59.6109496], [11.1148023, 59.6108189], [11.1150674, 59.6103966], [11.115239, 59.6101424], [11.1153597, 59.6099913], [11.1154826, 59.6098588], [11.1156987, 59.6096607], [11.1159039, 59.60949], [11.1160913, 59.6093414], [11.1164103, 59.6090685]]}, "properties": {"electrified": "contact_line", "frequency": "16.67", "gauge": "1435", "name": "\u00d8stfoldbanen \u00d8stre linje", "operator": "Bane NOR", "passenger_lines": "1", "railway": "rail", "usage": "branch", "voltage": "15000", "length_km": 0.39}}, {"type": "Feature", "geometry": {"type": "LineString", "coordinates": [[11.0061834, 59.6593458], [11.0093873, 59.6587953]]}, "properties": {"bridge": "yes", "electrified": "contact_line", "frequency": "16.67", "gauge": "1435", "name": "\u00d8stfoldbanen \u00d8stre linje", "operator": "Bane NOR", "passenger_lines": "1", "railway": "rail", "usage": "branch", "voltage": "15000", "length_km": 0.191}}, {"type": "Feature", "geometry": {"type": "LineString", "coordinates": [[11.3235707, 59.5522371], [11.3234652, 59.5520418], [11.3233608, 59.5518546]]}, "properties": {"electrified": "contact_line", "frequency": "16.67", "gauge": "1435", "name": "\u00d8stfoldbanen \u00d8stre linje", "operator": "Bane NOR", "passenger_lines": "1", "railway": "rail", "usage": "branch", "voltage": "15000", "length_km": 0.044}}, {"type": "Feature", "geometry": {"type": "LineString", "coordinates": [[11.005618, 59.6594426], [11.0058719, 59.6593986], [11.0061834, 59.6593458]]}, "properties": {"electrified": "contact_line", "frequency": "16.67", "gauge": "1435", "name": "\u00d8stfoldbanen \u00d8stre linje", "operator": "Bane NOR", "passenger_lines": "1", "railway": "rail", "usage": "branch", "voltage": "15000", "length_km": 0.034}}, {"type": "Feature", "geometry": {"type": "LineString", "coordinates": [[11.1132048, 59.6123243], [11.1133884, 59.6121896]]}, "properties": {"bridge": "yes", "electrified": "contact_line", "frequency": "16.67", "gauge": "1435", "name": "\u00d8stfoldbanen \u00d8stre linje", "operator": "Bane NOR", "passenger_lines": "1", "railway": "rail", "usage": "branch", "voltage": "15000", "length_km": 0.018}}, {"type": "Feature", "geometry": {"type": "LineString", "coordinates": [[11.1697143, 59.5805559], [11.1689195, 59.580715], [11.1685244, 59.5807911]]}, "properties": {"bridge": "yes", "electrified": "contact_line", "frequency": "16.67", "gauge": "1435", "name": "\u00d8stfoldbanen \u00d8stre linje", "operator": "Bane NOR", "railway": "rail", "service": "siding", "voltage": "15000", "length_km": 0.072}}, {"type": "Feature", "geometry": {"type": "LineString", "coordinates": [[11.1179817, 59.6079211], [11.118086, 59.6078686], [11.1182292, 59.6077965], [11.1183276, 59.6077472], [11.1185081, 59.6076717], [11.1187146, 59.6075849]]}, "properties": {"bridge": "yes", "electrified": "contact_line", "frequency": "16.67", "gauge": "1435", "name": "\u00d8stfoldbanen \u00d8stre linje", "operator": "Bane NOR", "passenger_lines": "1", "railway": "rail", "usage": "branch", "voltage": "15000", "length_km": 0.056}}, {"type": "Feature", "geometry": {"type": "LineString", "coordinates": [[11.1171362, 59.6084975], [11.1173173, 59.6083635], [11.1174762, 59.6082444], [11.117686, 59.6081017], [11.1178619, 59.6079827], [11.1179817, 59.6079211]]}, "properties": {"electrified": "contact_line", "frequency": "16.67", "gauge": "1435", "name": "\u00d8stfoldbanen \u00d8stre linje", "operator": "Bane NOR", "passenger_lines": "1", "railway": "rail", "usage": "branch", "voltage": "15000", "length_km": 0.08}}, {"type": "Feature", "geometry": {"type": "LineString", "coordinates": [[11.0829343, 59.6219755], [11.0832539, 59.6220702], [11.0837383, 59.6222262], [11.0843232, 59.6224375], [11.0848759, 59.622667], [11.0852792, 59.6228476], [11.085702, 59.623051], [11.0861935, 59.6233021], [11.0877943, 59.6241557], [11.0907583, 59.6257111], [11.0915774, 59.6261376], [11.0922888, 59.626503], [11.0934924, 59.6271542], [11.093737, 59.6272828], [11.094067, 59.6274342], [11.0944129, 59.6275863], [11.0947024, 59.6277035], [11.0950876, 59.6278299], [11.0956415, 59.6279954], [11.0961831, 59.6281274], [11.0967665, 59.62823], [11.0973798, 59.628302], [11.0982558, 59.6283983], [11.0992336, 59.6284894], [11.1001227, 59.6285711], [11.1008479, 59.628627], [11.1017704, 59.6286942], [11.1022183, 59.628721], [11.1025684, 59.6287353], [11.1028849, 59.6287414], [11.1031584, 59.628738], [11.1034025, 59.6287319], [11.1037163, 59.6287169], [11.1040167, 59.6286912], [11.1043091, 59.62866], [11.1045881, 59.6286268], [11.1048295, 59.6285935], [11.1050199, 59.628561], [11.1052559, 59.6285088], [11.1054732, 59.6284471], [11.1057173, 59.6283732], [11.1060285, 59.6282633], [11.1063612, 59.6281477], [11.1066513, 59.6280247], [11.1069236, 59.6278951], [11.1072211, 59.6277274], [11.1074645, 59.6275665], [11.1076904, 59.6273868], [11.1078932, 59.6272031], [11.1080606, 59.6270244], [11.1081906, 59.6268517], [11.1083094, 59.6266669], [11.1083884, 59.6264938], [11.1084652, 59.6262532], [11.1084949, 59.6260733], [11.1085009, 59.6259132], [11.1084828, 59.6255815], [11.108409, 59.625008], [11.1080895, 59.622982], [11.1079523, 59.6221119], [11.1079234, 59.6219359], [11.1079043, 59.6217758], [11.1078985, 59.6216329], [11.1078846, 59.6214151], [11.1078875, 59.621284], [11.1078973, 59.6209294], [11.1079138, 59.6207048], [11.1079536, 59.6204319], [11.1080127, 59.6201389], [11.1081093, 59.6197703], [11.1082681, 59.619294], [11.1084568, 59.6188873], [11.108724, 59.6183793], [11.1090117, 59.6179335], [11.1094527, 59.6173252], [11.111156, 59.6149135], [11.1115684, 59.6143621], [11.1120959, 59.6136238], [11.1123933, 59.6131621], [11.112536, 59.6129652], [11.1126835, 59.6127884]]}, "properties": {"electrified": "contact_line", "frequency": "16.67", "gauge": "1435", "name": "\u00d8stfoldbanen \u00d8stre linje", "operator": "Bane NOR", "passenger_lines": "1", "railway": "rail", "usage": "branch", "voltage": "15000", "length_km": 3.41}}, {"type": "Feature", "geometry": {"type": "LineString", "coordinates": [[11.1738731, 59.5792903], [11.1736147, 59.5793782], [11.1734635, 59.5794336], [11.1732371, 59.5795216], [11.17302, 59.5796053], [11.1728132, 59.5796774], [11.1725461, 59.5797635], [11.171951, 59.5799493], [11.1717436, 59.5800141], [11.1714138, 59.5801164], [11.1711276, 59.5802015], [11.1707947, 59.580293], [11.1704962, 59.5803715], [11.1701901, 59.5804479], [11.1699249, 59.5805105], [11.1697143, 59.5805559]]}, "properties": {"electrified": "contact_line", "frequency": "16.67", "gauge": "1435", "name": "\u00d8stfoldbanen \u00d8stre linje", "operator": "Bane NOR", "railway": "rail", "service": "siding", "voltage": "15000", "length_km": 0.275}}, {"type": "Feature", "geometry": {"type": "LineString", "coordinates": [[11.1187146, 59.6075849], [11.1189793, 59.6074887], [11.119209, 59.6074068], [11.1194461, 59.6073341], [11.119557, 59.6072986], [11.1196695, 59.6072666], [11.1199382, 59.6071902], [11.1202268, 59.6071189], [11.1204267, 59.6070742], [11.1206346, 59.6070325], [11.1210645, 59.6069641], [11.1213035, 59.6069348], [11.1217853, 59.6068908], [11.122088, 59.6068751], [11.1226473, 59.606852], [11.1228467, 59.6068457], [11.1232265, 59.6068295], [11.123629, 59.6068012], [11.1238573, 59.6067801], [11.1240457, 59.6067592], [11.124262, 59.6067265], [11.1243813, 59.6067075], [11.1244763, 59.6066895], [11.1246603, 59.6066552], [11.1247384, 59.6066418], [11.1249212, 59.6066029], [11.1251186, 59.6065574], [11.1253228, 59.6065131], [11.1261223, 59.6063334], [11.126971, 59.6061453], [11.1279602, 59.6059226], [11.1291559, 59.6056536], [11.1328264, 59.6048306], [11.1336539, 59.6046459], [11.1348806, 59.6043384], [11.1356215, 59.6041143], [11.1357992, 59.6040605], [11.1363208, 59.6038753], [11.1367757, 59.6036995], [11.1377749, 59.6032679], [11.1385375, 59.6028594], [11.1392928, 59.6023863], [11.1400155, 59.6018854], [11.1407252, 59.601203], [11.1410368, 59.6008412], [11.1414236, 59.6003142], [11.1416777, 59.5998824], [11.1418316, 59.5995719], [11.1419631, 59.5992644], [11.1420977, 59.5988978]]}, "properties": {"electrified": "contact_line", "frequency": "16.67", "gauge": "1435", "name": "\u00d8stfoldbanen \u00d8stre linje", "operator": "Bane NOR", "passenger_lines": "1", "railway": "rail", "usage": "branch", "voltage": "15000", "length_km": 1.747}}, {"type": "Feature", "geometry": {"type": "LineString", "coordinates": [[11.3389845, 59.427687], [11.338989, 59.427518], [11.3389956, 59.4273607], [11.3390021, 59.4272725], [11.3390141, 59.4272185], [11.3392513, 59.4263303], [11.339315, 59.4261007], [11.3393808, 59.4259333], [11.3394942, 59.425695], [11.3396005, 59.4254814]]}, "properties": {"electrified": "contact_line", "frequency": "16.67", "gauge": "1435", "name": "\u00d8stfoldbanen \u00d8stre linje", "operator": "Bane NOR", "railway": "rail", "service": "siding", "voltage": "15000", "length_km": 0.249}}, {"type": "Feature", "geometry": {"type": "LineString", "coordinates": [[11.3043126, 59.5154265], [11.3041542, 59.5151598], [11.3039782, 59.5148186], [11.3038259, 59.5144816], [11.3037346, 59.5142291], [11.3036589, 59.5139877], [11.3036182, 59.5137779], [11.3035945, 59.5135786], [11.3035903, 59.5134279], [11.3035953, 59.5133568], [11.3036018, 59.5132852], [11.3036281, 59.5131483], [11.303669, 59.51299], [11.3037131, 59.5128446], [11.3037835, 59.5126825], [11.3038989, 59.5124942], [11.3040028, 59.5123291], [11.3041168, 59.512173], [11.3042772, 59.5119868], [11.3044239, 59.5118397], [11.3046352, 59.5116533], [11.3048424, 59.5114885], [11.3050985, 59.5112968], [11.3053423, 59.5111122], [11.3055936, 59.510911], [11.3058587, 59.5106668], [11.3060277, 59.5104982], [11.306232, 59.5102758], [11.3064707, 59.5099642], [11.3066482, 59.5096853], [11.3070405, 59.5090589], [11.307132, 59.508902], [11.3072365, 59.5087451], [11.3074437, 59.5084947], [11.3076895, 59.5082212], [11.3079123, 59.5079957], [11.3081422, 59.5077955], [11.308382, 59.507594], [11.3086072, 59.5074333], [11.3088587, 59.5072559], [11.3091182, 59.5070737], [11.309646, 59.506723], [11.3099351, 59.5065248], [11.310267, 59.5062742], [11.3104892, 59.506097], [11.31074, 59.5058734], [11.3109713, 59.5056467], [11.3111276, 59.5054639], [11.3112703, 59.5052688], [11.311447, 59.5049978], [11.3115751, 59.5047694], [11.311664, 59.504568], [11.3117408, 59.5043433], [11.3118054, 59.504153], [11.3118439, 59.5039741], [11.3119082, 59.503518], [11.3119723, 59.5031677], [11.3120545, 59.5028372], [11.3121231, 59.5026028], [11.3122165, 59.5023827], [11.3123279, 59.502144], [11.3124415, 59.5019322], [11.3125916, 59.5017028], [11.3127479, 59.5014897], [11.3129071, 59.5012968], [11.3131528, 59.5010383], [11.3134094, 59.5007984], [11.3136329, 59.5006104], [11.3139137, 59.500393], [11.3142401, 59.5001644], [11.3145525, 59.4999677], [11.315041, 59.499678], [11.3153048, 59.4995352], [11.3155639, 59.499383], [11.3158339, 59.4992138], [11.316055, 59.4990651], [11.3163536, 59.4988413], [11.3165568, 59.4986641], [11.3167542, 59.4984767], [11.3169475, 59.4982658], [11.3171132, 59.4980532], [11.3172471, 59.4978551], [11.3173644, 59.4976456], [11.3174181, 59.4975355], [11.3174761, 59.4973988], [11.3175246, 59.4972612], [11.3175742, 59.4970706], [11.3176067, 59.496897], [11.3176253, 59.4967138], [11.3176357, 59.4964422], [11.3176324, 59.4960914], [11.3176321, 59.4960492], [11.3176223, 59.4944835], [11.3176237, 59.4940987], [11.3176303, 59.4938493], [11.317647, 59.493624], [11.3176631, 59.493414], [11.3176931, 59.4931645], [11.3177518, 59.4928217], [11.3178057, 59.4925392], [11.3178819, 59.4922319], [11.3179696, 59.4919264], [11.3180342, 59.4917254], [11.3180975, 59.4915395], [11.3181971, 59.4912997], [11.3183898, 59.4908719], [11.3185729, 59.4905054], [11.3187437, 59.4902037], [11.3188785, 59.489984], [11.3190156, 59.4897612], [11.3192321, 59.4894422], [11.3195822, 59.4889693], [11.3204068, 59.4879323], [11.3220308, 59.4859261]]}, "properties": {"electrified": "contact_line", "frequency": "16.67", "gauge": "1435", "name": "\u00d8stfoldbanen \u00d8stre linje", "operator": "Bane NOR", "passenger_lines": "1", "railway": "rail", "usage": "branch", "voltage": "15000", "length_km": 3.532}}, {"type": "Feature", "geometry": {"type": "LineString", "coordinates": [[11.3239454, 59.553293], [11.323926, 59.5535317], [11.323837, 59.5543146], [11.3237217, 59.5554416], [11.323713, 59.5555106], [11.3236993, 59.555673], [11.3236249, 59.5563853], [11.323549, 59.5570607], [11.3235241, 59.5572553], [11.3234929, 59.5573948], [11.3234648, 59.5574992], [11.3234358, 59.557585], [11.3233709, 59.5577592]]}, "properties": {"electrified": "contact_line", "frequency": "16.67", "gauge": "1435", "name": "\u00d8stfoldbanen \u00d8stre linje", "operator": "Bane NOR", "passenger_lines": "2", "railway": "rail", "usage": "branch", "voltage": "15000", "length_km": 0.499}}, {"type": "Feature", "geometry": {"type": "LineString", "coordinates": [[11.3389552, 59.4281759], [11.3389845, 59.427687], [11.3390204, 59.427504], [11.3391043, 59.4272078], [11.3392575, 59.4266258], [11.3393399, 59.4263429], [11.3394757, 59.4259347], [11.3396005, 59.4254814], [11.3397687, 59.4248252], [11.3398241, 59.4245584], [11.3400072, 59.4240605]]}, "properties": {"electrified": "contact_line", "frequency": "16.67", "gauge": "1435", "name": "\u00d8stfoldbanen \u00d8stre linje", "operator": "Bane NOR", "passenger_lines": "2", "railway": "rail", "service": "siding", "voltage": "15000", "length_km": 0.463}}, {"type": "Feature", "geometry": {"type": "LineString", "coordinates": [[11.3292578, 59.4112628], [11.3287981, 59.4111886], [11.3284379, 59.4111254], [11.3280925, 59.4110488], [11.3277522, 59.4109579], [11.3272674, 59.4108053], [11.3268848, 59.4106537], [11.3265386, 59.4104904], [11.3262051, 59.4102956], [11.3259376, 59.4101285], [11.3256789, 59.4099056], [11.325452, 59.4096889], [11.3253307, 59.4095385], [11.325222, 59.4093801], [11.3251139, 59.4091967], [11.325045, 59.4090137], [11.3249903, 59.4088141], [11.3249525, 59.4084996], [11.3249898, 59.4082202], [11.3250609, 59.4079901], [11.3252016, 59.4077087], [11.32539, 59.4074358], [11.325646, 59.4071573], [11.3263866, 59.4064728], [11.3272072, 59.4057144], [11.327744, 59.4051523], [11.3279744, 59.4048522], [11.3280852, 59.4046778], [11.3281862, 59.4044996], [11.3282922, 59.4041932], [11.3283124, 59.4040135], [11.3283405, 59.4038356], [11.3283353, 59.4035678], [11.3282469, 59.403211], [11.3280994, 59.4028774], [11.3278882, 59.4025439], [11.32748, 59.4020389], [11.3264061, 59.4008711], [11.3257004, 59.400115], [11.325385, 59.3997662], [11.3250852, 59.3993776], [11.3248505, 59.3990002], [11.3246233, 59.3985869], [11.3243214, 59.39802], [11.3241129, 59.3976929], [11.3238387, 59.3973365], [11.3235313, 59.3969911], [11.3233071, 59.3967748], [11.3230336, 59.39653], [11.3206322, 59.3945165], [11.3197873, 59.3938144], [11.3193964, 59.3934609], [11.319096, 59.3931694], [11.3184309, 59.3925625], [11.31794, 59.392143], [11.3174359, 59.391736], [11.3168622, 59.3912932], [11.31626, 59.3908577], [11.3137679, 59.3890858], [11.3126199, 59.3882815], [11.3120018, 59.3878711], [11.3113846, 59.387477], [11.3104947, 59.3869281], [11.3032409, 59.382689], [11.3003908, 59.3810378], [11.3001765, 59.380914], [11.2999715, 59.3807925], [11.2992426, 59.3803692], [11.298529, 59.3799485], [11.2979473, 59.3796129], [11.297348, 59.3792629], [11.2967441, 59.3789012], [11.296235, 59.3785729], [11.2958974, 59.3783391], [11.2956293, 59.3781413], [11.2953477, 59.3779301], [11.2950782, 59.3777147], [11.2948259, 59.3775145], [11.2945858, 59.3773154], [11.2943992, 59.3771556], [11.2941238, 59.3769075], [11.2938089, 59.3766159], [11.2935005, 59.3763097], [11.2931801, 59.3759931], [11.2928967, 59.3757192], [11.2926156, 59.3754382], [11.2922657, 59.375097], [11.2919111, 59.3747487], [11.2915015, 59.3743497], [11.2911707, 59.3740236], [11.2909425, 59.3737973], [11.2906495, 59.3735188], [11.2902898, 59.3731879], [11.2898986, 59.3728578], [11.289488, 59.3725345], [11.2890155, 59.3721935], [11.2887147, 59.3719918], [11.2884078, 59.371793], [11.2880929, 59.3715997], [11.2876474, 59.3713397], [11.2873631, 59.3711795], [11.2870681, 59.3710247], [11.2861914, 59.3705876]]}, "properties": {"electrified": "contact_line", "frequency": "16.67", "gauge": "1435", "name": "\u00d8stfoldbanen \u00d8stre linje", "operator": "Bane NOR", "passenger_lines": "1", "railway": "rail", "usage": "branch", "voltage": "15000", "length_km": 5.443}}, {"type": "Feature", "geometry": {"type": "LineString", "coordinates": [[11.3404556, 59.4219303], [11.3405603, 59.4214918]]}, "properties": {"bridge": "yes", "electrified": "contact_line", "frequency": "16.67", "gauge": "1435", "name": "\u00d8stfoldbanen \u00d8stre linje", "operator": "Bane NOR", "passenger_lines": "1", "railway": "rail", "usage": "branch", "voltage": "15000", "length_km": 0.049}}, {"type": "Feature", "geometry": {"type": "LineString", "coordinates": [[11.3372423, 59.4544992], [11.3376202, 59.453566]]}, "properties": {"electrified": "contact_line", "frequency": "16.67", "gauge": "1435", "name": "\u00d8stfoldbanen \u00d8stre linje", "operator": "Bane NOR", "passenger_lines": "1", "railway": "rail", "usage": "branch", "voltage": "15000", "length_km": 0.106}}, {"type": "Feature", "geometry": {"type": "LineString", "coordinates": [[11.3043553, 59.5155134], [11.3043126, 59.5154265]]}, "properties": {"bridge": "yes", "electrified": "contact_line", "frequency": "16.67", "gauge": "1435", "name": "\u00d8stfoldbanen \u00d8stre linje", "operator": "Bane NOR", "passenger_lines": "1", "railway": "rail", "usage": "branch", "voltage": "15000", "length_km": 0.01}}, {"type": "Feature", "geometry": {"type": "LineString", "coordinates": [[11.3294231, 59.4112887], [11.3292578, 59.4112628]]}, "properties": {"bridge": "yes", "electrified": "contact_line", "frequency": "16.67", "gauge": "1435", "name": "\u00d8stfoldbanen \u00d8stre linje", "operator": "Bane NOR", "passenger_lines": "1", "railway": "rail", "usage": "branch", "voltage": "15000", "length_km": 0.01}}, {"type": "Feature", "geometry": {"type": "LineString", "coordinates": [[11.3371674, 59.45468], [11.3372423, 59.4544992]]}, "properties": {"bridge": "yes", "electrified": "contact_line", "frequency": "16.67", "gauge": "1435", "name": "\u00d8stfoldbanen \u00d8stre linje", "operator": "Bane NOR", "passenger_lines": "1", "railway": "rail", "usage": "branch", "voltage": "15000", "length_km": 0.021}}, {"type": "Feature", "geometry": {"type": "LineString", "coordinates": [[11.3220308, 59.4859261], [11.3221473, 59.4857808]]}, "properties": {"bridge": "yes", "electrified": "contact_line", "frequency": "16.67", "gauge": "1435", "name": "\u00d8stfoldbanen \u00d8stre linje", "operator": "Bane NOR", "passenger_lines": "1", "railway": "rail", "usage": "branch", "voltage": "15000", "length_km": 0.017}}, {"type": "Feature", "geometry": {"type": "LineString", "coordinates": [[11.3376202, 59.453566], [11.337642, 59.4535129], [11.3376805, 59.4534117]]}, "properties": {"bridge": "yes", "electrified": "contact_line", "frequency": "16.67", "gauge": "1435", "name": "\u00d8stfoldbanen \u00d8stre linje", "operator": "Bane NOR", "passenger_lines": "1", "railway": "rail", "usage": "branch", "voltage": "15000", "length_km": 0.018}}, {"type": "Feature", "geometry": {"type": "LineString", "coordinates": [[11.3221473, 59.4857808], [11.3244572, 59.4829085], [11.3252642, 59.4818977], [11.3255218, 59.4815719], [11.3257979, 59.4812112], [11.3260672, 59.4808532], [11.3262597, 59.4805745], [11.3264751, 59.4802521], [11.3267202, 59.4798699], [11.327014, 59.4793828], [11.3273412, 59.4788137], [11.3275696, 59.4783718], [11.3279393, 59.477611], [11.3282666, 59.4768379], [11.3294726, 59.4738437], [11.3295555, 59.4736304], [11.3298343, 59.4729486], [11.3299465, 59.4726527], [11.3300624, 59.472358], [11.332408, 59.4665166], [11.3351282, 59.459751], [11.3364457, 59.4564878], [11.3371674, 59.45468]]}, "properties": {"electrified": "contact_line", "frequency": "16.67", "gauge": "1435", "name": "\u00d8stfoldbanen \u00d8stre linje", "operator": "Bane NOR", "passenger_lines": "1", "railway": "rail", "usage": "branch", "voltage": "15000", "length_km": 3.577}}, {"type": "Feature", "geometry": {"type": "LineString", "coordinates": [[11.3405603, 59.4214918], [11.3406757, 59.4210171], [11.3407622, 59.420525], [11.3408078, 59.4200678], [11.3408119, 59.4195579], [11.3407669, 59.4190605], [11.3407209, 59.4187615], [11.3406617, 59.4184505], [11.3405754, 59.4181186], [11.3404695, 59.4177834], [11.3403515, 59.417471], [11.3402075, 59.4171528], [11.3400313, 59.4167953], [11.3398201, 59.4164286], [11.339584, 59.4160578], [11.3391761, 59.4155099], [11.3387222, 59.4149625], [11.3382459, 59.4144831], [11.3379912, 59.414245], [11.3377344, 59.4140227], [11.3372126, 59.4136307], [11.3368419, 59.4133842], [11.3364427, 59.4131481], [11.3357112, 59.4127855], [11.3353571, 59.4126253], [11.3349757, 59.4124734], [11.3345633, 59.412324], [11.3341357, 59.4121832], [11.333331, 59.4119577], [11.3327275, 59.4118106], [11.3320469, 59.4116697], [11.3312745, 59.4115475], [11.3295039, 59.4112984], [11.3294231, 59.4112887]]}, "properties": {"electrified": "contact_line", "frequency": "16.67", "gauge": "1435", "name": "\u00d8stfoldbanen \u00d8stre linje", "operator": "Bane NOR", "passenger_lines": "1", "railway": "rail", "usage": "branch", "voltage": "15000", "length_km": 1.443}}, {"type": "Feature", "geometry": {"type": "LineString", "coordinates": [[11.3394478, 59.4263486], [11.339219, 59.427216], [11.3390891, 59.4277011], [11.3389552, 59.4281759]]}, "properties": {"electrified": "contact_line", "frequency": "16.67", "gauge": "1435", "name": "\u00d8stfoldbanen \u00d8stre linje", "operator": "Bane NOR", "passenger_lines": "2", "railway": "rail", "usage": "branch", "voltage": "15000", "length_km": 0.206}}, {"type": "Feature", "geometry": {"type": "LineString", "coordinates": [[11.3376805, 59.4534117], [11.3381479, 59.4522305], [11.3382638, 59.4518931], [11.338363, 59.4515682], [11.3384348, 59.4512801], [11.3384631, 59.4511528], [11.3385197, 59.4508531], [11.338569, 59.4504386], [11.3385837, 59.4501482], [11.338591, 59.4499544], [11.338591, 59.4497553], [11.3385854, 59.4495405], [11.3385625, 59.4492419], [11.3385193, 59.4488956], [11.3384589, 59.4485565], [11.3384043, 59.4482722], [11.3382231, 59.4473211], [11.3381624, 59.4469351], [11.3381281, 59.4466536], [11.3381167, 59.4463422], [11.3381232, 59.446115], [11.3381397, 59.4458523], [11.3381719, 59.445626], [11.3382367, 59.4452949], [11.3383406, 59.4449405], [11.3384189, 59.4447257], [11.3385108, 59.4444781], [11.3386796, 59.4441144], [11.3390188, 59.4433915], [11.3392008, 59.4429709], [11.3392812, 59.4427525], [11.3393616, 59.4425166], [11.3394705, 59.4421403], [11.3395552, 59.4417454], [11.3396058, 59.4413927], [11.3396366, 59.4410445], [11.3396499, 59.4406732], [11.3396474, 59.4403079], [11.3396349, 59.4396134], [11.3396059, 59.4380092], [11.3396005, 59.437816], [11.3395954, 59.437635], [11.3395763, 59.4372788], [11.3395234, 59.4368898], [11.3394235, 59.4365349], [11.3393262, 59.436309], [11.3392167, 59.4360848], [11.3390473, 59.4357917], [11.3388462, 59.4354899], [11.33855, 59.4350662], [11.3384381, 59.4348918], [11.3384092, 59.4348456], [11.3383229, 59.4347076], [11.3382152, 59.4344984], [11.338126, 59.4343213], [11.338041, 59.4341108], [11.3379746, 59.4339039], [11.3378943, 59.4335424], [11.3378588, 59.4331811], [11.3378616, 59.4330053], [11.3378667, 59.4328191], [11.3379289, 59.4324423], [11.3380241, 59.4320463], [11.3380691, 59.4318199], [11.3383143, 59.4308037], [11.3388911, 59.4284227], [11.3389019, 59.4283781], [11.3389129, 59.428336], [11.3389552, 59.4281759]]}, "properties": {"electrified": "contact_line", "frequency": "16.67", "gauge": "1435", "name": "\u00d8stfoldbanen \u00d8stre linje", "operator": "Bane NOR", "passenger_lines": "1", "railway": "rail", "usage": "branch", "voltage": "15000", "length_km": 2.841}}, {"type": "Feature", "geometry": {"type": "LineString", "coordinates": [[11.3232712, 59.5517003], [11.323214, 59.5515983], [11.3230937, 59.5514022], [11.3229652, 59.5512038], [11.3228025, 59.5509807], [11.3226063, 59.5507331], [11.3224684, 59.5505692], [11.3222817, 59.5503647], [11.319628, 59.5476901], [11.3190898, 59.5471309], [11.3185033, 59.5465614], [11.3172269, 59.5452421], [11.3153568, 59.5434228], [11.3149968, 59.5430626], [11.3149801, 59.5430459], [11.3147135, 59.5427803], [11.3143638, 59.5424306], [11.3137299, 59.5418054], [11.3132812, 59.5413634], [11.3124998, 59.5405656], [11.3120993, 59.5401898], [11.311208, 59.5392893], [11.3111977, 59.5392789], [11.3097491, 59.5378297], [11.30926, 59.5373662], [11.3075708, 59.5356927], [11.307486, 59.5356085], [11.3064699, 59.5346017], [11.305811, 59.5339417], [11.3054741, 59.533606], [11.3052423, 59.5333643], [11.3050732, 59.5331101], [11.3048785, 59.5328569], [11.3047278, 59.5326188], [11.3046099, 59.5324119], [11.3045006, 59.5321697], [11.3044046, 59.5319091], [11.3043449, 59.5317032], [11.3042895, 59.5314185], [11.3042569, 59.5311834], [11.3042286, 59.5309693], [11.3042522, 59.530723], [11.3042913, 59.5304505], [11.3043542, 59.5301537], [11.3044053, 59.5299499], [11.3044888, 59.5297258], [11.3045515, 59.5295898]]}, "properties": {"electrified": "contact_line", "frequency": "16.67", "gauge": "1435", "name": "\u00d8stfoldbanen \u00d8stre linje", "operator": "Bane NOR", "passenger_lines": "1", "railway": "rail", "usage": "branch", "voltage": "15000", "length_km": 2.714}}, {"type": "Feature", "geometry": {"type": "LineString", "coordinates": [[11.3400072, 59.4240605], [11.3399621, 59.4243266], [11.3399153, 59.42456], [11.3398516, 59.4248349], [11.3396826, 59.425472], [11.3395618, 59.4259229], [11.3394478, 59.4263486]]}, "properties": {"electrified": "contact_line", "frequency": "16.67", "gauge": "1435", "name": "\u00d8stfoldbanen \u00d8stre linje", "operator": "Bane NOR", "passenger_lines": "2", "railway": "rail", "usage": "branch", "voltage": "15000", "length_km": 0.257}}, {"type": "Feature", "geometry": {"type": "LineString", "coordinates": [[11.2188368, 59.2998771], [11.219565, 59.3002912], [11.2198428, 59.3004424], [11.220042, 59.3005526], [11.2202602, 59.3006703], [11.220547, 59.3008137], [11.2208627, 59.3009628], [11.2211534, 59.3010906], [11.2221849, 59.3015175], [11.2225854, 59.3016921], [11.2234313, 59.3020364]]}, "properties": {"electrified": "contact_line", "frequency": "16.67", "gauge": "1435", "name": "\u00d8stfoldbanen \u00d8stre linje", "operator": "Bane NOR", "passenger_lines": "2", "railway": "rail", "usage": "branch", "voltage": "15000", "length_km": 0.356}}, {"type": "Feature", "geometry": {"type": "LineString", "coordinates": [[11.2234313, 59.3020364], [11.2231083, 59.3019319], [11.222889, 59.3018553], [11.2226517, 59.3017654], [11.2221336, 59.3015526], [11.2210923, 59.30112], [11.2207991, 59.300992], [11.2204849, 59.3008414], [11.2201963, 59.3006983], [11.2197735, 59.30047], [11.2194072, 59.3002594], [11.2192817, 59.3001853], [11.2191364, 59.3000889], [11.2188368, 59.2998771]]}, "properties": {"electrified": "contact_line", "frequency": "16.67", "gauge": "1435", "name": "\u00d8stfoldbanen \u00d8stre linje", "operator": "Bane NOR", "passenger_lines": "2", "railway": "rail", "service": "siding", "usage": "branch", "voltage": "15000", "length_km": 0.358}}, {"type": "Feature", "geometry": {"type": "LineString", "coordinates": [[11.2647352, 59.3457954], [11.2644484, 59.345688], [11.26416, 59.3455677], [11.2638375, 59.3454157], [11.2635874, 59.3452802]]}, "properties": {"electrified": "contact_line", "frequency": "16.67", "gauge": "1435", "name": "\u00d8stfoldbanen \u00d8stre linje", "operator": "Bane NOR", "passenger_lines": "1", "railway": "rail", "usage": "branch", "voltage": "15000", "length_km": 0.087}}, {"type": "Feature", "geometry": {"type": "LineString", "coordinates": [[11.2819853, 59.3644055], [11.2819527, 59.3642854]]}, "properties": {"bridge": "yes", "electrified": "contact_line", "frequency": "16.67", "gauge": "1435", "name": "\u00d8stfoldbanen \u00d8stre linje", "operator": "Bane NOR", "passenger_lines": "1", "railway": "rail", "usage": "branch", "voltage": "15000", "length_km": 0.014}}, {"type": "Feature", "geometry": {"type": "LineString", "coordinates": [[11.2301094, 59.3161361], [11.230296, 59.3160424]]}, "properties": {"bridge": "yes", "electrified": "contact_line", "frequency": "16.67", "gauge": "1435", "name": "\u00d8stfoldbanen \u00d8stre linje", "operator": "Bane NOR", "passenger_lines": "1", "railway": "rail", "usage": "branch", "voltage": "15000", "length_km": 0.015}}, {"type": "Feature", "geometry": {"type": "LineString", "coordinates": [[11.2819527, 59.3642854], [11.2818338, 59.3639736], [11.2817282, 59.3637534], [11.2814677, 59.3633879], [11.2813389, 59.3632171], [11.2810399, 59.3628549], [11.2806831, 59.3624571], [11.2800957, 59.3617932], [11.2800001, 59.3616617], [11.2796398, 59.3612183], [11.2794863, 59.3609893], [11.2793216, 59.3607128], [11.2792135, 59.3604884], [11.2790823, 59.3601513], [11.2789723, 59.3597865], [11.278918, 59.3595549], [11.2787888, 59.3589456], [11.2786547, 59.3583], [11.2785126, 59.3576258], [11.2784034, 59.3570925]]}, "properties": {"electrified": "contact_line", "frequency": "16.67", "gauge": "1435", "name": "\u00d8stfoldbanen \u00d8stre linje", "operator": "Bane NOR", "passenger_lines": "1", "railway": "rail", "usage": "branch", "voltage": "15000", "length_km": 0.833}}, {"type": "Feature", "geometry": {"type": "LineString", "coordinates": [[11.230296, 59.3160424], [11.2306362, 59.3158654], [11.2309144, 59.315713], [11.2311941, 59.3155362], [11.2313635, 59.3154158], [11.2315468, 59.3152696], [11.2316951, 59.3151183], [11.231854, 59.3149443], [11.2319629, 59.3148064], [11.2320532, 59.3146729], [11.2321179, 59.3145383], [11.2322222, 59.3142611], [11.2322643, 59.3140669], [11.2322769, 59.3138705], [11.2322698, 59.3137114], [11.2322396, 59.313521], [11.2321963, 59.3133331], [11.2320187, 59.3127744], [11.2319726, 59.312594], [11.2319348, 59.3123671], [11.2319225, 59.312229], [11.2319253, 59.3121132], [11.2319432, 59.3119555], [11.2319826, 59.3118057], [11.2320228, 59.3116596], [11.232091, 59.3114842], [11.2325341, 59.3105162], [11.2326095, 59.3102893], [11.2326626, 59.3101094], [11.232702, 59.3099097], [11.2327052, 59.3097046], [11.2326951, 59.3095444], [11.232638, 59.3092829], [11.2325293, 59.3090535]]}, "properties": {"electrified": "contact_line", "frequency": "16.67", "gauge": "1435", "name": "\u00d8stfoldbanen \u00d8stre linje", "operator": "Bane NOR", "passenger_lines": "1", "railway": "rail", "usage": "branch", "voltage": "15000", "length_km": 0.818}}, {"type": "Feature", "geometry": {"type": "LineString", "coordinates": [[11.26702, 59.3462633], [11.2665646, 59.3462182], [11.2660916, 59.3461494], [11.2657086, 59.346077], [11.2653618, 59.345986], [11.2650465, 59.3458986], [11.2647352, 59.3457954]]}, "properties": {"electrified": "contact_line", "frequency": "16.67", "gauge": "1435", "name": "\u00d8stfoldbanen \u00d8stre linje", "operator": "Bane NOR", "passenger_lines": "1", "railway": "rail", "tunnel": "yes", "usage": "branch", "voltage": "15000", "length_km": 0.141}}, {"type": "Feature", "geometry": {"type": "LineString", "coordinates": [[11.274973, 59.3469938], [11.274788, 59.3469032], [11.2745644, 59.3468052], [11.2743374, 59.34672], [11.2740818, 59.3466325], [11.2736684, 59.3465133], [11.2731937, 59.3464049]]}, "properties": {"electrified": "contact_line", "frequency": "16.67", "gauge": "1435", "name": "\u00d8stfoldbanen \u00d8stre linje", "operator": "Bane NOR", "passenger_lines": "1", "railway": "rail", "tunnel": "yes", "usage": "branch", "voltage": "15000", "length_km": 0.121}}, {"type": "Feature", "geometry": {"type": "LineString", "coordinates": [[11.2731937, 59.3464049], [11.2726192, 59.3462991], [11.2719973, 59.3462138], [11.2714207, 59.3461792], [11.2708357, 59.3461756], [11.2700332, 59.3462112], [11.2684578, 59.3462928], [11.2677122, 59.3462971], [11.26702, 59.3462633]]}, "properties": {"electrified": "contact_line", "frequency": "16.67", "gauge": "1435", "name": "\u00d8stfoldbanen \u00d8stre linje", "operator": "Bane NOR", "passenger_lines": "1", "railway": "rail", "usage": "branch", "voltage": "15000", "length_km": 0.356}}, {"type": "Feature", "geometry": {"type": "LineString", "coordinates": [[11.2271933, 59.3039431], [11.2271223, 59.3038862]]}, "properties": {"bridge": "yes", "electrified": "contact_line", "frequency": "16.67", "gauge": "1435", "name": "\u00d8stfoldbanen \u00d8stre linje", "operator": "Bane NOR", "passenger_lines": "1", "railway": "rail", "usage": "branch", "voltage": "15000", "length_km": 0.008}}, {"type": "Feature", "geometry": {"type": "LineString", "coordinates": [[11.2271223, 59.3038862], [11.2269518, 59.3037497], [11.2266958, 59.303561], [11.2265141, 59.3034396], [11.2260603, 59.3031811], [11.2258991, 59.3030973], [11.2254327, 59.3028796], [11.2248902, 59.3026409], [11.2244677, 59.3024666], [11.2239037, 59.3022264], [11.2234313, 59.3020364]]}, "properties": {"electrified": "contact_line", "frequency": "16.67", "gauge": "1435", "name": "\u00d8stfoldbanen \u00d8stre linje", "operator": "Bane NOR", "passenger_lines": "1", "railway": "rail", "usage": "branch", "voltage": "15000", "length_km": 0.296}}, {"type": "Feature", "geometry": {"type": "LineString", "coordinates": [[11.2179323, 59.5731735], [11.2186502, 59.5730877], [11.2193436, 59.5729971], [11.2199232, 59.572916], [11.2204761, 59.5728341], [11.22105, 59.5727416], [11.2214332, 59.5726778], [11.2221983, 59.5725432], [11.2226087, 59.5724634], [11.2231294, 59.5723605], [11.223536, 59.5722753], [11.2240604, 59.5721621], [11.2246261, 59.5720327], [11.2252894, 59.5718755], [11.226724, 59.5715108], [11.2273045, 59.5713665], [11.227835, 59.5712369], [11.2281447, 59.5711677], [11.2284545, 59.5711008], [11.2286947, 59.5710541], [11.228951, 59.5710102], [11.2291921, 59.5709744], [11.2294678, 59.5709353], [11.2297255, 59.5709048], [11.2300091, 59.5708778], [11.2303062, 59.5708541], [11.2306005, 59.5708356], [11.2309211, 59.5708229], [11.23122, 59.5708159], [11.2316499, 59.5708134], [11.2320662, 59.5708246], [11.2324331, 59.5708391], [11.2328397, 59.5708577], [11.2341648, 59.5709279], [11.2345773, 59.5709455], [11.2350646, 59.5709597], [11.2355931, 59.5709627], [11.2360537, 59.570955], [11.2363155, 59.5709464], [11.2365824, 59.5709327], [11.2368541, 59.5709177], [11.2370989, 59.5709021], [11.2373288, 59.5708839], [11.2375142, 59.5708658]]}, "properties": {"electrified": "contact_line", "frequency": "16.67", "gauge": "1435", "name": "\u00d8stfoldbanen \u00d8stre linje", "operator": "Bane NOR", "passenger_lines": "1", "railway": "rail", "usage": "branch", "voltage": "15000", "length_km": 1.158}}, {"type": "Feature", "geometry": {"type": "LineString", "coordinates": [[11.2168166, 59.5733031], [11.2179323, 59.5731735]]}, "properties": {"electrified": "contact_line", "frequency": "16.67", "gauge": "1435", "name": "\u00d8stfoldbanen \u00d8stre linje", "operator": "Bane NOR", "passenger_lines": "1", "railway": "rail", "tunnel": "yes", "usage": "branch", "voltage": "15000", "length_km": 0.065}}, {"type": "Feature", "geometry": {"type": "LineString", "coordinates": [[10.888465, 59.6854771], [10.8886419, 59.6853163]]}, "properties": {"bridge": "yes", "electrified": "contact_line", "frequency": "16.67", "gauge": "1435", "name": "\u00d8stfoldbanen \u00d8stre linje", "operator": "Bane NOR", "passenger_lines": "1", "railway": "rail", "usage": "branch", "voltage": "15000", "length_km": 0.021}}, {"type": "Feature", "geometry": {"type": "LineString", "coordinates": [[10.8934724, 59.6817975], [10.8942707, 59.6812898], [10.8952484, 59.6806371], [10.8959337, 59.6801659], [10.8967732, 59.6795948], [10.897079, 59.6793904], [10.8974089, 59.6791785], [10.8976691, 59.6790183], [10.8979131, 59.6788806], [10.8981619, 59.6787411], [10.8984375, 59.6785976], [10.8987285, 59.6784506], [10.8990115, 59.6783159], [10.8992891, 59.6781893], [10.8995909, 59.6780589], [10.899903, 59.677929], [10.9002651, 59.6777874], [10.9005561, 59.6776805], [10.9008445, 59.6775776], [10.901169, 59.6774672], [10.9015794, 59.6773345], [10.9019348, 59.6772275], [10.9023089, 59.6771219], [10.9026576, 59.6770271], [10.9030184, 59.6769357], [10.9034328, 59.6768355], [10.9039612, 59.6767177], [10.904389, 59.6766256], [10.9049134, 59.6765159], [10.9055531, 59.6763798], [10.9111281, 59.6752042], [10.9133072, 59.6747441], [10.9139745, 59.674603], [10.9145726, 59.6744744], [10.9150655, 59.6743608], [10.91548, 59.6742558], [10.9157572, 59.6741849], [10.9160868, 59.6740925], [10.9162976, 59.6740319], [10.9165535, 59.6739564], [10.9169209, 59.6738474], [10.917315, 59.6737283], [10.9175866, 59.6736484], [10.9212919, 59.6725299], [10.9219861, 59.6723262], [10.922714, 59.6721295], [10.9230875, 59.6720456], [10.9234592, 59.671966], [10.9242301, 59.6718193], [10.9249347, 59.6717173], [10.9257987, 59.6716435], [10.9282931, 59.6714787], [10.9299427, 59.6712775], [10.9306061, 59.6711649], [10.9310534, 59.6710792], [10.9319423, 59.6708859], [10.9332024, 59.6705375], [10.9350501, 59.6698776], [10.9368292, 59.6692022], [10.9395316, 59.6682075], [10.9411422, 59.6676147], [10.9446398, 59.6663143], [10.9458223, 59.6658739], [10.9460631, 59.6657816], [10.9465996, 59.6655835], [10.9467542, 59.6655249], [10.9469185, 59.6654649], [10.947086, 59.665403], [10.947677, 59.6652008], [10.9478921, 59.665135], [10.9484061, 59.6649924], [10.9489197, 59.6648686], [10.9495628, 59.6647279], [10.950136, 59.6646257], [10.9507193, 59.6645379], [10.9511416, 59.6644864], [10.9518092, 59.6644183], [10.9524322, 59.6643788], [10.9530634, 59.6643545], [10.9536162, 59.6643487], [10.9541689, 59.6643539], [10.9553985, 59.6644048], [10.9574463, 59.6646365], [10.958155, 59.6646709], [10.9589293, 59.6646818], [10.9597251, 59.6646389], [10.9604979, 59.6645662], [10.9610566, 59.6644782], [10.9616359, 59.6643513], [10.9622424, 59.6641901], [10.9638136, 59.6635835], [10.9647908, 59.6632283], [10.965159, 59.6631082], [10.9655658, 59.6629908], [10.9660787, 59.6628549], [10.9664245, 59.6627689], [10.9674118, 59.6625834], [10.969138, 59.6623303], [10.9733414, 59.6617331], [10.9769778, 59.6612275], [10.9779548, 59.6610987], [10.9788502, 59.6610145], [10.979253, 59.6609881], [10.9797082, 59.6609688], [10.9802547, 59.6609601], [10.98056, 59.6609583], [10.9809141, 59.6609636], [10.9813237, 59.6609785], [10.9818277, 59.6610038], [10.9823217, 59.6610369], [10.9830702, 59.6610972], [10.9860295, 59.66134], [10.9870038, 59.6614253]]}, "properties": {"electrified": "contact_line", "frequency": "16.67", "gauge": "1435", "name": "\u00d8stfoldbanen \u00d8stre linje", "operator": "Bane NOR", "passenger_lines": "1", "railway": "rail", "usage": "branch", "voltage": "15000", "length_km": 5.968}}, {"type": "Feature", "geometry": {"type": "LineString", "coordinates": [[10.83432, 59.7174716], [10.8343186, 59.7172797], [10.8343156, 59.7172145], [10.8343162, 59.7171539], [10.8343259, 59.7170797], [10.8343388, 59.7170058], [10.8343634, 59.7169225], [10.8343995, 59.7168279], [10.8344589, 59.7167044], [10.8345489, 59.7165656], [10.8346412, 59.7164422], [10.8347615, 59.7163026], [10.8349255, 59.716133], [10.8351753, 59.7159205], [10.8353461, 59.7157935], [10.8355602, 59.7156471], [10.8357418, 59.7155407], [10.8359682, 59.7154238], [10.83628, 59.7152819], [10.8365745, 59.7151709], [10.8368503, 59.7150656], [10.8371457, 59.7149777]]}, "properties": {"electrified": "contact_line", "frequency": "16.67", "gauge": "1435", "name": "\u00d8stfoldbanen \u00d8stre linje", "operator": "Bane NOR", "passenger_lines": "1", "railway": "rail", "usage": "branch", "voltage": "15000", "length_km": 0.337}}, {"type": "Feature", "geometry": {"type": "LineString", "coordinates": [[10.8852194, 59.6896371], [10.8853097, 59.6894541], [10.8854449, 59.6892048], [10.8856387, 59.6888606], [10.8858165, 59.6885664], [10.8860512, 59.6882074], [10.8862712, 59.6878941], [10.8864913, 59.6875961], [10.8867099, 59.6873174], [10.8868159, 59.6871945], [10.8871637, 59.6867898], [10.8873614, 59.6865656], [10.8877199, 59.6861882], [10.8880066, 59.6859034], [10.8882183, 59.6857027], [10.888465, 59.6854771]]}, "properties": {"electrified": "contact_line", "frequency": "16.67", "gauge": "1435", "name": "\u00d8stfoldbanen \u00d8stre linje", "operator": "Bane NOR", "passenger_lines": "1", "railway": "rail", "usage": "branch", "voltage": "15000", "length_km": 0.5}}, {"type": "Feature", "geometry": {"type": "LineString", "coordinates": [[10.8851865, 59.6897044], [10.8852194, 59.6896371]]}, "properties": {"bridge": "yes", "electrified": "contact_line", "frequency": "16.67", "gauge": "1435", "name": "\u00d8stfoldbanen \u00d8stre linje", "operator": "Bane NOR", "passenger_lines": "1", "railway": "rail", "usage": "branch", "voltage": "15000", "length_km": 0.008}}, {"type": "Feature", "geometry": {"type": "LineString", "coordinates": [[11.3235402, 59.55639], [11.323569, 59.5560947], [11.3235784, 59.5559943], [11.323586, 59.555896], [11.3235907, 59.555723], [11.3235968, 59.5556206], [11.3236059, 59.5555074], [11.323617, 59.5554367], [11.3238185, 59.5535291], [11.3238425, 59.5532922], [11.3238455, 59.5532218], [11.3238435, 59.5531047], [11.323824, 59.5529591], [11.3237839, 59.552816], [11.3237047, 59.5525848]]}, "properties": {"electrified": "contact_line", "frequency": "16.67", "gauge": "1435", "name": "\u00d8stfoldbanen \u00d8stre linje", "operator": "Bane NOR", "railway": "rail", "service": "siding", "voltage": "15000", "length_km": 0.425}}, {"type": "Feature", "geometry": {"type": "LineString", "coordinates": [[11.1126835, 59.6127884], [11.112723, 59.6127449], [11.1127622, 59.6127028]]}, "properties": {"bridge": "yes", "electrified": "contact_line", "frequency": "16.67", "gauge": "1435", "name": "\u00d8stfoldbanen \u00d8stre linje", "operator": "Bane NOR", "passenger_lines": "1", "railway": "rail", "usage": "branch", "voltage": "15000", "length_km": 0.011}}, {"type": "Feature", "geometry": {"type": "LineString", "coordinates": [[11.1127622, 59.6127028], [11.1128245, 59.6126421], [11.1130232, 59.6124641], [11.1132048, 59.6123243]]}, "properties": {"electrified": "contact_line", "frequency": "16.67", "gauge": "1435", "name": "\u00d8stfoldbanen \u00d8stre linje", "operator": "Bane NOR", "passenger_lines": "1", "railway": "rail", "usage": "branch", "voltage": "15000", "length_km": 0.049}}, {"type": "Feature", "geometry": {"type": "LineString", "coordinates": [[11.3237483, 59.5532266], [11.3237541, 59.55313], [11.3237595, 59.5530269], [11.3237541, 59.5529128], [11.323746, 59.5528198], [11.3237353, 59.5527186], [11.3237047, 59.5525848], [11.3236774, 59.5524966], [11.3235707, 59.5522371]]}, "properties": {"electrified": "contact_line", "frequency": "16.67", "gauge": "1435", "name": "\u00d8stfoldbanen \u00d8stre linje", "operator": "Bane NOR", "passenger_lines": "2", "railway": "rail", "service": "siding", "voltage": "15000", "length_km": 0.111}}, {"type": "Feature", "geometry": {"type": "LineString", "coordinates": [[11.3236993, 59.555673], [11.3237077, 59.5557823], [11.3237257, 59.555869], [11.3237449, 59.5559684], [11.3237495, 59.5560373], [11.3237549, 59.5561213], [11.323747, 59.5562261], [11.3237289, 59.5563885], [11.3236577, 59.5570596], [11.3236293, 59.5572911]]}, "properties": {"electrified": "contact_line", "frequency": "16.67", "gauge": "1435", "name": "\u00d8stfoldbanen \u00d8stre linje", "railway": "rail", "service": "siding", "voltage": "15000", "length_km": 0.181}}, {"type": "Feature", "geometry": {"type": "LineString", "coordinates": [[11.168409, 59.5808124], [11.1681935, 59.5808601], [11.1680557, 59.5808962], [11.1678935, 59.58094], [11.1677301, 59.5809834], [11.1675277, 59.581037], [11.1674495, 59.5810564], [11.1673354, 59.5810823], [11.167224, 59.5811064], [11.1671051, 59.5811297], [11.1666799, 59.5812144], [11.1659378, 59.5813574]]}, "properties": {"electrified": "contact_line", "frequency": "16.67", "gauge": "1435", "name": "\u00d8stfoldbanen \u00d8stre linje", "railway": "rail", "service": "siding", "voltage": "15000", "length_km": 0.152}}, {"type": "Feature", "geometry": {"type": "LineString", "coordinates": [[11.2635874, 59.3452802], [11.2634748, 59.3452141], [11.2633443, 59.3451284], [11.2631953, 59.3450253], [11.2630112, 59.3448899], [11.2628725, 59.3447654]]}, "properties": {"bridge": "yes", "electrified": "contact_line", "frequency": "16.67", "gauge": "1435", "name": "\u00d8stfoldbanen \u00d8stre linje", "operator": "Bane NOR", "passenger_lines": "1", "railway": "rail", "usage": "branch", "voltage": "15000", "length_km": 0.07}}, {"type": "Feature", "geometry": {"type": "LineString", "coordinates": [[11.2628725, 59.3447654], [11.2628097, 59.3447053], [11.2626747, 59.3445761], [11.2625247, 59.3444016], [11.2624141, 59.3442295], [11.2623215, 59.3440609], [11.2622558, 59.3439027], [11.2621948, 59.3437015], [11.2620334, 59.3430811], [11.2619336, 59.3427971], [11.2617904, 59.3424697], [11.2616114, 59.3420985], [11.2611753, 59.341268], [11.2610735, 59.3410589], [11.2609842, 59.3408585], [11.2608915, 59.3406158], [11.2608241, 59.3403668], [11.2607867, 59.3401261], [11.2607626, 59.3398877], [11.260751, 59.3396517], [11.2607739, 59.3394178], [11.2608398, 59.3388174], [11.2608863, 59.3384243], [11.2608937, 59.3382383], [11.260874, 59.3380284], [11.2608256, 59.3378295], [11.2607498, 59.3376491], [11.2606645, 59.3374925], [11.2605213, 59.3372939], [11.2603713, 59.3371214], [11.2602013, 59.3369535], [11.2600227, 59.3368016], [11.2598673, 59.3366871], [11.2596142, 59.3365352], [11.2593955, 59.3364155], [11.2590987, 59.3362555], [11.2587188, 59.3360879], [11.2583525, 59.335958], [11.2580011, 59.3358516], [11.2575546, 59.3357453], [11.2571341, 59.3356692], [11.2566637, 59.3356145], [11.2559543, 59.335571], [11.2554713, 59.335562], [11.2549226, 59.3355756], [11.2536078, 59.3356152], [11.2533131, 59.335613], [11.2529215, 59.3355967], [11.2524948, 59.335564], [11.2521304, 59.3355222], [11.2518328, 59.3354724], [11.2514968, 59.3354091], [11.2511977, 59.3353415], [11.2509205, 59.3352703], [11.2507158, 59.3352101], [11.2505206, 59.3351448], [11.2501287, 59.3350005], [11.2497046, 59.3348121], [11.2492743, 59.3345705], [11.2489147, 59.3343139], [11.2486989, 59.3341284], [11.2486202, 59.3340527], [11.2484211, 59.3338245], [11.2482757, 59.3336163], [11.2481613, 59.3333926], [11.2480804, 59.333166], [11.2480436, 59.3329876], [11.2480298, 59.3328045], [11.2480378, 59.3326484], [11.2480747, 59.3324122], [11.2481168, 59.3322709], [11.2482432, 59.3318708], [11.2488786, 59.3299338], [11.2489415, 59.3297775], [11.2490106, 59.3296207], [11.2490842, 59.329454], [11.2491436, 59.3293574], [11.2491909, 59.3292737], [11.249282, 59.3291406], [11.2493973, 59.328982], [11.2495284, 59.328832], [11.2496519, 59.3286946], [11.2498536, 59.3285032], [11.2515435, 59.3272116], [11.2517154, 59.3270793], [11.2518608, 59.3269557], [11.2520458, 59.3267897], [11.2521761, 59.3266542], [11.2523169, 59.3264842], [11.2524093, 59.3263422], [11.2524822, 59.3262212], [11.252538, 59.3261127], [11.2525696, 59.3260206], [11.2526002, 59.3259069], [11.252625, 59.3258021], [11.2526446, 59.3256593], [11.2526499, 59.3254813], [11.2526405, 59.325274], [11.252614, 59.3250807], [11.2525756, 59.3248906], [11.2524636, 59.3244272], [11.2523994, 59.3242413], [11.2523037, 59.3240491], [11.2521697, 59.3238419], [11.2519928, 59.3236224], [11.2518458, 59.3234761], [11.2517311, 59.3233677], [11.2515585, 59.3232359], [11.2513433, 59.3230888], [11.2511151, 59.3229532], [11.2508375, 59.3228084], [11.2505483, 59.3226682], [11.250004, 59.3224645], [11.2495993, 59.3223424], [11.2492796, 59.3222678], [11.2489866, 59.322207], [11.2485452, 59.322122], [11.2478796, 59.3220259], [11.2472048, 59.32195], [11.2468926, 59.3219211], [11.2465426, 59.3218954], [11.2461635, 59.3218726], [11.2458711, 59.3218608], [11.2454664, 59.3218535], [11.244854, 59.3218578], [11.2442888, 59.3218741], [11.243811, 59.3218969], [11.2433411, 59.3219331], [11.2426529, 59.3220077], [11.2418855, 59.3221123], [11.2413364, 59.3222014], [11.2407051, 59.3223145], [11.2395005, 59.3225166], [11.2391037, 59.3225727], [11.2387138, 59.3226229], [11.2383047, 59.3226692], [11.2379931, 59.3226943], [11.2376688, 59.3227101], [11.2373409, 59.3227157], [11.2368993, 59.3227097], [11.2365334, 59.3226906], [11.2361675, 59.3226578], [11.235639, 59.3225801], [11.2351352, 59.3224774], [11.2347265, 59.3223898], [11.2339938, 59.3221745], [11.2308185, 59.3212137], [11.2301839, 59.321017], [11.2298212, 59.320886], [11.2295167, 59.3207703], [11.2291054, 59.3205812], [11.2287442, 59.3203817], [11.2285282, 59.3202353], [11.2282621, 59.3199987], [11.2280908, 59.319822], [11.2279087, 59.3196072], [11.2277764, 59.3194167], [11.2276885, 59.319244], [11.2276191, 59.3190597], [11.2275818, 59.3189387], [11.2275529, 59.318805], [11.2275408, 59.3186241], [11.2275407, 59.3184834], [11.2275591, 59.3183437], [11.2276056, 59.3181559], [11.2276576, 59.3180172], [11.2277261, 59.3178701], [11.2278293, 59.3176918], [11.2279966, 59.3174755], [11.2281656, 59.3172957], [11.2283381, 59.3171424], [11.2285763, 59.3169563], [11.2287685, 59.3168274], [11.2289677, 59.3167052], [11.2292813, 59.3165387], [11.2295897, 59.316384], [11.2301094, 59.3161361]]}, "properties": {"electrified": "contact_line", "frequency": "16.67", "gauge": "1435", "name": "\u00d8stfoldbanen \u00d8stre linje", "operator": "Bane NOR", "passenger_lines": "1", "railway": "rail", "usage": "branch", "voltage": "15000", "length_km": 4.925}}, {"type": "Feature", "geometry": {"type": "LineString", "coordinates": [[11.2860392, 59.3705157], [11.2855801, 59.3702981], [11.2851693, 59.3700913], [11.2850399, 59.3700248], [11.2847414, 59.3698599], [11.2845439, 59.3697364], [11.2843585, 59.3696135], [11.2842196, 59.3695131], [11.2840741, 59.369403], [11.2838722, 59.3692287], [11.2837416, 59.3691173], [11.2836365, 59.3690099], [11.2834701, 59.368832], [11.2832957, 59.3686063], [11.2831933, 59.3684636], [11.2831096, 59.3683181], [11.283012, 59.3681384], [11.2829306, 59.3679532], [11.282848, 59.3677097], [11.2827789, 59.3674662], [11.2826898, 59.3671377], [11.2826034, 59.3668064], [11.2825023, 59.366425], [11.2822895, 59.365622]]}, "properties": {"electrified": "contact_line", "frequency": "16.67", "gauge": "1435", "name": "\u00d8stfoldbanen \u00d8stre linje", "operator": "Bane NOR", "passenger_lines": "1", "railway": "rail", "usage": "branch", "voltage": "15000", "length_km": 0.605}}, {"type": "Feature", "geometry": {"type": "LineString", "coordinates": [[11.2861914, 59.3705876], [11.2860392, 59.3705157]]}, "properties": {"bridge": "yes", "electrified": "contact_line", "frequency": "16.67", "gauge": "1435", "name": "\u00d8stfoldbanen \u00d8stre linje", "operator": "Bane NOR", "passenger_lines": "1", "railway": "rail", "usage": "branch", "voltage": "15000", "length_km": 0.012}}, {"type": "Feature", "geometry": {"type": "LineString", "coordinates": [[11.1420977, 59.5988978], [11.1421029, 59.5988839], [11.142108, 59.5988699], [11.1421143, 59.5988528]]}, "properties": {"bridge": "yes", "electrified": "contact_line", "frequency": "16.67", "gauge": "1435", "name": "\u00d8stfoldbanen \u00d8stre linje", "operator": "Bane NOR", "passenger_lines": "1", "railway": "rail", "usage": "branch", "voltage": "15000", "length_km": 0.005}}, {"type": "Feature", "geometry": {"type": "LineString", "coordinates": [[11.1421143, 59.5988528], [11.1421649, 59.5987148], [11.1422436, 59.5983744], [11.1422785, 59.5980176], [11.1422495, 59.5977344], [11.1421778, 59.5974617], [11.1419121, 59.5968258], [11.1406105, 59.5938924], [11.1404096, 59.5934091]]}, "properties": {"electrified": "contact_line", "frequency": "16.67", "gauge": "1435", "name": "\u00d8stfoldbanen \u00d8stre linje", "operator": "Bane NOR", "passenger_lines": "1", "railway": "rail", "usage": "branch", "voltage": "15000", "length_km": 0.618}}, {"type": "Feature", "geometry": {"type": "LineString", "coordinates": [[11.1404096, 59.5934091], [11.1403777, 59.5932981]]}, "properties": {"bridge": "yes", "electrified": "contact_line", "frequency": "16.67", "gauge": "1435", "name": "\u00d8stfoldbanen \u00d8stre linje", "operator": "Bane NOR", "passenger_lines": "1", "railway": "rail", "usage": "branch", "voltage": "15000", "length_km": 0.012}}, {"type": "Feature", "geometry": {"type": "LineString", "coordinates": [[11.1403777, 59.5932981], [11.1403428, 59.5931768], [11.1403166, 59.5929384], [11.1403289, 59.5927347], [11.1403725, 59.5925279], [11.1404484, 59.5923207], [11.1405796, 59.5920839], [11.1407081, 59.591898], [11.1407879, 59.5918025], [11.1408663, 59.5917154], [11.1410669, 59.5915169], [11.1412702, 59.5913331], [11.1420064, 59.5906674], [11.1421136, 59.5905639], [11.1422222, 59.5904586], [11.1424386, 59.5902423], [11.1425394, 59.5901381], [11.142642, 59.5900315], [11.1428215, 59.5898252], [11.1430333, 59.5895881]]}, "properties": {"electrified": "contact_line", "frequency": "16.67", "gauge": "1435", "name": "\u00d8stfoldbanen \u00d8stre linje", "operator": "Bane NOR", "passenger_lines": "1", "railway": "rail", "usage": "branch", "voltage": "15000", "length_km": 0.448}}, {"type": "Feature", "geometry": {"type": "LineString", "coordinates": [[11.1430333, 59.5895881], [11.143124, 59.5894865], [11.1431554, 59.5894504]]}, "properties": {"bridge": "yes", "electrified": "contact_line", "frequency": "16.67", "gauge": "1435", "name": "\u00d8stfoldbanen \u00d8stre linje", "operator": "Bane NOR", "passenger_lines": "1", "railway": "rail", "usage": "branch", "voltage": "15000", "length_km": 0.017}}, {"type": "Feature", "geometry": {"type": "LineString", "coordinates": [[11.1431554, 59.5894504], [11.1433897, 59.5891808], [11.1436208, 59.5888784], [11.1437768, 59.5886519], [11.1439587, 59.5884113], [11.1440998, 59.5881791], [11.1442393, 59.5879616], [11.1444454, 59.5876418], [11.144641, 59.5872941], [11.144908, 59.5867579], [11.1450421, 59.5864794], [11.1451912, 59.5861926], [11.1453302, 59.5859599], [11.1454425, 59.5857813], [11.1456438, 59.5854996], [11.1458537, 59.5852846], [11.1460025, 59.5851416], [11.146121, 59.5850329], [11.1462801, 59.584902], [11.1464521, 59.5847683], [11.1465416, 59.5846888], [11.1468944, 59.5844515], [11.147152, 59.5842998], [11.1473936, 59.5841854], [11.1477204, 59.584029], [11.1480136, 59.583899], [11.1482731, 59.5837922], [11.1486915, 59.5836404], [11.149116, 59.5835045], [11.1496098, 59.5833662], [11.1501071, 59.5832472], [11.1504687, 59.5831708], [11.1508931, 59.5830952], [11.1513983, 59.583024], [11.1516287, 59.5830044], [11.151884, 59.5829747], [11.1523379, 59.5829448], [11.152863, 59.5829197], [11.1535031, 59.5829016], [11.1541319, 59.5828885], [11.15459, 59.5828773], [11.1553686, 59.5828543], [11.155767, 59.5828382], [11.1561664, 59.582817], [11.1568391, 59.5827733], [11.15701, 59.58276], [11.157225, 59.5827435], [11.1574966, 59.5827192], [11.1577908, 59.5826925], [11.1582013, 59.5826497], [11.1587338, 59.5825886], [11.1592883, 59.5825167], [11.1595999, 59.5824737], [11.1599111, 59.5824283]]}, "properties": {"electrified": "contact_line", "frequency": "16.67", "gauge": "1435", "name": "\u00d8stfoldbanen \u00d8stre linje", "operator": "Bane NOR", "passenger_lines": "1", "railway": "rail", "usage": "branch", "voltage": "15000", "length_km": 1.391}}, {"type": "Feature", "geometry": {"type": "LineString", "coordinates": [[11.2325293, 59.3090535], [11.2324738, 59.3089529]]}, "properties": {"bridge": "yes", "electrified": "contact_line", "frequency": "16.67", "gauge": "1435", "name": "\u00d8stfoldbanen \u00d8stre linje", "operator": "Bane NOR", "passenger_lines": "1", "railway": "rail", "usage": "branch", "voltage": "15000", "length_km": 0.012}}, {"type": "Feature", "geometry": {"type": "LineString", "coordinates": [[11.2324738, 59.3089529], [11.2321989, 59.3085873], [11.2320481, 59.3084369], [11.2317824, 59.3082103], [11.2315815, 59.3080621], [11.2313455, 59.3079035], [11.2308267, 59.3075789], [11.2305686, 59.3074191], [11.2303343, 59.3072711], [11.2300428, 59.3070793], [11.2297795, 59.3069018], [11.22943, 59.3066532], [11.2291872, 59.3064436], [11.2289443, 59.3062216], [11.2288217, 59.3060841], [11.2286851, 59.3059261], [11.228568, 59.3057649], [11.2284925, 59.3056613], [11.2283837, 59.3055015], [11.2279275, 59.3047751], [11.2278267, 59.3046306], [11.2276713, 59.3044283], [11.2275275, 59.3042664], [11.2273724, 59.3041123], [11.2271933, 59.3039431]]}, "properties": {"electrified": "contact_line", "frequency": "16.67", "gauge": "1435", "name": "\u00d8stfoldbanen \u00d8stre linje", "operator": "Bane NOR", "passenger_lines": "1", "railway": "rail", "usage": "branch", "voltage": "15000", "length_km": 0.64}}, {"type": "Feature", "geometry": {"type": "LineString", "coordinates": [[11.2376159, 59.5708553], [11.2377175, 59.5708448], [11.2379697, 59.5708164], [11.2382126, 59.5707874], [11.2384615, 59.5707528], [11.238695, 59.5707163], [11.2390518, 59.5706578], [11.2393714, 59.570598], [11.239706, 59.5705267], [11.240056, 59.5704481], [11.2403662, 59.5703709], [11.2406719, 59.5702863], [11.2409706, 59.5701958], [11.2411994, 59.5701175], [11.2414256, 59.5700379], [11.2416747, 59.5699409], [11.2419177, 59.569841], [11.2421306, 59.5697454], [11.2423416, 59.5696445], [11.2426075, 59.5695084], [11.2428825, 59.5693605], [11.2431064, 59.5692397], [11.243656, 59.5689354], [11.2439461, 59.5687856], [11.2442523, 59.5686378], [11.2446444, 59.5684618], [11.2449541, 59.5683372], [11.245263, 59.568217], [11.2455202, 59.5681255], [11.2458856, 59.5680051], [11.2461095, 59.5679361], [11.2464761, 59.5678294], [11.2467526, 59.5677534], [11.2471735, 59.5676527], [11.2475799, 59.5675616], [11.2479253, 59.5674932], [11.2482712, 59.5674309], [11.2486554, 59.5673687], [11.2490236, 59.5673161], [11.249368, 59.5672753], [11.2497345, 59.5672366], [11.2501113, 59.5672041], [11.2504999, 59.5671787], [11.2509682, 59.567157], [11.2514382, 59.5671465], [11.251891, 59.5671432], [11.2523106, 59.5671449], [11.2531322, 59.5671578], [11.2538027, 59.5671673], [11.2543666, 59.567175], [11.2550795, 59.567178], [11.2557162, 59.5671801], [11.2563563, 59.5671793], [11.2569789, 59.567172], [11.2574755, 59.567163], [11.2580271, 59.5671484], [11.2585846, 59.5671321], [11.2591773, 59.5671142], [11.2596734, 59.5670978], [11.2600956, 59.5670778], [11.2606674, 59.5670437], [11.261283, 59.5670049], [11.2617657, 59.5669738], [11.2625761, 59.5669189], [11.2643231, 59.5667998], [11.2648392, 59.5667632], [11.2653143, 59.566726], [11.2657815, 59.5666849], [11.2664597, 59.5666233], [11.2670179, 59.5665732], [11.2676654, 59.5665135], [11.2715372, 59.5661585], [11.2721, 59.5661084], [11.2724294, 59.5660776], [11.2727302, 59.5660525], [11.2730318, 59.566029], [11.2733123, 59.5660093], [11.2735593, 59.5659974], [11.273896, 59.5659863], [11.2741572, 59.5659822], [11.274457, 59.5659821], [11.2748092, 59.5659887], [11.275129, 59.5659984], [11.2753989, 59.5660145], [11.2756884, 59.5660345], [11.2759855, 59.566062], [11.2762693, 59.5660934], [11.2765602, 59.5661285], [11.2768353, 59.5661665], [11.2771267, 59.5662144], [11.2774081, 59.5662629], [11.2777276, 59.5663284], [11.2780162, 59.5663915], [11.2783188, 59.5664671], [11.2786036, 59.5665448], [11.279003, 59.5666632], [11.2793885, 59.5667904], [11.279775, 59.5669357], [11.2800189, 59.5670356], [11.2802167, 59.5671261], [11.2805568, 59.5672906], [11.2808798, 59.5674613], [11.2812226, 59.5676535], [11.2816168, 59.5678817], [11.2819282, 59.5680636], [11.2822153, 59.5682288], [11.2825392, 59.5684082], [11.282746, 59.5685204], [11.2829467, 59.5686141], [11.2832021, 59.5687248], [11.2834809, 59.5688303], [11.2837483, 59.5689194], [11.2839944, 59.5689938], [11.2842091, 59.5690505], [11.2845061, 59.5691185], [11.2847771, 59.5691729], [11.285032, 59.5692149], [11.2853402, 59.5692578], [11.2856614, 59.5692956], [11.2860008, 59.5693219], [11.2862943, 59.5693341], [11.2866104, 59.56934], [11.2868864, 59.5693402], [11.2871537, 59.5693309], [11.2874586, 59.5693129], [11.2877171, 59.5692929], [11.2879689, 59.5692636], [11.288219, 59.5692313], [11.2884366, 59.5691975], [11.2886692, 59.5691553], [11.2889093, 59.569104], [11.2891296, 59.569052], [11.2893289, 59.5689993], [11.2894188, 59.5689755], [11.2896587, 59.5689026], [11.2899348, 59.5688091], [11.2901903, 59.5687099], [11.2905597, 59.5685546], [11.2908799, 59.5684082], [11.2917488, 59.5680018], [11.2920556, 59.5678609], [11.2932426, 59.5673156], [11.2940931, 59.5669231], [11.2945779, 59.5667062], [11.2948434, 59.5665914], [11.2953952, 59.5663588], [11.295888, 59.5661627], [11.296378, 59.565975], [11.2970047, 59.565745], [11.2976827, 59.5655095], [11.2981543, 59.5653554], [11.2986469, 59.5652031], [11.2993845, 59.5649808], [11.2998517, 59.5648499], [11.3002893, 59.5647285], [11.3006967, 59.5646222], [11.3010573, 59.5645314], [11.3015082, 59.5644195], [11.3020334, 59.5642968], [11.3025992, 59.5641728], [11.3030234, 59.5640827], [11.3035273, 59.5639821], [11.3040788, 59.5638773], [11.3049234, 59.5637271], [11.3054654, 59.5636426], [11.3060659, 59.5635501], [11.3064588, 59.5634945], [11.3067853, 59.5634513], [11.3073127, 59.5633834], [11.3079334, 59.5633057], [11.3093696, 59.5631361], [11.3102796, 59.5630322], [11.3107281, 59.5629806], [11.3110836, 59.5629397], [11.311455, 59.5628908], [11.3117713, 59.5628415], [11.312079, 59.5627914], [11.3124092, 59.5627308], [11.312797, 59.5626512], [11.3131342, 59.5625756], [11.3134706, 59.5624934], [11.3138114, 59.5624021], [11.3142046, 59.5622887], [11.3146987, 59.5621267], [11.3160647, 59.5616739], [11.3176637, 59.5611391], [11.3191786, 59.5606341], [11.3195985, 59.5604921], [11.3199906, 59.5603572], [11.3202393, 59.5602664], [11.3204708, 59.5601736], [11.3207043, 59.5600723], [11.3209709, 59.55995], [11.3212805, 59.5597931], [11.3215399, 59.5596453], [11.3218584, 59.5594473], [11.32208, 59.559289], [11.322306, 59.5591178], [11.3225217, 59.5589308], [11.3226989, 59.5587637], [11.3228517, 59.5585891], [11.3229746, 59.5584403], [11.3230797, 59.5582888], [11.3231871, 59.5581358], [11.3232541, 59.5580169], [11.3233216, 59.5578809], [11.3233709, 59.5577592]]}, "properties": {"electrified": "contact_line", "frequency": "16.67", "gauge": "1435", "name": "\u00d8stfoldbanen \u00d8stre linje", "operator": "Bane NOR", "passenger_lines": "1", "railway": "rail", "usage": "branch", "voltage": "15000", "length_km": 5.558}}, {"type": "Feature", "geometry": {"type": "LineString", "coordinates": [[11.2375142, 59.5708658], [11.2376159, 59.5708553]]}, "properties": {"bridge": "yes", "electrified": "contact_line", "frequency": "16.67", "gauge": "1435", "name": "\u00d8stfoldbanen \u00d8stre linje", "operator": "Bane NOR", "passenger_lines": "1", "railway": "rail", "usage": "branch", "voltage": "15000", "length_km": 0.006}}, {"type": "Feature", "geometry": {"type": "LineString", "coordinates": [[11.2783853, 59.3569955], [11.2770243, 59.3504889], [11.276766, 59.3492142], [11.2767062, 59.3489295], [11.2765884, 59.3485195], [11.2764652, 59.3482496], [11.2763688, 59.3481], [11.2762456, 59.3479426], [11.2761046, 59.3477878], [11.2759528, 59.3476354], [11.2758152, 59.3475189], [11.2756054, 59.3473636], [11.2754124, 59.3472398], [11.2751711, 59.3470975], [11.274973, 59.3469938]]}, "properties": {"electrified": "contact_line", "frequency": "16.67", "gauge": "1435", "name": "\u00d8stfoldbanen \u00d8stre linje", "operator": "Bane NOR", "passenger_lines": "1", "railway": "rail", "usage": "branch", "voltage": "15000", "length_km": 1.146}}, {"type": "Feature", "geometry": {"type": "LineString", "coordinates": [[11.2784034, 59.3570925], [11.2783853, 59.3569955]]}, "properties": {"bridge": "yes", "electrified": "contact_line", "frequency": "16.67", "gauge": "1435", "name": "\u00d8stfoldbanen \u00d8stre linje", "operator": "Bane NOR", "passenger_lines": "1", "railway": "rail", "usage": "branch", "voltage": "15000", "length_km": 0.011}}, {"type": "Feature", "geometry": {"type": "LineString", "coordinates": [[11.2822683, 59.3655278], [11.282137, 59.3649913], [11.2819853, 59.3644055]]}, "properties": {"electrified": "contact_line", "frequency": "16.67", "gauge": "1435", "name": "\u00d8stfoldbanen \u00d8stre linje", "operator": "Bane NOR", "passenger_lines": "1", "railway": "rail", "usage": "branch", "voltage": "15000", "length_km": 0.126}}, {"type": "Feature", "geometry": {"type": "LineString", "coordinates": [[11.2822895, 59.365622], [11.2822683, 59.3655278]]}, "properties": {"bridge": "yes", "electrified": "contact_line", "frequency": "16.67", "gauge": "1435", "name": "\u00d8stfoldbanen \u00d8stre linje", "operator": "Bane NOR", "passenger_lines": "1", "railway": "rail", "usage": "branch", "voltage": "15000", "length_km": 0.011}}, {"type": "Feature", "geometry": {"type": "LineString", "coordinates": [[11.0381522, 59.6227062], [11.0384014, 59.6227148], [11.0387572, 59.6227327], [11.0392904, 59.6227823], [11.0405432, 59.6229457], [11.0411671, 59.6230193], [11.0414494, 59.6230509], [11.0418173, 59.6230892], [11.0422897, 59.6231223], [11.0428542, 59.6231493], [11.0432645, 59.6231622], [11.0437781, 59.6231728], [11.0443787, 59.623174], [11.0449629, 59.6231601], [11.045761, 59.623123], [11.0465144, 59.6230679], [11.0471383, 59.6230075], [11.0480253, 59.6228999], [11.0486715, 59.6228075], [11.0493881, 59.6226808], [11.0501312, 59.6225312], [11.0508495, 59.6223705], [11.0518028, 59.6221488], [11.0531629, 59.6218277], [11.0546235, 59.6214856], [11.055908, 59.6211847], [11.0566681, 59.6210183], [11.0590453, 59.6204646], [11.0602143, 59.6201904], [11.0623538, 59.6196964], [11.0632761, 59.6194881], [11.0638089, 59.6193844], [11.0643509, 59.6192845], [11.0650106, 59.6191815], [11.0655898, 59.6191057], [11.0662957, 59.6190347], [11.0668974, 59.6189851], [11.0675945, 59.6189473], [11.0682146, 59.6189285], [11.0689068, 59.6189225], [11.0697289, 59.6189413], [11.0702824, 59.6189642], [11.0709116, 59.6190134], [11.0713854, 59.6190578], [11.0718728, 59.6191118], [11.0726299, 59.619217], [11.073312, 59.6193245], [11.0740522, 59.6194696], [11.0746022, 59.6196002], [11.0751691, 59.6197457], [11.0756839, 59.6198843], [11.0760822, 59.6199982]]}, "properties": {"electrified": "contact_line", "frequency": "16.67", "gauge": "1435", "name": "\u00d8stfoldbanen \u00d8stre linje", "operator": "Bane NOR", "passenger_lines": "1", "railway": "rail", "usage": "branch", "voltage": "15000", "length_km": 2.261}}, {"type": "Feature", "geometry": {"type": "LineString", "coordinates": [[11.0380053, 59.6227051], [11.0381522, 59.6227062]]}, "properties": {"bridge": "yes", "electrified": "contact_line", "frequency": "16.67", "gauge": "1435", "name": "\u00d8stfoldbanen \u00d8stre linje", "operator": "Bane NOR", "passenger_lines": "1", "railway": "rail", "usage": "branch", "voltage": "15000", "length_km": 0.008}}, {"type": "Feature", "geometry": {"type": "LineString", "coordinates": [[11.3045685, 59.5295528], [11.3046669, 59.5293747], [11.3051825, 59.5285066], [11.305424, 59.5280683], [11.3056015, 59.5277552], [11.3057534, 59.5274786], [11.305938, 59.5270945], [11.3060952, 59.5267317], [11.306227, 59.5264118], [11.3063435, 59.5260875], [11.3064729, 59.5256512], [11.3069468, 59.5233294], [11.3070178, 59.5229047], [11.3070869, 59.5222494], [11.3070995, 59.5220345], [11.3070946, 59.5217426], [11.3070576, 59.5213971], [11.3070256, 59.521165], [11.3069897, 59.5209728], [11.3069267, 59.5206986], [11.306859, 59.5204284], [11.3068009, 59.5202331], [11.3067209, 59.5199947], [11.3065968, 59.5196961], [11.3064492, 59.5193709], [11.3062489, 59.5189505], [11.3054382, 59.5174618], [11.3044562, 59.515692], [11.3043553, 59.5155134]]}, "properties": {"electrified": "contact_line", "frequency": "16.67", "gauge": "1435", "name": "\u00d8stfoldbanen \u00d8stre linje", "operator": "Bane NOR", "passenger_lines": "1", "railway": "rail", "usage": "branch", "voltage": "15000", "length_km": 1.599}}, {"type": "Feature", "geometry": {"type": "LineString", "coordinates": [[11.3045515, 59.5295898], [11.3045685, 59.5295528]]}, "properties": {"bridge": "yes", "electrified": "contact_line", "frequency": "16.67", "gauge": "1435", "name": "\u00d8stfoldbanen \u00d8stre linje", "operator": "Bane NOR", "passenger_lines": "1", "railway": "rail", "usage": "branch", "voltage": "15000", "length_km": 0.004}}, {"type": "Feature", "geometry": {"type": "LineString", "coordinates": [[10.83432, 59.7174716], [10.8343544, 59.7177744]]}, "properties": {"electrified": "contact_line", "frequency": "16.67", "gauge": "1435", "name": "\u00d8stfoldbanen \u00d8stre linje", "operator": "Bane NOR", "passenger_lines": "1", "railway": "rail", "usage": "branch", "voltage": "15000", "length_km": 0.034}}, {"type": "Feature", "geometry": {"type": "LineString", "coordinates": [[10.8371457, 59.7149777], [10.8371722, 59.7149698], [10.8373442, 59.7149254], [10.8375465, 59.7148801]]}, "properties": {"electrified": "contact_line", "frequency": "16.67", "gauge": "1435", "name": "\u00d8stfoldbanen \u00d8stre linje", "operator": "Bane NOR", "passenger_lines": "1", "railway": "rail", "usage": "branch", "voltage": "15000", "length_km": 0.025}}, {"type": "Feature", "geometry": {"type": "LineString", "coordinates": [[11.1441451, 59.2748485], [11.1439163, 59.2748558], [11.1437022, 59.2748633], [11.1434708, 59.2748665], [11.1431957, 59.2748642], [11.1429798, 59.2748568], [11.1427274, 59.2748396], [11.1425179, 59.2748167], [11.1423366, 59.2747888], [11.1421152, 59.2747465], [11.1418856, 59.2746962], [11.1417053, 59.2746464], [11.1415003, 59.2745761], [11.1413226, 59.2745044], [11.1410293, 59.2743587], [11.140899, 59.2742805], [11.1407624, 59.2741823], [11.1406713, 59.2741093], [11.1405847, 59.2740315], [11.1404918, 59.27393], [11.1404271, 59.2738421], [11.1403734, 59.2737541], [11.1403296, 59.273661], [11.1402959, 59.2735623], [11.1402722, 59.2734734], [11.140264, 59.2733887], [11.1402568, 59.2732834], [11.1402741, 59.2731606], [11.1403096, 59.2730559], [11.140367, 59.2729228], [11.1404171, 59.2728152], [11.1404936, 59.2726928], [11.1405793, 59.2725616], [11.1406909, 59.2724089], [11.1407703, 59.2723049], [11.1408801, 59.272178]]}, "properties": {"electrified": "contact_line", "frequency": "16.67", "gauge": "1435", "name": "\u00d8stfoldbanen \u00d8stre linje", "operator": "Bane NOR", "passenger_lines": "1", "railway": "rail", "usage": "branch", "voltage": "15000", "length_km": 0.453}}]}