{"type": "FeatureCollection", "features": [{"type": "Feature", "geometry": {"type": "LineString", "coordinates": [[10.7689942, 59.9048941], [10.7693248, 59.9050165], [10.769606, 59.9051198], [10.7699134, 59.9052329], [10.77011, 59.9053038], [10.7702714, 59.9053567], [10.7704031, 59.9053985], [10.7705898, 59.9054517], [10.7707522, 59.9054974], [10.7709181, 59.9055383], [10.7711037, 59.9055808]]}, "properties": {"electrified": "contact_line", "frequency": "16.67", "gauge": "1435", "name": "\u00d8vre bakkespor", "railway": "rail", "service": "yard", "voltage": "15000", "length_km": 0.141}}, {"type": "Feature", "geometry": {"type": "LineString", "coordinates": [[10.7711037, 59.9055808], [10.7711928, 59.9055993], [10.7713161, 59.9056227], [10.7714364, 59.9056445]]}, "properties": {"bridge": "yes", "electrified": "contact_line", "frequency": "16.67", "gauge": "1435", "name": "\u00d8vre bakkespor", "railway": "rail", "service": "yard", "voltage": "15000", "length_km": 0.02}}, {"type": "Feature", "geometry": {"type": "LineString", "coordinates": [[10.7714364, 59.9056445], [10.7715388, 59.9056607], [10.7716888, 59.9056836], [10.7718375, 59.905701], [10.7719693, 59.9057133], [10.7720851, 59.9057227], [10.7722122, 59.9057303], [10.7722747, 59.905734], [10.7725226, 59.9057403], [10.7726408, 59.9057404], [10.7727717, 59.9057373], [10.7729194, 59.9057307], [10.773079, 59.9057203], [10.7732769, 59.9057048], [10.7737786, 59.9056662], [10.7747948, 59.9055863], [10.7770732, 59.9054096], [10.7776744, 59.9053626]]}, "properties": {"electrified": "contact_line", "frequency": "16.67", "gauge": "1435", "name": "\u00d8vre bakkespor", "railway": "rail", "service": "yard", "voltage": "15000", "length_km": 0.354}}]}