{"type": "FeatureCollection", "features": [{"type": "Feature", "geometry": {"type": "LineString", "coordinates": [[7.8749266, 58.1565791], [7.8746835, 58.1565833], [7.8744844, 58.1565813], [7.8741934, 58.1565711], [7.8738816, 58.1565481], [7.8736233, 58.1565183], [7.873202, 58.1564523]]}, "properties": {"electrified": "contact_line", "frequency": "16.67", "gauge": "1435", "maxspeed": "90", "name": "\u00d8ygaren tunnel", "operator": "Bane NOR", "passenger_lines": "1", "railway": "rail", "tunnel": "yes", "usage": "main", "voltage": "15000", "length_km": 0.103, "maxspeed_kmh": 90.0}}]}