{"type": "FeatureCollection", "features": [{"type": "Feature", "geometry": {"type": "LineString", "coordinates": [[9.2660119, 59.5817697], [9.2656951, 59.5815757], [9.2655703, 59.5814902], [9.2654657, 59.5814141], [9.2653658, 59.5813377], [9.2652626, 59.5812525], [9.2651633, 59.5811578], [9.26505, 59.581042], [9.2649487, 59.5809235], [9.2648803, 59.5808332], [9.2648032, 59.5807167], [9.264757, 59.5806482], [9.2646705, 59.5805079]]}, "properties": {"gauge": "1435", "name": "Platon sidespor", "railway": "rail", "service": "spur", "length_km": 0.161}}, {"type": "Feature", "geometry": {"type": "LineString", "coordinates": [[9.2682034, 59.5834574], [9.2680728, 59.5833299], [9.2680179, 59.5832606], [9.2679012, 59.5831153], [9.2678019, 59.5830053], [9.2676826, 59.5828831], [9.2675149, 59.5827385], [9.2674291, 59.5826855], [9.2673084, 59.5826007], [9.2670737, 59.5824554], [9.2666201, 59.582159], [9.2664605, 59.5820588], [9.2663713, 59.5820016], [9.2661219, 59.5818427], [9.2660119, 59.5817697], [9.265911, 59.5816974], [9.2658117, 59.581617], [9.2656646, 59.5814993], [9.2655539, 59.5814102], [9.2654557, 59.5813314], [9.2653511, 59.581246], [9.2652498, 59.5811578], [9.2651643, 59.5810675], [9.2650798, 59.5809755], [9.2650178, 59.5809013], [9.2649645, 59.5808329], [9.2649072, 59.5807505], [9.2648247, 59.5806302]]}, "properties": {"gauge": "1435", "name": "Platon sidespor", "railway": "rail", "service": "spur", "length_km": 0.371}}]}