{"type": "FeatureCollection", "features": [{"type": "Feature", "geometry": {"type": "LineString", "coordinates": [[5.7333763, 58.9655061], [5.7332969, 58.9655562], [5.7332043, 58.9656131], [5.7331162, 58.965663], [5.7329981, 58.965728], [5.73291, 58.9657792], [5.7328396, 58.9658236], [5.7321879, 58.9662582], [5.7316746, 58.9666001], [5.7314873, 58.9667274], [5.7313295, 58.9668341]]}, "properties": {"electrified": "no", "operator": "Bane NOR", "railway": "rail", "ref": "R10", "service": "spur", "tunnel": "yes", "length_km": 0.19}}]}