{"type": "FeatureCollection", "features": [{"type": "Feature", "geometry": {"type": "LineString", "coordinates": [[9.90403, 59.8799632], [9.9030558, 59.8796815], [9.9023429, 59.8794477], [9.9016916, 59.8792225], [9.900689, 59.8788214], [9.8994579, 59.8781934], [9.8977584, 59.877431], [9.8957206, 59.8764157], [9.894302, 59.8757609], [9.8935158, 59.8753305], [9.8927959, 59.8748675], [9.8919642, 59.8741754], [9.8910077, 59.8731726], [9.8904528, 59.8723986], [9.8900872, 59.8718787], [9.8898557, 59.8712214], [9.8897256, 59.8703845], [9.8897216, 59.8695946], [9.8896564, 59.868825], [9.8896103, 59.868198], [9.8897717, 59.8673551], [9.8900129, 59.8667275], [9.8904332, 59.8659943], [9.8908197, 59.8654529], [9.8916262, 59.8646651], [9.8932026, 59.8635204], [9.894041, 59.8629511], [9.8945981, 59.8621365], [9.8946932, 59.8619614]]}, "properties": {"electrified": "contact_line", "frequency": "16.67", "gauge": "1435", "maxspeed": "105", "name": "Randsfjordbanen", "operator": "Bane NOR", "passenger_lines": "1", "railway": "rail", "usage": "main", "voltage": "15000", "length_km": 2.395, "maxspeed_kmh": 105.0}}, {"type": "Feature", "geometry": {"type": "LineString", "coordinates": [[10.1844664, 60.1400816], [10.1818478, 60.139218]]}, "properties": {"bridge": "yes", "electrified": "contact_line", "frequency": "16.67", "gauge": "1435", "maxspeed": "120", "name": "Randsfjordbanen", "operator": "Bane NOR", "passenger_lines": "1", "railway": "rail", "usage": "main", "voltage": "15000", "length_km": 0.175, "maxspeed_kmh": 120.0}}, {"type": "Feature", "geometry": {"type": "LineString", "coordinates": [[10.1535398, 60.125932], [10.1532793, 60.1257053], [10.1530073, 60.1253879], [10.1528003, 60.1250781], [10.1527335, 60.1249219], [10.1526608, 60.1247661], [10.1525186, 60.1243242], [10.1523844, 60.1239651], [10.1521994, 60.1236086], [10.1517447, 60.1229696], [10.1515611, 60.1227994], [10.1512089, 60.1223523], [10.1509184, 60.1218779], [10.1508633, 60.1217153], [10.1505385, 60.1206589], [10.150315, 60.1192042], [10.1502386, 60.1188412], [10.1501206, 60.1184791], [10.1499523, 60.1180447], [10.1497475, 60.1176103], [10.1493697, 60.1170585], [10.1491651, 60.1167992], [10.1489318, 60.116549], [10.1486594, 60.1162892], [10.1482959, 60.1160099], [10.1478957, 60.1157524], [10.1475743, 60.1155765], [10.1469202, 60.1152753], [10.1457787, 60.1149069], [10.1442543, 60.1143174], [10.1430527, 60.1135476], [10.141851, 60.1119224], [10.1408412, 60.1108404], [10.1399571, 60.1100379], [10.1389623, 60.1092134], [10.1384215, 60.1088105], [10.1375595, 60.1081684], [10.1366553, 60.1074126]]}, "properties": {"electrified": "contact_line", "frequency": "16.67", "gauge": "1435", "maxspeed": "90", "name": "Randsfjordbanen", "operator": "Bane NOR", "passenger_lines": "1", "railway": "rail", "usage": "main", "voltage": "15000", "length_km": 2.333, "maxspeed_kmh": 90.0}}, {"type": "Feature", "geometry": {"type": "LineString", "coordinates": [[9.9045425, 59.7707368], [9.9042395, 59.7709092], [9.9039383, 59.7710822]]}, "properties": {"electrified": "contact_line", "frequency": "16.67", "gauge": "1435", "maxspeed": "105", "name": "Randsfjordbanen", "operator": "Bane NOR", "passenger_lines": "2", "railway": "rail", "usage": "main", "voltage": "15000", "length_km": 0.051, "maxspeed_kmh": 105.0}}, {"type": "Feature", "geometry": {"type": "LineString", "coordinates": [[9.9107476, 59.8864172], [9.9094884, 59.8855895]]}, "properties": {"bridge": "yes", "electrified": "contact_line", "frequency": "16.67", "gauge": "1435", "maxspeed": "90", "name": "Randsfjordbanen", "operator": "Bane NOR", "passenger_lines": "1", "railway": "rail", "usage": "main", "voltage": "15000", "length_km": 0.116, "maxspeed_kmh": 90.0}}, {"type": "Feature", "geometry": {"type": "LineString", "coordinates": [[9.9094884, 59.8855895], [9.9092904, 59.8854503], [9.9091221, 59.8853184]]}, "properties": {"electrified": "contact_line", "frequency": "16.67", "gauge": "1435", "maxspeed": "90", "name": "Randsfjordbanen", "operator": "Bane NOR", "passenger_lines": "1", "railway": "rail", "usage": "main", "voltage": "15000", "length_km": 0.037, "maxspeed_kmh": 90.0}}, {"type": "Feature", "geometry": {"type": "LineString", "coordinates": [[10.2155048, 60.1522583], [10.2153164, 60.1521308], [10.2151334, 60.152019], [10.2149315, 60.1519049], [10.2147686, 60.1518171], [10.2145178, 60.1516967], [10.214267, 60.1515855], [10.2140202, 60.1514834], [10.2137098, 60.1513736], [10.2132944, 60.1512354], [10.2127462, 60.1510649], [10.2124009, 60.1509554], [10.2121712, 60.1508792], [10.2119466, 60.1508006], [10.211743, 60.1507241], [10.2115352, 60.1506407], [10.2113112, 60.1505446], [10.2110906, 60.1504398], [10.2104807, 60.150106], [10.20985, 60.1496909], [10.2094136, 60.149284], [10.2084208, 60.1481408], [10.2080237, 60.1477514], [10.2074757, 60.147371], [10.2061226, 60.1465374], [10.2035284, 60.1453209], [10.2006583, 60.1439687], [10.1977778, 60.142629], [10.1947533, 60.1416009]]}, "properties": {"electrified": "contact_line", "frequency": "16.67", "gauge": "1435", "maxspeed": "95", "name": "Randsfjordbanen", "operator": "Bane NOR", "passenger_lines": "1", "railway": "rail", "usage": "main", "voltage": "15000", "length_km": 1.679, "maxspeed_kmh": 95.0}}, {"type": "Feature", "geometry": {"type": "LineString", "coordinates": [[10.2193122, 60.1561162], [10.2191117, 60.1559502], [10.2186035, 60.1555237], [10.2183272, 60.1552898]]}, "properties": {"electrified": "contact_line", "frequency": "16.67", "gauge": "1435", "maxspeed": "130", "name": "Randsfjordbanen", "operator": "Bane NOR", "passenger_lines": "1", "railway": "rail", "tunnel": "yes", "usage": "main", "voltage": "15000", "length_km": 0.107, "maxspeed_kmh": 130.0}}, {"type": "Feature", "geometry": {"type": "LineString", "coordinates": [[10.2429338, 60.1637284], [10.2412856, 60.1635589], [10.2402689, 60.1634509], [10.2394944, 60.1633651], [10.2388415, 60.163284], [10.2384201, 60.1632265], [10.2380408, 60.1631705], [10.237678, 60.1631155], [10.2372716, 60.1630508], [10.2367996, 60.1629694], [10.2362759, 60.162873], [10.2358004, 60.1627819], [10.2352613, 60.1626738], [10.2348053, 60.1625774], [10.2342938, 60.1624629], [10.2339946, 60.1623969], [10.2335427, 60.1622901], [10.2331163, 60.1621935], [10.2327139, 60.1620893], [10.2321158, 60.1619375], [10.2316289, 60.1618117], [10.2311099, 60.1616706], [10.2306077, 60.1615308], [10.2299847, 60.1613496], [10.2295475, 60.1612195], [10.2291425, 60.161095], [10.2287469, 60.1609689], [10.2282889, 60.1608184], [10.2278148, 60.1606563], [10.2274004, 60.1605065], [10.2270705, 60.1603817], [10.2266608, 60.1602232], [10.2262514, 60.1600593], [10.2259681, 60.1599399], [10.2256637, 60.1598088], [10.2252915, 60.1596408], [10.2248745, 60.1594449], [10.2244202, 60.1592282], [10.2240024, 60.1590167], [10.222992, 60.1584814], [10.2225973, 60.1582643], [10.2221339, 60.1579967], [10.2216981, 60.1577374], [10.2212974, 60.1574894], [10.2209035, 60.1572389], [10.2201175, 60.1567105], [10.2197937, 60.1564774], [10.2195456, 60.1562956], [10.2193122, 60.1561162]]}, "properties": {"electrified": "contact_line", "frequency": "16.67", "gauge": "1435", "maxspeed": "130", "name": "Randsfjordbanen", "operator": "Bane NOR", "passenger_lines": "1", "railway": "rail", "usage": "main", "voltage": "15000", "length_km": 1.611, "maxspeed_kmh": 130.0}}, {"type": "Feature", "geometry": {"type": "LineString", "coordinates": [[10.246574, 60.1639485], [10.2462362, 60.1639475]]}, "properties": {"bridge": "yes", "electrified": "contact_line", "frequency": "16.67", "gauge": "1435", "name": "Randsfjordbanen", "operator": "Bane NOR", "passenger_lines": "1", "railway": "rail", "usage": "main", "voltage": "15000", "length_km": 0.019}}, {"type": "Feature", "geometry": {"type": "LineString", "coordinates": [[10.2415083, 60.1688563], [10.2421225, 60.168859], [10.2423532, 60.168863], [10.2426724, 60.1688763], [10.2452956, 60.1690458], [10.2455611, 60.1690578], [10.2462309, 60.1690714], [10.2463744, 60.1690728], [10.2464964, 60.1690721], [10.2466166, 60.1690714]]}, "properties": {"electrified": "contact_line", "frequency": "16.67", "gauge": "1435", "name": "Randsfjordbanen", "railway": "rail", "service": "siding", "usage": "main", "voltage": "15000", "length_km": 0.285}}, {"type": "Feature", "geometry": {"type": "LineString", "coordinates": [[10.2530256, 60.1668328], [10.2530363, 60.1667468], [10.2530424, 60.1666724], [10.253041, 60.166566], [10.2530323, 60.1664616], [10.2530182, 60.1663735], [10.2529914, 60.1662597], [10.2529555, 60.1661514], [10.2528848, 60.1660082], [10.2528117, 60.1658721], [10.2527319, 60.1657527], [10.2526259, 60.1656246], [10.2525267, 60.1655178], [10.2523698, 60.165375], [10.2521796, 60.1652215], [10.2519768, 60.1650928], [10.2518025, 60.1649927], [10.2516496, 60.164912], [10.251435, 60.1648086]]}, "properties": {"electrified": "contact_line", "frequency": "16.67", "gauge": "1435", "maxspeed": "60", "name": "Randsfjordbanen", "operator": "Bane NOR", "passenger_lines": "1", "railway": "rail", "usage": "main", "voltage": "15000", "length_km": 0.251, "maxspeed_kmh": 60.0}}, {"type": "Feature", "geometry": {"type": "LineString", "coordinates": [[10.2529097, 60.1671779], [10.2529401, 60.1671179], [10.2529651, 60.1670563]]}, "properties": {"bridge": "yes", "electrified": "contact_line", "frequency": "16.67", "gauge": "1435", "name": "Randsfjordbanen", "passenger_lines": "1", "railway": "rail", "service": "siding", "voltage": "15000", "length_km": 0.014}}, {"type": "Feature", "geometry": {"type": "LineString", "coordinates": [[9.9058674, 59.7699758], [9.904786, 59.7705982]]}, "properties": {"electrified": "contact_line", "frequency": "16.67", "gauge": "1435", "maxspeed": "105", "name": "Randsfjordbanen", "operator": "Bane NOR", "passenger_lines": "2", "railway": "rail", "usage": "main", "voltage": "15000", "length_km": 0.092, "maxspeed_kmh": 105.0}}, {"type": "Feature", "geometry": {"type": "LineString", "coordinates": [[9.9039383, 59.7710822], [9.904107, 59.7709753], [9.9042038, 59.7709066], [9.9043332, 59.7708126], [9.904494, 59.770704]]}, "properties": {"electrified": "contact_line", "frequency": "16.67", "gauge": "1435", "maxspeed": "40", "name": "Randsfjordbanen", "operator": "Bane NOR", "passenger_lines": "2", "railway": "rail", "service": "crossover", "voltage": "15000", "length_km": 0.052, "maxspeed_kmh": 40.0}}, {"type": "Feature", "geometry": {"type": "LineString", "coordinates": [[9.9045425, 59.7707368], [9.904786, 59.7705982]]}, "properties": {"bridge": "yes", "electrified": "contact_line", "frequency": "16.67", "gauge": "1435", "maxspeed": "105", "name": "Randsfjordbanen", "operator": "Bane NOR", "passenger_lines": "2", "railway": "rail", "usage": "main", "voltage": "15000", "length_km": 0.021, "maxspeed_kmh": 105.0}}, {"type": "Feature", "geometry": {"type": "LineString", "coordinates": [[9.8975565, 59.774748], [9.8988812, 59.7739895]]}, "properties": {"bridge": "yes", "electrified": "contact_line", "frequency": "16.67", "gauge": "1435", "maxspeed": "115", "name": "Randsfjordbanen", "operator": "Bane NOR", "passenger_lines": "1", "railway": "rail", "usage": "main", "voltage": "15000", "length_km": 0.113, "maxspeed_kmh": 115.0}}, {"type": "Feature", "geometry": {"type": "LineString", "coordinates": [[9.9035482, 59.771306], [9.9027082, 59.7717916], [9.9017933, 59.7723164], [9.900645, 59.7729761], [9.8988812, 59.7739895]]}, "properties": {"electrified": "contact_line", "frequency": "16.67", "gauge": "1435", "maxspeed": "115", "name": "Randsfjordbanen", "operator": "Bane NOR", "passenger_lines": "1", "railway": "rail", "usage": "main", "voltage": "15000", "length_km": 0.398, "maxspeed_kmh": 115.0}}, {"type": "Feature", "geometry": {"type": "LineString", "coordinates": [[9.8941468, 59.7778796], [9.894205, 59.7776201], [9.894308, 59.7773612], [9.8945135, 59.776995], [9.8947455, 59.7766764], [9.89495, 59.7764442], [9.8952865, 59.7761568], [9.8958331, 59.7757758], [9.8964216, 59.7754053], [9.8975565, 59.774748]]}, "properties": {"electrified": "contact_line", "frequency": "16.67", "gauge": "1435", "maxspeed": "115", "name": "Randsfjordbanen", "operator": "Bane NOR", "passenger_lines": "1", "railway": "rail", "usage": "main", "voltage": "15000", "length_km": 0.407, "maxspeed_kmh": 115.0}}, {"type": "Feature", "geometry": {"type": "LineString", "coordinates": [[9.8941342, 59.7779464], [9.8941468, 59.7778796]]}, "properties": {"bridge": "yes", "electrified": "contact_line", "frequency": "16.67", "gauge": "1435", "maxspeed": "115", "name": "Randsfjordbanen", "operator": "Bane NOR", "passenger_lines": "1", "railway": "rail", "usage": "main", "voltage": "15000", "length_km": 0.007, "maxspeed_kmh": 115.0}}, {"type": "Feature", "geometry": {"type": "LineString", "coordinates": [[9.9619808, 59.9311334], [9.9593301, 59.9309113]]}, "properties": {"bridge": "yes", "electrified": "contact_line", "frequency": "16.67", "gauge": "1435", "maxspeed": "70", "name": "Randsfjordbanen", "operator": "Bane NOR", "passenger_lines": "1", "railway": "rail", "usage": "main", "voltage": "15000", "length_km": 0.15, "maxspeed_kmh": 70.0}}, {"type": "Feature", "geometry": {"type": "LineString", "coordinates": [[9.9487939, 59.9269023], [9.9486499, 59.92678], [9.9485171, 59.9266536], [9.9482626, 59.9263983], [9.9481282, 59.9262296], [9.9480209, 59.9260575], [9.9479324, 59.9258814], [9.9478613, 59.9256939], [9.9478009, 59.9254258], [9.9477822, 59.9251529], [9.947809, 59.9248841], [9.947863, 59.9246044], [9.9479243, 59.9242725], [9.9479434, 59.9239412], [9.947927, 59.9236636], [9.9478868, 59.923384], [9.947809, 59.9231111], [9.94771, 59.92284], [9.9475139, 59.9224222], [9.9473066, 59.9220055], [9.9468491, 59.9211075], [9.946569, 59.9205668], [9.9463364, 59.9202142], [9.946042, 59.91988], [9.9458469, 59.9197027], [9.9456391, 59.919538], [9.945178, 59.9192265], [9.9445555, 59.9188766], [9.9439592, 59.918521], [9.9436703, 59.9183381], [9.9434035, 59.9181513], [9.9431621, 59.9179724], [9.9428917, 59.9177721], [9.9424741, 59.9173802], [9.9420881, 59.9169894], [9.9410169, 59.9157398], [9.9402903, 59.9148889], [9.9398324, 59.914359], [9.9396363, 59.9141265]]}, "properties": {"electrified": "contact_line", "frequency": "16.67", "gauge": "1435", "maxspeed": "90", "name": "Randsfjordbanen", "operator": "Bane NOR", "passenger_lines": "1", "railway": "rail", "usage": "main", "voltage": "15000", "length_km": 1.549, "maxspeed_kmh": 90.0}}, {"type": "Feature", "geometry": {"type": "LineString", "coordinates": [[10.0009583, 59.9714537], [10.0006953, 59.9712796], [10.0003467, 59.9710595], [10.000014, 59.9708111], [9.9993704, 59.9703081], [9.9982587, 59.9694238], [9.9981138, 59.9693127], [9.9971281, 59.9685355], [9.9968094, 59.9682829], [9.9962616, 59.9678405]]}, "properties": {"electrified": "contact_line", "frequency": "16.67", "gauge": "1435", "maxspeed": "40", "name": "Randsfjordbanen", "railway": "rail", "service": "siding", "voltage": "15000", "length_km": 0.481, "maxspeed_kmh": 40.0}}, {"type": "Feature", "geometry": {"type": "LineString", "coordinates": [[10.2469586, 60.1690571], [10.2471281, 60.1690538], [10.2472702, 60.1690551], [10.2486027, 60.1690644], [10.2489756, 60.1690604], [10.2492733, 60.1690458], [10.2496783, 60.1690017], [10.2500833, 60.1689377], [10.2505125, 60.1688443], [10.250955, 60.1687122], [10.2512137, 60.1686127], [10.2515076, 60.16848], [10.2515772, 60.1684393], [10.2517489, 60.1683449], [10.2519078, 60.1682425], [10.2520211, 60.1681605], [10.2521492, 60.1680587], [10.2522591, 60.1679563], [10.2523617, 60.1678482], [10.2526544, 60.1675297], [10.2527245, 60.1674501], [10.2527775, 60.1673839], [10.2528211, 60.1673255], [10.252871, 60.1672514], [10.2529097, 60.1671779]]}, "properties": {"electrified": "contact_line", "frequency": "16.67", "gauge": "1435", "maxspeed": "40", "name": "Randsfjordbanen", "passenger_lines": "2", "railway": "rail", "service": "siding", "voltage": "15000", "length_km": 0.436, "maxspeed_kmh": 40.0}}, {"type": "Feature", "geometry": {"type": "LineString", "coordinates": [[9.8960397, 59.8250455], [9.8958551, 59.8245913], [9.895699, 59.824339], [9.895345, 59.8238698], [9.8949009, 59.8234211], [9.8912353, 59.8200928], [9.8911329, 59.8199944], [9.8901882, 59.8190875], [9.8891754, 59.8182245], [9.8883857, 59.8174477], [9.8879737, 59.8167789], [9.8876133, 59.8154195], [9.8875875, 59.8147075], [9.8876352, 59.8144536], [9.8877334, 59.8139307], [9.8882999, 59.8130891], [9.8884201, 59.8122389], [9.8884201, 59.8115786], [9.8878879, 59.8105643], [9.8870983, 59.8097097], [9.8865522, 59.809049], [9.8863432, 59.8083684], [9.8863805, 59.8073217], [9.8864159, 59.8068614], [9.886418, 59.8063424], [9.886315, 59.8058343], [9.8857593, 59.8047457], [9.88521, 59.8040118], [9.8850001, 59.8036625], [9.8849224, 59.8035113], [9.8847584, 59.8030578], [9.8846862, 59.802468], [9.8845477, 59.8013085], [9.88449, 59.8008662], [9.8844653, 59.8007114], [9.8844142, 59.80053], [9.8843486, 59.8003138], [9.8843087, 59.8002088], [9.8841508, 59.7999113], [9.8840394, 59.7997258], [9.8838375, 59.7993646], [9.8836885, 59.7990724], [9.8836072, 59.7988623], [9.8835522, 59.7986778], [9.8835134, 59.7985175], [9.8834982, 59.7983778], [9.8835025, 59.7981381], [9.8835296, 59.7979452], [9.8835702, 59.797759], [9.8836331, 59.7975796], [9.8837131, 59.7974053], [9.8838144, 59.7972142], [9.88394, 59.7970398], [9.8840922, 59.7968584], [9.8842734, 59.7966792], [9.8844711, 59.7965007], [9.8846511, 59.7963537], [9.8849016, 59.7961841], [9.8851477, 59.7960274]]}, "properties": {"electrified": "contact_line", "frequency": "16.67", "gauge": "1435", "maxspeed": "95", "name": "Randsfjordbanen", "operator": "Bane NOR", "passenger_lines": "1", "railway": "rail", "usage": "main", "voltage": "15000", "length_km": 3.414, "maxspeed_kmh": 95.0}}, {"type": "Feature", "geometry": {"type": "LineString", "coordinates": [[9.8958251, 59.8383606], [9.896156, 59.8370734]]}, "properties": {"bridge": "yes", "electrified": "contact_line", "frequency": "16.67", "gauge": "1435", "maxspeed": "100", "name": "Randsfjordbanen", "operator": "Bane NOR", "passenger_lines": "1", "railway": "rail", "usage": "main", "voltage": "15000", "length_km": 0.145, "maxspeed_kmh": 100.0}}, {"type": "Feature", "geometry": {"type": "LineString", "coordinates": [[9.9930888, 59.965372], [9.992915, 59.9652627]]}, "properties": {"bridge": "yes", "electrified": "contact_line", "frequency": "16.67", "gauge": "1435", "maxspeed": "110", "name": "Randsfjordbanen", "operator": "Bane NOR", "passenger_lines": "1", "railway": "rail", "usage": "main", "voltage": "15000", "length_km": 0.016, "maxspeed_kmh": 110.0}}, {"type": "Feature", "geometry": {"type": "LineString", "coordinates": [[9.9813554, 59.9523821], [9.9789444, 59.950211], [9.9785873, 59.949845], [9.9782955, 59.9495044], [9.9780428, 59.949164], [9.9778286, 59.9488012], [9.977733, 59.9485918], [9.9775976, 59.9482526], [9.977503, 59.9478531], [9.9774584, 59.947458], [9.9774621, 59.9471069], [9.9775188, 59.9467206], [9.9776191, 59.9463593], [9.9777803, 59.9459495], [9.977996, 59.9453657], [9.9780992, 59.9449556], [9.9781545, 59.9445861], [9.9781783, 59.9441516], [9.9781601, 59.9437297], [9.9781086, 59.9433751], [9.9780325, 59.9430291], [9.9778873, 59.9425697], [9.9776956, 59.9421209], [9.9774662, 59.9417005], [9.9771865, 59.9412692], [9.9769056, 59.9409065], [9.9766259, 59.9405673], [9.9762149, 59.9401501], [9.9757751, 59.939749], [9.9754652, 59.9394958], [9.9751468, 59.9392519], [9.9748004, 59.9390161], [9.9746098, 59.9388577]]}, "properties": {"electrified": "contact_line", "frequency": "16.67", "gauge": "1435", "maxspeed": "115", "name": "Randsfjordbanen", "operator": "Bane NOR", "passenger_lines": "1", "railway": "rail", "usage": "main", "voltage": "15000", "length_km": 1.603, "maxspeed_kmh": 115.0}}, {"type": "Feature", "geometry": {"type": "LineString", "coordinates": [[9.8851477, 59.7960274], [9.8854652, 59.7958565], [9.8858005, 59.7956923], [9.8868125, 59.7952258], [9.8872549, 59.7950034], [9.8876871, 59.7947659], [9.8879528, 59.7945979], [9.8881972, 59.7944349], [9.8884506, 59.7942491], [9.888928, 59.7938635], [9.8927014, 59.7908407], [9.8931938, 59.7904019], [9.8936268, 59.7899365], [9.8939368, 59.7895611], [9.8941965, 59.7891618], [9.8943982, 59.7887567], [9.894564, 59.7883512], [9.8946798, 59.7879833], [9.8947409, 59.7875975], [9.8947683, 59.7869521], [9.8947114, 59.786254], [9.8943295, 59.7812911], [9.8941536, 59.7790852], [9.8941058, 59.7784774]]}, "properties": {"electrified": "contact_line", "frequency": "16.67", "gauge": "1435", "maxspeed": "120", "name": "Randsfjordbanen", "operator": "Bane NOR", "passenger_lines": "1", "railway": "rail", "usage": "main", "voltage": "15000", "length_km": 2.122, "maxspeed_kmh": 120.0}}, {"type": "Feature", "geometry": {"type": "LineString", "coordinates": [[9.8941058, 59.7784774], [9.8941157, 59.7781036], [9.8941342, 59.7779464]]}, "properties": {"electrified": "contact_line", "frequency": "16.67", "gauge": "1435", "maxspeed": "115", "name": "Randsfjordbanen", "operator": "Bane NOR", "passenger_lines": "1", "railway": "rail", "usage": "main", "voltage": "15000", "length_km": 0.059, "maxspeed_kmh": 115.0}}, {"type": "Feature", "geometry": {"type": "LineString", "coordinates": [[9.9039383, 59.7710822], [9.9037551, 59.7711889], [9.9035482, 59.771306]]}, "properties": {"electrified": "contact_line", "frequency": "16.67", "gauge": "1435", "maxspeed": "105", "name": "Randsfjordbanen", "operator": "Bane NOR", "passenger_lines": "1", "railway": "rail", "usage": "main", "voltage": "15000", "length_km": 0.033, "maxspeed_kmh": 105.0}}, {"type": "Feature", "geometry": {"type": "LineString", "coordinates": [[9.8950156, 59.8432488], [9.8950546, 59.842856], [9.8950821, 59.8426125], [9.8951425, 59.8421598], [9.8952522, 59.8409702], [9.8954238, 59.8399094], [9.8958251, 59.8383606]]}, "properties": {"electrified": "contact_line", "frequency": "16.67", "gauge": "1435", "maxspeed": "100", "name": "Randsfjordbanen", "operator": "Bane NOR", "passenger_lines": "1", "railway": "rail", "usage": "main", "voltage": "15000", "length_km": 0.547, "maxspeed_kmh": 100.0}}, {"type": "Feature", "geometry": {"type": "LineString", "coordinates": [[9.896156, 59.8370734], [9.8964281, 59.8360195], [9.8964281, 59.8352949], [9.8962564, 59.8345531], [9.8964024, 59.8337369], [9.8965466, 59.8333951], [9.8967313, 59.8331237]]}, "properties": {"electrified": "contact_line", "frequency": "16.67", "gauge": "1435", "maxspeed": "100", "name": "Randsfjordbanen", "operator": "Bane NOR", "passenger_lines": "1", "railway": "rail", "usage": "main", "voltage": "15000", "length_km": 0.445, "maxspeed_kmh": 100.0}}, {"type": "Feature", "geometry": {"type": "LineString", "coordinates": [[9.8967313, 59.8331237], [9.8971898, 59.8325992], [9.8975009, 59.8323189], [9.8981619, 59.8316061], [9.8984563, 59.8312088], [9.8986532, 59.8306982], [9.8986553, 59.8301514], [9.89851, 59.8297422], [9.8983592, 59.8290752], [9.8983437, 59.8280734], [9.8981983, 59.8275006], [9.8979038, 59.8270003], [9.8974591, 59.8265111], [9.8966968, 59.8258921], [9.8963487, 59.8255248], [9.8960397, 59.8250455]]}, "properties": {"electrified": "contact_line", "frequency": "16.67", "gauge": "1435", "maxspeed": "90", "name": "Randsfjordbanen", "operator": "Bane NOR", "passenger_lines": "1", "railway": "rail", "usage": "main", "voltage": "15000", "length_km": 0.952, "maxspeed_kmh": 90.0}}, {"type": "Feature", "geometry": {"type": "LineString", "coordinates": [[9.895953, 59.8479642], [9.8959983, 59.8477652], [9.8960638, 59.8474759], [9.8961299, 59.8471692], [9.8961469, 59.8470838], [9.8961523, 59.8469942], [9.8961561, 59.8468958], [9.8961543, 59.8468073], [9.8961477, 59.8467115], [9.896125, 59.8465858], [9.8960886, 59.8464657], [9.8960491, 59.8463522], [9.8960075, 59.8462626], [9.8959537, 59.8461599], [9.8958579, 59.8460117], [9.8957529, 59.8458586], [9.8954375, 59.8454175], [9.8953632, 59.8453047], [9.8952846, 59.845176], [9.8952176, 59.8450574], [9.895168, 59.8449435], [9.8951103, 59.8448014], [9.8950672, 59.8446702], [9.8950365, 59.8445501], [9.8950084, 59.8444214], [9.8949882, 59.844278]]}, "properties": {"electrified": "contact_line", "frequency": "16.67", "gauge": "1435", "maxspeed": "70", "name": "Randsfjordbanen", "operator": "Bane NOR", "passenger_lines": "1", "railway": "rail", "usage": "main", "voltage": "15000", "length_km": 0.42, "maxspeed_kmh": 70.0}}, {"type": "Feature", "geometry": {"type": "LineString", "coordinates": [[9.8950991, 59.8432511], [9.89509, 59.843334]]}, "properties": {"bridge": "yes", "electrified": "contact_line", "frequency": "16.67", "gauge": "1435", "maxspeed": "40", "name": "Randsfjordbanen", "railway": "rail", "service": "siding", "voltage": "15000", "length_km": 0.009, "maxspeed_kmh": 40.0}}, {"type": "Feature", "geometry": {"type": "LineString", "coordinates": [[9.8951425, 59.8421598], [9.8951318, 59.8422867], [9.8951337, 59.8423716], [9.8951361, 59.8424406], [9.8951458, 59.8425269], [9.8951532, 59.8426135], [9.8951465, 59.8427371], [9.8951371, 59.842858], [9.8950991, 59.8432511]]}, "properties": {"electrified": "contact_line", "frequency": "16.67", "gauge": "1435", "maxspeed": "40", "name": "Randsfjordbanen", "railway": "rail", "service": "siding", "voltage": "15000", "length_km": 0.122, "maxspeed_kmh": 40.0}}, {"type": "Feature", "geometry": {"type": "LineString", "coordinates": [[9.8950089, 59.8433318], [9.8950156, 59.8432488]]}, "properties": {"bridge": "yes", "electrified": "contact_line", "frequency": "16.67", "gauge": "1435", "maxspeed": "100", "name": "Randsfjordbanen", "operator": "Bane NOR", "passenger_lines": "1", "railway": "rail", "usage": "main", "voltage": "15000", "length_km": 0.009, "maxspeed_kmh": 100.0}}, {"type": "Feature", "geometry": {"type": "LineString", "coordinates": [[9.8949882, 59.844278], [9.8949735, 59.8441055], [9.8949688, 59.8439633], [9.8949746, 59.843837], [9.8949788, 59.8437066], [9.8949902, 59.8435503], [9.8950089, 59.8433318]]}, "properties": {"electrified": "contact_line", "frequency": "16.67", "gauge": "1435", "maxspeed": "100", "name": "Randsfjordbanen", "operator": "Bane NOR", "passenger_lines": "1", "railway": "rail", "usage": "main", "voltage": "15000", "length_km": 0.106, "maxspeed_kmh": 100.0}}, {"type": "Feature", "geometry": {"type": "LineString", "coordinates": [[9.9298583, 59.9010636], [9.9287546, 59.9006409], [9.9282866, 59.9004343], [9.9279794, 59.9002697], [9.9276885, 59.9000891], [9.9272566, 59.8998016], [9.9266493, 59.8993245], [9.9264023, 59.899174], [9.9261233, 59.899022], [9.9255469, 59.898779], [9.9250156, 59.8985821], [9.92445, 59.8983905], [9.924109, 59.8982822], [9.9237227, 59.8981826], [9.9233338, 59.8981059], [9.9229503, 59.8980471]]}, "properties": {"electrified": "contact_line", "frequency": "16.67", "gauge": "1435", "maxspeed": "75", "name": "Randsfjordbanen", "operator": "Bane NOR", "passenger_lines": "1", "railway": "rail", "usage": "main", "voltage": "15000", "length_km": 0.522, "maxspeed_kmh": 75.0}}, {"type": "Feature", "geometry": {"type": "LineString", "coordinates": [[9.9229503, 59.8980471], [9.9218817, 59.8978979], [9.9215998, 59.897853], [9.9213342, 59.8978032], [9.9209829, 59.897732], [9.9206549, 59.8976416], [9.920306, 59.8975348], [9.9199694, 59.8974142], [9.9194433, 59.8971743], [9.918984, 59.8969037], [9.9179076, 59.8961688], [9.916528, 59.8952632], [9.9155531, 59.8946062], [9.915203, 59.8943473], [9.9148799, 59.8940537], [9.9147186, 59.8938292], [9.9145791, 59.8936045], [9.914325, 59.8931136], [9.9134381, 59.8913386], [9.9128725, 59.8902108], [9.9127579, 59.8899747], [9.9126989, 59.8898294], [9.9126466, 59.8896898], [9.912609, 59.8895582], [9.9123985, 59.8887155], [9.9122912, 59.8882964]]}, "properties": {"electrified": "contact_line", "frequency": "16.67", "gauge": "1435", "maxspeed": "90", "name": "Randsfjordbanen", "operator": "Bane NOR", "passenger_lines": "1", "railway": "rail", "usage": "main", "voltage": "15000", "length_km": 1.314, "maxspeed_kmh": 90.0}}, {"type": "Feature", "geometry": {"type": "LineString", "coordinates": [[9.9122912, 59.8882964], [9.9121899, 59.8879704], [9.912141, 59.8878513], [9.9120746, 59.8877188], [9.9120115, 59.8876108], [9.9119331, 59.887494], [9.9118486, 59.8873773], [9.9117594, 59.887267], [9.9116407, 59.8871351], [9.9115401, 59.8870338], [9.9114221, 59.8869231], [9.911282, 59.8868044], [9.9111211, 59.8866829], [9.9109353, 59.886549], [9.9107476, 59.8864172]]}, "properties": {"electrified": "contact_line", "frequency": "16.67", "gauge": "1435", "maxspeed": "90", "name": "Randsfjordbanen", "operator": "Bane NOR", "passenger_lines": "1", "railway": "rail", "usage": "main", "voltage": "15000", "length_km": 0.23, "maxspeed_kmh": 90.0}}, {"type": "Feature", "geometry": {"type": "LineString", "coordinates": [[9.9087285, 59.8849554], [9.9086139, 59.8848211], [9.9085126, 59.8846883], [9.9084127, 59.8845382], [9.9083188, 59.884375], [9.9081606, 59.8840412], [9.9079672, 59.883592], [9.9072481, 59.8820038], [9.9069745, 59.8816329], [9.9067202, 59.8813643], [9.9064354, 59.8811095], [9.9058373, 59.8807076], [9.9053308, 59.8804518], [9.9048153, 59.8802236], [9.90403, 59.8799632]]}, "properties": {"electrified": "contact_line", "frequency": "16.67", "gauge": "1435", "maxspeed": "90", "name": "Randsfjordbanen", "operator": "Bane NOR", "passenger_lines": "1", "railway": "rail", "usage": "main", "voltage": "15000", "length_km": 0.637, "maxspeed_kmh": 90.0}}, {"type": "Feature", "geometry": {"type": "LineString", "coordinates": [[9.8946932, 59.8619614], [9.8947484, 59.8617523], [9.894882, 59.8605583], [9.8949582, 59.8600336], [9.895062, 59.8596719]]}, "properties": {"electrified": "contact_line", "frequency": "16.67", "gauge": "1435", "maxspeed": "70", "name": "Randsfjordbanen", "operator": "Bane NOR", "passenger_lines": "1", "railway": "rail", "usage": "main", "voltage": "15000", "length_km": 0.256, "maxspeed_kmh": 70.0}}, {"type": "Feature", "geometry": {"type": "LineString", "coordinates": [[9.895062, 59.8596719], [9.8951932, 59.8592137], [9.8952538, 59.8588787], [9.8951728, 59.8584842], [9.8950119, 59.8577623], [9.8948509, 59.8570085], [9.8947447, 59.8564747], [9.8947495, 59.8562145], [9.8951567, 59.8546105], [9.8951733, 59.8540163], [9.8951632, 59.8528114], [9.8952372, 59.8523366], [9.895338, 59.851835], [9.8954185, 59.8509918], [9.8953143, 59.8502114], [9.8953552, 59.8497744], [9.8954275, 59.8494935], [9.8955281, 59.8492198], [9.8957661, 59.8485995], [9.8958372, 59.848395], [9.8959002, 59.848169], [9.895953, 59.8479642]]}, "properties": {"electrified": "contact_line", "frequency": "16.67", "gauge": "1435", "maxspeed": "95", "name": "Randsfjordbanen", "operator": "Bane NOR", "passenger_lines": "1", "railway": "rail", "usage": "main", "voltage": "15000", "length_km": 1.312, "maxspeed_kmh": 95.0}}, {"type": "Feature", "geometry": {"type": "LineString", "coordinates": [[9.9729356, 59.936795], [9.9729068, 59.9367124], [9.9726945, 59.9361032], [9.9725929, 59.9358612], [9.9724424, 59.9354112], [9.9723592, 59.9352042], [9.9722485, 59.9349953], [9.9719435, 59.9346022], [9.9717772, 59.9344356], [9.9715511, 59.9342138], [9.9712461, 59.9339814], [9.970776, 59.9336583], [9.9703637, 59.9334573], [9.9698513, 59.9332301], [9.9695356, 59.933114], [9.967898, 59.9325158], [9.9674621, 59.9323437], [9.9670002, 59.9321753], [9.9666072, 59.9320396], [9.9661221, 59.9318956], [9.9651199, 59.9316056], [9.9646962, 59.9315061], [9.9642395, 59.9314127], [9.9637467, 59.931326], [9.9630868, 59.93124], [9.9625316, 59.9311808], [9.9619808, 59.9311334]]}, "properties": {"electrified": "contact_line", "frequency": "16.67", "gauge": "1435", "maxspeed": "70", "name": "Randsfjordbanen", "operator": "Bane NOR", "passenger_lines": "1", "railway": "rail", "usage": "main", "voltage": "15000", "length_km": 0.951, "maxspeed_kmh": 70.0}}, {"type": "Feature", "geometry": {"type": "LineString", "coordinates": [[9.9593301, 59.9309113], [9.9578613, 59.9307812], [9.9573737, 59.9307353], [9.9569245, 59.930687], [9.9565905, 59.9306399], [9.9561995, 59.9305694], [9.9558476, 59.9304914], [9.9555086, 59.9304046], [9.9551019, 59.9302797], [9.9547318, 59.930138], [9.9543565, 59.9299725], [9.9540237, 59.9298074], [9.9537528, 59.9296434], [9.9534184, 59.929394], [9.9531995, 59.9292307], [9.9527712, 59.9288577], [9.9524004, 59.9285615], [9.9522333, 59.9284459], [9.9520563, 59.9283337], [9.951847, 59.9282201], [9.9516327, 59.928115], [9.9513723, 59.9280078], [9.9511134, 59.9279097], [9.9504579, 59.9276916], [9.9501452, 59.9275864], [9.9498663, 59.9274843], [9.9494685, 59.9273156], [9.9491179, 59.9271328], [9.9489476, 59.9270192], [9.9487939, 59.9269023]]}, "properties": {"electrified": "contact_line", "frequency": "16.67", "gauge": "1435", "maxspeed": "70", "name": "Randsfjordbanen", "operator": "Bane NOR", "passenger_lines": "1", "railway": "rail", "usage": "main", "voltage": "15000", "length_km": 0.772, "maxspeed_kmh": 70.0}}, {"type": "Feature", "geometry": {"type": "LineString", "coordinates": [[9.9396363, 59.9141265], [9.9393788, 59.913785], [9.9391753, 59.9134366], [9.9390677, 59.913153], [9.9390052, 59.9128672], [9.9389979, 59.9125304], [9.9390733, 59.9121673], [9.9393092, 59.911538], [9.9393734, 59.911253]]}, "properties": {"electrified": "contact_line", "frequency": "16.67", "gauge": "1435", "maxspeed": "85", "name": "Randsfjordbanen", "operator": "Bane NOR", "passenger_lines": "1", "railway": "rail", "usage": "main", "voltage": "15000", "length_km": 0.327, "maxspeed_kmh": 85.0}}, {"type": "Feature", "geometry": {"type": "LineString", "coordinates": [[9.9393734, 59.911253], [9.9393951, 59.9108912], [9.9393687, 59.9106869], [9.9393214, 59.910483], [9.939191, 59.9101409], [9.9389982, 59.9098038], [9.9381158, 59.9085008], [9.9372129, 59.9071553], [9.9369782, 59.9067829], [9.9367924, 59.9064081], [9.9366996, 59.9061768], [9.9364056, 59.9054387], [9.9360636, 59.9049067], [9.935565, 59.9044071], [9.9350899, 59.9040244], [9.9345377, 59.9036773], [9.9335668, 59.9031116], [9.9324322, 59.9024574], [9.9313754, 59.9018548], [9.9306287, 59.9014131], [9.9298583, 59.9010636]]}, "properties": {"electrified": "contact_line", "frequency": "16.67", "gauge": "1435", "name": "Randsfjordbanen", "operator": "Bane NOR", "passenger_lines": "1", "railway": "rail", "usage": "main", "voltage": "15000", "length_km": 1.289}}, {"type": "Feature", "geometry": {"type": "LineString", "coordinates": [[10.1034955, 60.0819504], [10.1029955, 60.0809295], [10.1025148, 60.0791571], [10.1022831, 60.0784806], [10.1019827, 60.0779155], [10.1013389, 60.0771448], [10.1009081, 60.0766604], [10.1003948, 60.07622], [10.0994249, 60.0755349], [10.0987039, 60.0747899], [10.0983606, 60.0741348], [10.0983091, 60.0734796], [10.0984808, 60.0728802], [10.0987211, 60.0723063], [10.0986782, 60.0716726], [10.0983606, 60.0710302], [10.09788, 60.0705506], [10.09685, 60.0698397], [10.0958715, 60.0693515], [10.0940176, 60.0680539], [10.0930735, 60.0671759], [10.0923753, 60.0664272]]}, "properties": {"electrified": "contact_line", "frequency": "16.67", "gauge": "1435", "maxspeed": "85", "name": "Randsfjordbanen", "operator": "Bane NOR", "passenger_lines": "1", "railway": "rail", "usage": "main", "voltage": "15000", "length_km": 1.894, "maxspeed_kmh": 85.0}}, {"type": "Feature", "geometry": {"type": "LineString", "coordinates": [[10.0869754, 60.0614539], [10.0856062, 60.0611452], [10.084559, 60.0608453], [10.0838037, 60.0604427], [10.0831428, 60.0600657], [10.0823961, 60.0594574], [10.0820737, 60.0590711]]}, "properties": {"electrified": "contact_line", "frequency": "16.67", "gauge": "1435", "name": "Randsfjordbanen", "operator": "Bane NOR", "passenger_lines": "1", "railway": "rail", "usage": "main", "voltage": "15000", "length_km": 0.395}}, {"type": "Feature", "geometry": {"type": "LineString", "coordinates": [[10.0792761, 60.0556003], [10.0787397, 60.0549334], [10.0781647, 60.0541964], [10.077478, 60.0535323], [10.0765768, 60.0527611], [10.0752035, 60.0518827], [10.0739847, 60.0511629], [10.0723485, 60.0503837], [10.0713623, 60.049972], [10.070353, 60.0495889], [10.0685784, 60.0490011], [10.0662285, 60.0482205]]}, "properties": {"electrified": "contact_line", "frequency": "16.67", "gauge": "1435", "maxspeed": "130", "name": "Randsfjordbanen", "operator": "Bane NOR", "passenger_lines": "1", "railway": "rail", "usage": "main", "voltage": "15000", "length_km": 1.125, "maxspeed_kmh": 130.0}}, {"type": "Feature", "geometry": {"type": "LineString", "coordinates": [[10.0662285, 60.0482205], [10.0656511, 60.0480415], [10.0649035, 60.0477919], [10.0641958, 60.0475234], [10.0634578, 60.0472054], [10.0627581, 60.0468606], [10.0621462, 60.0465143], [10.0616208, 60.0461607], [10.0608413, 60.0455151], [10.0601587, 60.0449179]]}, "properties": {"electrified": "contact_line", "frequency": "16.67", "gauge": "1435", "maxspeed": "115", "name": "Randsfjordbanen", "operator": "Bane NOR", "passenger_lines": "1", "railway": "rail", "usage": "main", "voltage": "15000", "length_km": 0.508, "maxspeed_kmh": 115.0}}, {"type": "Feature", "geometry": {"type": "LineString", "coordinates": [[10.0601587, 60.0449179], [10.0597422, 60.0445803], [10.0592811, 60.0442613], [10.0585524, 60.0438263], [10.0565353, 60.0427634], [10.0549475, 60.0420262], [10.0538488, 60.0413404], [10.0527588, 60.0405346], [10.0520764, 60.0396763], [10.0519377, 60.0393568]]}, "properties": {"electrified": "contact_line", "frequency": "16.67", "gauge": "1435", "maxspeed": "80", "name": "Randsfjordbanen", "operator": "Bane NOR", "passenger_lines": "1", "railway": "rail", "usage": "main", "voltage": "15000", "length_km": 0.781, "maxspeed_kmh": 80.0}}, {"type": "Feature", "geometry": {"type": "LineString", "coordinates": [[10.0519377, 60.0393568], [10.0518844, 60.0392322]]}, "properties": {"bridge": "yes", "electrified": "contact_line", "frequency": "16.67", "gauge": "1435", "maxspeed": "80", "name": "Randsfjordbanen", "operator": "Bane NOR", "passenger_lines": "1", "railway": "rail", "usage": "main", "voltage": "15000", "length_km": 0.014, "maxspeed_kmh": 80.0}}, {"type": "Feature", "geometry": {"type": "LineString", "coordinates": [[10.0518844, 60.0392322], [10.0517821, 60.0388772], [10.0517116, 60.03849], [10.0517526, 60.0378873]]}, "properties": {"electrified": "contact_line", "frequency": "16.67", "gauge": "1435", "maxspeed": "80", "name": "Randsfjordbanen", "operator": "Bane NOR", "passenger_lines": "1", "railway": "rail", "usage": "main", "voltage": "15000", "length_km": 0.151, "maxspeed_kmh": 80.0}}, {"type": "Feature", "geometry": {"type": "LineString", "coordinates": [[10.0519484, 60.0352188], [10.051761, 60.0346876], [10.0513061, 60.0339031], [10.0508212, 60.0333008], [10.0503767, 60.0328508]]}, "properties": {"electrified": "contact_line", "frequency": "16.67", "gauge": "1435", "name": "Randsfjordbanen", "operator": "Bane NOR", "passenger_lines": "1", "railway": "rail", "usage": "main", "voltage": "15000", "length_km": 0.28}}, {"type": "Feature", "geometry": {"type": "LineString", "coordinates": [[10.0517526, 60.0378873], [10.0518426, 60.0375577], [10.0520721, 60.036875], [10.0521365, 60.0361945], [10.0520721, 60.0355429], [10.0519484, 60.0352188]]}, "properties": {"electrified": "contact_line", "frequency": "16.67", "gauge": "1435", "maxspeed": "105", "name": "Randsfjordbanen", "operator": "Bane NOR", "passenger_lines": "1", "railway": "rail", "usage": "main", "voltage": "15000", "length_km": 0.3, "maxspeed_kmh": 105.0}}, {"type": "Feature", "geometry": {"type": "LineString", "coordinates": [[10.0503767, 60.0328508], [10.050032, 60.0325018], [10.0492086, 60.0318304], [10.0480847, 60.0310628], [10.047058, 60.0304325], [10.0437128, 60.0287949], [10.0433558, 60.028649]]}, "properties": {"electrified": "contact_line", "frequency": "16.67", "gauge": "1435", "maxspeed": "130", "name": "Randsfjordbanen", "operator": "Bane NOR", "passenger_lines": "1", "railway": "rail", "usage": "main", "voltage": "15000", "length_km": 0.615, "maxspeed_kmh": 130.0}}, {"type": "Feature", "geometry": {"type": "LineString", "coordinates": [[10.0357975, 60.0254179], [10.0345321, 60.0246235], [10.0340661, 60.0242624], [10.033655, 60.0238992], [10.0334197, 60.0236768], [10.0332025, 60.0234463], [10.0328031, 60.022982], [10.0320303, 60.0219502], [10.0301596, 60.0194523], [10.0267263, 60.0150129], [10.0260935, 60.0141434], [10.0253187, 60.0129967], [10.0250312, 60.0117365]]}, "properties": {"electrified": "contact_line", "frequency": "16.67", "gauge": "1435", "maxspeed": "125", "name": "Randsfjordbanen", "operator": "Bane NOR", "passenger_lines": "1", "railway": "rail", "usage": "main", "voltage": "15000", "length_km": 1.651, "maxspeed_kmh": 125.0}}, {"type": "Feature", "geometry": {"type": "LineString", "coordinates": [[10.0250312, 60.0117365], [10.0250278, 60.0113116]]}, "properties": {"electrified": "contact_line", "frequency": "16.67", "gauge": "1435", "name": "Randsfjordbanen", "operator": "Bane NOR", "passenger_lines": "1", "railway": "rail", "usage": "main", "voltage": "15000", "length_km": 0.047}}, {"type": "Feature", "geometry": {"type": "LineString", "coordinates": [[10.0250278, 60.0113116], [10.0250612, 60.008964], [10.0251642, 60.0080201], [10.0250612, 60.0071277], [10.0248842, 60.006385]]}, "properties": {"electrified": "contact_line", "frequency": "16.67", "gauge": "1435", "maxspeed": "130", "name": "Randsfjordbanen", "operator": "Bane NOR", "passenger_lines": "1", "railway": "rail", "usage": "main", "voltage": "15000", "length_km": 0.55, "maxspeed_kmh": 130.0}}, {"type": "Feature", "geometry": {"type": "LineString", "coordinates": [[10.0246274, 59.9938142], [10.0242439, 59.9933958], [10.0238676, 59.9930423], [10.0232998, 59.9926003], [10.0230074, 59.9923937], [10.0227047, 59.9922013], [10.0221491, 59.9918598], [10.0216291, 59.991523], [10.0211862, 59.9912186], [10.0207697, 59.9909052], [10.0202799, 59.9905097], [10.0199389, 59.9902152], [10.0196174, 59.9899187], [10.0191665, 59.989468], [10.0187607, 59.9890032], [10.018402, 59.9885571], [10.0180802, 59.9881023]]}, "properties": {"electrified": "contact_line", "frequency": "16.67", "gauge": "1435", "maxspeed": "120", "name": "Randsfjordbanen", "operator": "Bane NOR", "passenger_lines": "1", "railway": "rail", "usage": "main", "voltage": "15000", "length_km": 0.738, "maxspeed_kmh": 120.0}}, {"type": "Feature", "geometry": {"type": "LineString", "coordinates": [[10.0180802, 59.9881023], [10.0178227, 59.9877172], [10.0175387, 59.98735], [10.0172514, 59.9870478], [10.0169352, 59.9867485], [10.0164494, 59.9863743], [10.0159159, 59.9860178], [10.0145397, 59.985309]]}, "properties": {"electrified": "contact_line", "frequency": "16.67", "gauge": "1435", "maxspeed": "115", "name": "Randsfjordbanen", "operator": "Bane NOR", "passenger_lines": "1", "railway": "rail", "usage": "main", "voltage": "15000", "length_km": 0.374, "maxspeed_kmh": 115.0}}, {"type": "Feature", "geometry": {"type": "LineString", "coordinates": [[10.0145397, 59.985309], [10.014195, 59.9851385], [10.0131308, 59.9845642], [10.0122038, 59.9839331], [10.0114313, 59.9832976], [10.0106159, 59.9823873], [10.0098005, 59.9812709], [10.009131, 59.9804207], [10.0084701, 59.9795533], [10.0076548, 59.9785742], [10.0071377, 59.9779179], [10.0060377, 59.9765219], [10.0051097, 59.9753496], [10.0043263, 59.9743381], [10.0038564, 59.9738287], [10.0035587, 59.9735455], [10.0033336, 59.9733373], [10.0019542, 59.9722391], [10.0011447, 59.9715953]]}, "properties": {"electrified": "contact_line", "frequency": "16.67", "gauge": "1435", "maxspeed": "130", "name": "Randsfjordbanen", "operator": "Bane NOR", "passenger_lines": "1", "railway": "rail", "usage": "main", "voltage": "15000", "length_km": 1.714, "maxspeed_kmh": 130.0}}, {"type": "Feature", "geometry": {"type": "LineString", "coordinates": [[10.0011447, 59.9715953], [10.0009583, 59.9714537]]}, "properties": {"electrified": "contact_line", "frequency": "16.67", "gauge": "1435", "maxspeed": "110", "name": "Randsfjordbanen", "operator": "Bane NOR", "passenger_lines": "1", "railway": "rail", "usage": "main", "voltage": "15000", "length_km": 0.019, "maxspeed_kmh": 110.0}}, {"type": "Feature", "geometry": {"type": "LineString", "coordinates": [[10.0009583, 59.9714537], [10.0000463, 59.9707349], [9.998729, 59.9696876], [9.9983636, 59.9693951], [9.9982213, 59.9692886], [9.9978208, 59.9689724], [9.9973346, 59.9685875], [9.9960307, 59.9675565], [9.9958043, 59.9673815]]}, "properties": {"electrified": "contact_line", "frequency": "16.67", "gauge": "1435", "maxspeed": "110", "name": "Randsfjordbanen", "operator": "Bane NOR", "passenger_lines": "1", "railway": "rail", "usage": "main", "voltage": "15000", "length_km": 0.538, "maxspeed_kmh": 110.0}}, {"type": "Feature", "geometry": {"type": "LineString", "coordinates": [[9.9958043, 59.9673815], [9.9948308, 59.9666084], [9.9930888, 59.965372]]}, "properties": {"electrified": "contact_line", "frequency": "16.67", "gauge": "1435", "maxspeed": "110", "name": "Randsfjordbanen", "operator": "Bane NOR", "passenger_lines": "1", "railway": "rail", "usage": "main", "voltage": "15000", "length_km": 0.271, "maxspeed_kmh": 110.0}}, {"type": "Feature", "geometry": {"type": "LineString", "coordinates": [[9.992915, 59.9652627], [9.9911581, 59.9642367], [9.9895566, 59.9634051], [9.9891662, 59.9632191], [9.9882326, 59.9627634]]}, "properties": {"electrified": "contact_line", "frequency": "16.67", "gauge": "1435", "maxspeed": "110", "name": "Randsfjordbanen", "operator": "Bane NOR", "passenger_lines": "1", "railway": "rail", "usage": "main", "voltage": "15000", "length_km": 0.383, "maxspeed_kmh": 110.0}}, {"type": "Feature", "geometry": {"type": "LineString", "coordinates": [[9.9882326, 59.9627634], [9.9877981, 59.9625262], [9.9872981, 59.9621483], [9.9868634, 59.9616449], [9.9867386, 59.9614315]]}, "properties": {"electrified": "contact_line", "frequency": "16.67", "gauge": "1435", "maxspeed": "85", "name": "Randsfjordbanen", "operator": "Bane NOR", "passenger_lines": "1", "railway": "rail", "usage": "main", "voltage": "15000", "length_km": 0.172, "maxspeed_kmh": 85.0}}, {"type": "Feature", "geometry": {"type": "LineString", "coordinates": [[9.9867386, 59.9614315], [9.9864685, 59.9609146], [9.9863859, 59.9607566], [9.985658, 59.9596551], [9.9848241, 59.9586654], [9.9845311, 59.9583573], [9.9838797, 59.9577918], [9.9828068, 59.9566875], [9.9825493, 59.95603], [9.9823711, 59.9553682], [9.9824006, 59.954639], [9.9823519, 59.9539243], [9.9821201, 59.9532496], [9.9816175, 59.9526022], [9.9813554, 59.9523821]]}, "properties": {"electrified": "contact_line", "frequency": "16.67", "gauge": "1435", "maxspeed": "95", "name": "Randsfjordbanen", "operator": "Bane NOR", "passenger_lines": "1", "railway": "rail", "usage": "main", "voltage": "15000", "length_km": 1.067, "maxspeed_kmh": 95.0}}, {"type": "Feature", "geometry": {"type": "LineString", "coordinates": [[9.9746098, 59.9388577], [9.9738224, 59.9381984], [9.9733892, 59.9376994], [9.973065, 59.9371941], [9.9729356, 59.936795]]}, "properties": {"electrified": "contact_line", "frequency": "16.67", "gauge": "1435", "maxspeed": "100", "name": "Randsfjordbanen", "operator": "Bane NOR", "passenger_lines": "1", "railway": "rail", "usage": "main", "voltage": "15000", "length_km": 0.251, "maxspeed_kmh": 100.0}}, {"type": "Feature", "geometry": {"type": "LineString", "coordinates": [[10.1115961, 60.0850095], [10.1104035, 60.084824], [10.1090188, 60.0846171], [10.1077615, 60.084422], [10.1072448, 60.0843082], [10.1067364, 60.0841632], [10.1064471, 60.0840755], [10.1061325, 60.083964], [10.105365, 60.0836534], [10.104855, 60.0833638], [10.1044546, 60.0830956], [10.1038023, 60.0823978], [10.1034955, 60.0819504]]}, "properties": {"electrified": "contact_line", "frequency": "16.67", "gauge": "1435", "maxspeed": "70", "name": "Randsfjordbanen", "operator": "Bane NOR", "passenger_lines": "1", "railway": "rail", "usage": "main", "voltage": "15000", "length_km": 0.602, "maxspeed_kmh": 70.0}}, {"type": "Feature", "geometry": {"type": "LineString", "coordinates": [[10.2466166, 60.1690714], [10.2469586, 60.1690571]]}, "properties": {"electrified": "contact_line", "frequency": "16.67", "gauge": "1435", "maxspeed": "20", "name": "Randsfjordbanen", "passenger_lines": "2", "railway": "rail", "service": "siding", "voltage": "15000", "length_km": 0.019, "maxspeed_kmh": 20.0}}, {"type": "Feature", "geometry": {"type": "LineString", "coordinates": [[10.2529651, 60.1670563], [10.2530008, 60.1669422], [10.2530256, 60.1668328]]}, "properties": {"electrified": "contact_line", "frequency": "16.67", "gauge": "1435", "name": "Randsfjordbanen", "operator": "Bane NOR", "passenger_lines": "1", "railway": "rail", "usage": "main", "voltage": "15000", "length_km": 0.025}}, {"type": "Feature", "geometry": {"type": "LineString", "coordinates": [[10.251435, 60.1648086], [10.2512205, 60.1647178], [10.2510139, 60.1646338], [10.2507806, 60.1645484], [10.250507, 60.1644596], [10.2502616, 60.1643849], [10.2500001, 60.1643155], [10.2497359, 60.1642508], [10.2493791, 60.1641767], [10.2490948, 60.1641247], [10.2487206, 60.164068], [10.2483881, 60.1640273], [10.2481118, 60.1640006], [10.2479093, 60.1639842], [10.2476571, 60.1639676], [10.2474365, 60.1639575]]}, "properties": {"electrified": "contact_line", "frequency": "16.67", "gauge": "1435", "name": "Randsfjordbanen", "operator": "Bane NOR", "passenger_lines": "1", "railway": "rail", "usage": "main", "voltage": "15000", "length_km": 0.246}}, {"type": "Feature", "geometry": {"type": "LineString", "coordinates": [[10.2474365, 60.1639575], [10.2472642, 60.1639525], [10.2470979, 60.1639485], [10.2468753, 60.1639472], [10.246574, 60.1639485]]}, "properties": {"electrified": "contact_line", "frequency": "16.67", "gauge": "1435", "name": "Randsfjordbanen", "operator": "Bane NOR", "passenger_lines": "1", "railway": "rail", "usage": "main", "voltage": "15000", "length_km": 0.048}}, {"type": "Feature", "geometry": {"type": "LineString", "coordinates": [[10.2462362, 60.1639475], [10.246013, 60.1639472], [10.2457984, 60.1639445], [10.2455597, 60.1639392], [10.2453062, 60.1639285], [10.2450272, 60.1639128], [10.2447496, 60.1638932], [10.2443741, 60.1638615], [10.2439, 60.1638184], [10.2429338, 60.1637284]]}, "properties": {"electrified": "contact_line", "frequency": "16.67", "gauge": "1435", "name": "Randsfjordbanen", "operator": "Bane NOR", "passenger_lines": "1", "railway": "rail", "usage": "main", "voltage": "15000", "length_km": 0.185}}, {"type": "Feature", "geometry": {"type": "LineString", "coordinates": [[10.2183272, 60.1552898], [10.2181716, 60.1551446], [10.2179302, 60.1549081], [10.2177411, 60.1547082], [10.2175708, 60.1545226], [10.2173844, 60.154304]]}, "properties": {"electrified": "contact_line", "frequency": "16.67", "gauge": "1435", "maxspeed": "130", "name": "Randsfjordbanen", "operator": "Bane NOR", "passenger_lines": "1", "railway": "rail", "usage": "main", "voltage": "15000", "length_km": 0.122, "maxspeed_kmh": 130.0}}, {"type": "Feature", "geometry": {"type": "LineString", "coordinates": [[10.2173844, 60.154304], [10.217257, 60.1541455], [10.2171497, 60.1540084], [10.2168694, 60.1536196], [10.2166796, 60.1533646], [10.2165475, 60.1531988], [10.21639, 60.1530176], [10.2162585, 60.1528781], [10.2160869, 60.1527152], [10.2158818, 60.1525422], [10.2156745, 60.1523788], [10.2155048, 60.1522583]]}, "properties": {"electrified": "contact_line", "frequency": "16.67", "gauge": "1435", "maxspeed": "105", "name": "Randsfjordbanen", "operator": "Bane NOR", "passenger_lines": "1", "railway": "rail", "usage": "main", "voltage": "15000", "length_km": 0.252, "maxspeed_kmh": 105.0}}, {"type": "Feature", "geometry": {"type": "LineString", "coordinates": [[10.1947533, 60.1416009], [10.1942672, 60.1414381], [10.1935013, 60.1412376], [10.1925445, 60.1411095], [10.1916912, 60.1410625], [10.1887745, 60.1410015], [10.1875003, 60.1409134], [10.1866526, 60.1407731], [10.1855828, 60.1404464]]}, "properties": {"electrified": "contact_line", "frequency": "16.67", "gauge": "1435", "maxspeed": "85", "name": "Randsfjordbanen", "operator": "Bane NOR", "passenger_lines": "1", "railway": "rail", "usage": "main", "voltage": "15000", "length_km": 0.537, "maxspeed_kmh": 85.0}}, {"type": "Feature", "geometry": {"type": "LineString", "coordinates": [[10.1855828, 60.1404464], [10.1844664, 60.1400816]]}, "properties": {"electrified": "contact_line", "frequency": "16.67", "gauge": "1435", "maxspeed": "120", "name": "Randsfjordbanen", "operator": "Bane NOR", "passenger_lines": "1", "railway": "rail", "usage": "main", "voltage": "15000", "length_km": 0.074, "maxspeed_kmh": 120.0}}, {"type": "Feature", "geometry": {"type": "LineString", "coordinates": [[10.1618895, 60.13259], [10.1613668, 60.1322961], [10.1608622, 60.1319662], [10.1603982, 60.1316256], [10.1595418, 60.1309161], [10.1572896, 60.1290687], [10.1560056, 60.1279776], [10.1550875, 60.1272401], [10.1543046, 60.1265805], [10.1538699, 60.1262165], [10.1535398, 60.125932]]}, "properties": {"electrified": "contact_line", "frequency": "16.67", "gauge": "1435", "maxspeed": "120", "name": "Randsfjordbanen", "operator": "Bane NOR", "passenger_lines": "1", "railway": "rail", "usage": "main", "voltage": "15000", "length_km": 0.876, "maxspeed_kmh": 120.0}}, {"type": "Feature", "geometry": {"type": "LineString", "coordinates": [[10.1366553, 60.1074126], [10.1362463, 60.1070334], [10.1358686, 60.1064602], [10.1356283, 60.1058185], [10.1354738, 60.1052368], [10.1350103, 60.1046293], [10.1342722, 60.103979], [10.1330963, 60.1033544], [10.132238, 60.1027897], [10.1316629, 60.1020967], [10.1310621, 60.1012495], [10.1310106, 60.1004794], [10.1311651, 60.0998291], [10.1314226, 60.0993157], [10.1314054, 60.098554], [10.1310621, 60.0980192], [10.1304956, 60.0974629], [10.1296888, 60.0968339], [10.1291052, 60.096222], [10.1283155, 60.0949084], [10.1276977, 60.0943908], [10.1274572, 60.0941894], [10.1263414, 60.0937273], [10.1253605, 60.0935356], [10.1247278, 60.0934271], [10.1232351, 60.0932077]]}, "properties": {"electrified": "contact_line", "frequency": "16.67", "gauge": "1435", "maxspeed": "85", "name": "Randsfjordbanen", "operator": "Bane NOR", "passenger_lines": "1", "railway": "rail", "usage": "main", "voltage": "15000", "length_km": 1.871, "maxspeed_kmh": 85.0}}, {"type": "Feature", "geometry": {"type": "LineString", "coordinates": [[10.1232351, 60.0932077], [10.1219126, 60.0929698], [10.1208483, 60.0924263], [10.1198784, 60.0917587], [10.1189085, 60.0912023], [10.1182188, 60.0906996], [10.1171575, 60.0898885], [10.1166597, 60.0891823], [10.1167026, 60.0884547], [10.1169601, 60.0876928], [10.1170361, 60.087335], [10.1169601, 60.0870508], [10.1167026, 60.0865072], [10.1162306, 60.086092], [10.1151577, 60.0856297], [10.1139776, 60.0853649], [10.1133442, 60.0852686]]}, "properties": {"electrified": "contact_line", "frequency": "16.67", "gauge": "1435", "maxspeed": "75", "name": "Randsfjordbanen", "operator": "Bane NOR", "passenger_lines": "1", "railway": "rail", "usage": "main", "voltage": "15000", "length_km": 1.139, "maxspeed_kmh": 75.0}}, {"type": "Feature", "geometry": {"type": "LineString", "coordinates": [[10.1133442, 60.0852686], [10.1121184, 60.0850867]]}, "properties": {"bridge": "yes", "electrified": "contact_line", "frequency": "16.67", "gauge": "1435", "maxspeed": "75", "name": "Randsfjordbanen", "operator": "Bane NOR", "passenger_lines": "1", "railway": "rail", "usage": "main", "voltage": "15000", "length_km": 0.071, "maxspeed_kmh": 75.0}}, {"type": "Feature", "geometry": {"type": "LineString", "coordinates": [[10.1121184, 60.0850867], [10.1117394, 60.0850304], [10.1115961, 60.0850095]]}, "properties": {"electrified": "contact_line", "frequency": "16.67", "gauge": "1435", "maxspeed": "75", "name": "Randsfjordbanen", "operator": "Bane NOR", "passenger_lines": "1", "railway": "rail", "usage": "main", "voltage": "15000", "length_km": 0.03, "maxspeed_kmh": 75.0}}, {"type": "Feature", "geometry": {"type": "LineString", "coordinates": [[10.0255562, 59.9952906], [10.0254539, 59.9950657], [10.025298, 59.9947639], [10.0251105, 59.9944669], [10.0246274, 59.9938142]]}, "properties": {"electrified": "contact_line", "frequency": "16.67", "gauge": "1435", "maxspeed": "130", "name": "Randsfjordbanen", "operator": "Bane NOR", "passenger_lines": "1", "railway": "rail", "usage": "main", "voltage": "15000", "length_km": 0.173, "maxspeed_kmh": 130.0}}, {"type": "Feature", "geometry": {"type": "LineString", "coordinates": [[10.0256316, 59.995463], [10.0255562, 59.9952906]]}, "properties": {"bridge": "yes", "electrified": "contact_line", "frequency": "16.67", "gauge": "1435", "maxspeed": "130", "name": "Randsfjordbanen", "operator": "Bane NOR", "passenger_lines": "1", "railway": "rail", "usage": "main", "voltage": "15000", "length_km": 0.02, "maxspeed_kmh": 130.0}}, {"type": "Feature", "geometry": {"type": "LineString", "coordinates": [[10.0248842, 60.006385], [10.0248365, 60.0061863]]}, "properties": {"bridge": "yes", "electrified": "contact_line", "frequency": "16.67", "gauge": "1435", "maxspeed": "130", "name": "Randsfjordbanen", "operator": "Bane NOR", "passenger_lines": "1", "railway": "rail", "usage": "main", "voltage": "15000", "length_km": 0.022, "maxspeed_kmh": 130.0}}, {"type": "Feature", "geometry": {"type": "LineString", "coordinates": [[10.0248365, 60.0061863], [10.024778, 60.0059391], [10.0245661, 60.0047592], [10.0245362, 60.0042631], [10.0245275, 60.0037735], [10.0246439, 60.0028236], [10.0248209, 60.0020671], [10.0253359, 60.0002086], [10.025593, 59.9992611], [10.02586, 59.9983096], [10.0259256, 59.9979709], [10.0259743, 59.9976288], [10.0259873, 59.9972708], [10.0259797, 59.9969117], [10.0259122, 59.9964432], [10.0258053, 59.9959729], [10.0256316, 59.995463]]}, "properties": {"electrified": "contact_line", "frequency": "16.67", "gauge": "1435", "maxspeed": "130", "name": "Randsfjordbanen", "operator": "Bane NOR", "passenger_lines": "1", "railway": "rail", "usage": "main", "voltage": "15000", "length_km": 1.202, "maxspeed_kmh": 130.0}}, {"type": "Feature", "geometry": {"type": "LineString", "coordinates": [[10.043279, 60.0286188], [10.0406309, 60.0275361], [10.0362793, 60.0257351], [10.0357975, 60.0254179]]}, "properties": {"electrified": "contact_line", "frequency": "16.67", "gauge": "1435", "maxspeed": "130", "name": "Randsfjordbanen", "operator": "Bane NOR", "passenger_lines": "1", "railway": "rail", "usage": "main", "voltage": "15000", "length_km": 0.55, "maxspeed_kmh": 130.0}}, {"type": "Feature", "geometry": {"type": "LineString", "coordinates": [[10.0433558, 60.028649], [10.043279, 60.0286188]]}, "properties": {"bridge": "yes", "electrified": "contact_line", "frequency": "16.67", "gauge": "1435", "maxspeed": "130", "name": "Randsfjordbanen", "operator": "Bane NOR", "passenger_lines": "1", "railway": "rail", "usage": "main", "voltage": "15000", "length_km": 0.005, "maxspeed_kmh": 130.0}}, {"type": "Feature", "geometry": {"type": "LineString", "coordinates": [[9.9090567, 59.8852663], [9.9089304, 59.8851552], [9.9088224, 59.8850522], [9.9087285, 59.8849554]]}, "properties": {"electrified": "contact_line", "frequency": "16.67", "gauge": "1435", "maxspeed": "90", "name": "Randsfjordbanen", "operator": "Bane NOR", "passenger_lines": "1", "railway": "rail", "usage": "main", "voltage": "15000", "length_km": 0.039, "maxspeed_kmh": 90.0}}, {"type": "Feature", "geometry": {"type": "LineString", "coordinates": [[9.9091221, 59.8853184], [9.9090567, 59.8852663]]}, "properties": {"bridge": "yes", "electrified": "contact_line", "frequency": "16.67", "gauge": "1435", "maxspeed": "90", "name": "Randsfjordbanen", "operator": "Bane NOR", "passenger_lines": "1", "railway": "rail", "usage": "main", "voltage": "15000", "length_km": 0.007, "maxspeed_kmh": 90.0}}, {"type": "Feature", "geometry": {"type": "LineString", "coordinates": [[10.1619512, 60.132624], [10.1618895, 60.13259]]}, "properties": {"bridge": "yes", "electrified": "contact_line", "frequency": "16.67", "gauge": "1435", "maxspeed": "120", "name": "Randsfjordbanen", "operator": "Bane NOR", "passenger_lines": "1", "railway": "rail", "usage": "main", "voltage": "15000", "length_km": 0.005, "maxspeed_kmh": 120.0}}, {"type": "Feature", "geometry": {"type": "LineString", "coordinates": [[10.1818478, 60.139218], [10.177034, 60.1377693], [10.1743261, 60.1368891], [10.1729217, 60.1364205], [10.1690868, 60.1352057], [10.1649491, 60.1338903], [10.1630793, 60.1331955], [10.1622006, 60.1327556], [10.1619512, 60.132624]]}, "properties": {"electrified": "contact_line", "frequency": "16.67", "gauge": "1435", "maxspeed": "120", "name": "Randsfjordbanen", "operator": "Bane NOR", "passenger_lines": "1", "railway": "rail", "usage": "main", "voltage": "15000", "length_km": 1.331, "maxspeed_kmh": 120.0}}, {"type": "Feature", "geometry": {"type": "LineString", "coordinates": [[10.0923395, 60.0663875], [10.0916658, 60.0656255], [10.0912109, 60.0648417], [10.0908934, 60.0641264], [10.0906359, 60.0633212], [10.0902668, 60.0627858], [10.0896917, 60.0623017], [10.0887476, 60.0619076], [10.087949, 60.0616708], [10.0869754, 60.0614539]]}, "properties": {"electrified": "contact_line", "frequency": "16.67", "gauge": "1435", "maxspeed": "85", "name": "Randsfjordbanen", "operator": "Bane NOR", "passenger_lines": "1", "railway": "rail", "usage": "main", "voltage": "15000", "length_km": 0.662, "maxspeed_kmh": 85.0}}, {"type": "Feature", "geometry": {"type": "LineString", "coordinates": [[10.0923753, 60.0664272], [10.0923395, 60.0663875]]}, "properties": {"bridge": "yes", "electrified": "contact_line", "frequency": "16.67", "gauge": "1435", "maxspeed": "85", "name": "Randsfjordbanen", "operator": "Bane NOR", "passenger_lines": "1", "railway": "rail", "usage": "main", "voltage": "15000", "length_km": 0.005, "maxspeed_kmh": 85.0}}, {"type": "Feature", "geometry": {"type": "LineString", "coordinates": [[10.079319, 60.0556546], [10.0792761, 60.0556003]]}, "properties": {"bridge": "yes", "electrified": "contact_line", "frequency": "16.67", "gauge": "1435", "maxspeed": "130", "name": "Randsfjordbanen", "operator": "Bane NOR", "passenger_lines": "1", "railway": "rail", "usage": "main", "voltage": "15000", "length_km": 0.007, "maxspeed_kmh": 130.0}}, {"type": "Feature", "geometry": {"type": "LineString", "coordinates": [[10.0820737, 60.0590711], [10.0816408, 60.0585149], [10.0806538, 60.057324], [10.079319, 60.0556546]]}, "properties": {"electrified": "contact_line", "frequency": "16.67", "gauge": "1435", "maxspeed": "130", "name": "Randsfjordbanen", "operator": "Bane NOR", "passenger_lines": "1", "railway": "rail", "usage": "main", "voltage": "15000", "length_km": 0.411, "maxspeed_kmh": 130.0}}, {"type": "Feature", "geometry": {"type": "LineString", "coordinates": [[9.9958043, 59.9673815], [9.9959312, 59.9675041], [9.9959933, 59.9675654], [9.9960408, 59.9676152], [9.9962616, 59.9678405]]}, "properties": {"electrified": "contact_line", "frequency": "16.67", "gauge": "1435", "maxspeed": "40", "name": "Randsfjordbanen", "railway": "rail", "service": "siding", "voltage": "15000", "length_km": 0.057, "maxspeed_kmh": 40.0}}]}