{"type": "FeatureCollection", "features": [{"type": "Feature", "geometry": {"type": "LineString", "coordinates": [[10.055024, 59.0485805], [10.0552154, 59.0485861], [10.055424, 59.0485875], [10.0555533, 59.0485863], [10.0556856, 59.0485814], [10.0558459, 59.0485768], [10.0561765, 59.0485694], [10.0563493, 59.0485633], [10.0565221, 59.0485522], [10.0566691, 59.04854], [10.0568301, 59.0485229], [10.0570399, 59.0484938], [10.057196, 59.0484669], [10.0573768, 59.0484313], [10.057508, 59.0484004], [10.0575981, 59.0483784], [10.0577393, 59.0483393], [10.0578784, 59.0482964], [10.0580423, 59.04824], [10.0582027, 59.0481765], [10.0583679, 59.0481029], [10.05853, 59.0480225], [10.0586332, 59.0479613], [10.0587666, 59.0478789], [10.058882, 59.0477968], [10.0589664, 59.0477303], [10.0590695, 59.0476398], [10.0591508, 59.0475565], [10.0592477, 59.0474434], [10.0593071, 59.0473571], [10.0593547, 59.047275], [10.059398, 59.047189], [10.0594365, 59.0470843], [10.0594643, 59.0469777], [10.0594807, 59.0468646], [10.0594822, 59.0467548], [10.0594767, 59.0466891], [10.059462, 59.0466066], [10.0594002, 59.0463403], [10.0593594, 59.0461676], [10.0593366, 59.0460793], [10.0593099, 59.0459957], [10.0592568, 59.0458527], [10.059208, 59.0457523], [10.059183, 59.0456907], [10.0591552, 59.0456365], [10.0591165, 59.045554], [10.0590651, 59.0454653], [10.059025, 59.0453791], [10.0589916, 59.0453214], [10.0588565, 59.045068], [10.0588223, 59.0450024], [10.0587545, 59.0448547], [10.058728, 59.044773], [10.0586881, 59.0446574], [10.0586597, 59.04459], [10.0586095, 59.0444855], [10.0584312, 59.0441707], [10.0582566, 59.0438651], [10.0579717, 59.0433636], [10.0577604, 59.0429956], [10.0576733, 59.0428426], [10.0575298, 59.04259], [10.0574788, 59.0425013], [10.0574265, 59.0424211], [10.0573641, 59.0423385], [10.0572998, 59.0422654], [10.057229, 59.0421929], [10.0571502, 59.0421227], [10.0570956, 59.042077], [10.0570285, 59.042026], [10.0569497, 59.0419698], [10.0568884, 59.0419291], [10.0568324, 59.0418949], [10.0565172, 59.0417109]]}, "properties": {"gauge": "1435", "maxspeed": "40", "name": "Revet sidespor", "railway": "rail", "usage": "industrial", "length_km": 0.968, "maxspeed_kmh": 40.0}}, {"type": "Feature", "geometry": {"type": "LineString", "coordinates": [[10.0589916, 59.0453214], [10.0589562, 59.0452445], [10.0589364, 59.045194], [10.0589188, 59.04514], [10.0588925, 59.0450543], [10.0588672, 59.0449757], [10.0588226, 59.0448283], [10.0587854, 59.0447], [10.0587596, 59.0446271], [10.0587297, 59.0445581], [10.0586925, 59.0444853], [10.0586462, 59.0444037], [10.0583985, 59.0439671], [10.0575737, 59.042516], [10.0575152, 59.0424203], [10.057478, 59.0423665], [10.0574374, 59.0423174], [10.057381, 59.0422515], [10.0573174, 59.0421872], [10.0572656, 59.0421401], [10.0572227, 59.042102], [10.057168, 59.042056], [10.0571231, 59.0420205], [10.0570669, 59.0419801], [10.0570027, 59.0419357], [10.0569333, 59.0418917], [10.056854, 59.0418444], [10.0565799, 59.0416809]]}, "properties": {"gauge": "1435", "maxspeed": "40", "name": "Revet sidespor", "railway": "rail", "usage": "industrial", "length_km": 0.434, "maxspeed_kmh": 40.0}}]}