{"type": "FeatureCollection", "features": [{"type": "Feature", "geometry": {"type": "LineString", "coordinates": [[11.3202227, 59.1202109], [11.3204166, 59.1201567], [11.3205937, 59.1200975], [11.3212191, 59.1198918], [11.3214543, 59.1198178], [11.321651, 59.1197596], [11.321853, 59.1197075], [11.3221844, 59.1196241], [11.3226612, 59.1195056], [11.3230021, 59.119421], [11.3232812, 59.1193509], [11.3246485, 59.1190074], [11.3249724, 59.1189311], [11.3252546, 59.1188713], [11.3255101, 59.1188258], [11.3256771, 59.1187978]]}, "properties": {"electrified": "no", "gauge": "1435", "name": "Rieber & S\u00f8n sidespor", "railway": "rail", "service": "spur", "usage": "industrial", "length_km": 0.351}}]}