{"type": "FeatureCollection", "features": [{"type": "Feature", "geometry": {"type": "LineString", "coordinates": [[10.252864, 60.1704467], [10.2527487, 60.170404], [10.2526085, 60.1703576], [10.2524308, 60.1703026], [10.2522632, 60.1702526], [10.2519668, 60.1701702], [10.2516211, 60.1700753], [10.2513075, 60.1699894]]}, "properties": {"bridge": "yes", "electrified": "contact_line", "frequency": "16.67", "gauge": "1435", "name": "Roa-H\u00f8nefossbanen", "operator": "Bane NOR", "passenger_lines": "1", "railway": "rail", "usage": "branch", "voltage": "15000", "length_km": 0.1}}, {"type": "Feature", "geometry": {"type": "LineString", "coordinates": [[10.2494843, 60.1695085], [10.2494643, 60.1695042], [10.249332, 60.1694739]]}, "properties": {"electrified": "contact_line", "frequency": "16.67", "gauge": "1435", "name": "Roa-H\u00f8nefossbanen", "operator": "Bane NOR", "passenger_lines": "2", "railway": "rail", "usage": "branch", "voltage": "15000", "length_km": 0.009}}, {"type": "Feature", "geometry": {"type": "LineString", "coordinates": [[10.5801116, 60.293382], [10.5798166, 60.2933901]]}, "properties": {"bridge": "yes", "electrified": "contact_line", "frequency": "16.67", "gauge": "1435", "maxspeed": "90", "name": "Roa-H\u00f8nefossbanen", "operator": "Bane NOR", "passenger_lines": "1", "railway": "rail", "usage": "branch", "voltage": "15000", "length_km": 0.016, "maxspeed_kmh": 90.0}}, {"type": "Feature", "geometry": {"type": "LineString", "coordinates": [[10.573498, 60.2935899], [10.5731378, 60.2936079], [10.5728026, 60.2936262], [10.5724968, 60.2936421], [10.5721226, 60.2936634], [10.5716831, 60.293691], [10.5713036, 60.2937162], [10.570915, 60.2937445], [10.5702981, 60.2937897], [10.5697804, 60.2938272], [10.5694136, 60.2938465], [10.5691035, 60.2938588], [10.5688671, 60.2938611], [10.5686143, 60.2938601], [10.5683756, 60.2938568], [10.5681496, 60.2938481], [10.5678894, 60.2938359], [10.5676554, 60.2938196], [10.5673932, 60.2937956], [10.5671599, 60.2937714], [10.5668957, 60.2937382], [10.5666824, 60.2937073], [10.5664283, 60.2936657], [10.5662171, 60.2936268], [10.5659938, 60.2935816], [10.5657712, 60.2935321], [10.5655774, 60.2934856], [10.5653286, 60.2934202], [10.5650885, 60.293351], [10.564888, 60.2932872], [10.5646674, 60.2932135], [10.5644126, 60.2931221], [10.5641699, 60.293029], [10.5637937, 60.2928798], [10.5633498, 60.2926997], [10.5613623, 60.2918935], [10.5610344, 60.2917646], [10.5608178, 60.2916812], [10.5605918, 60.2915991], [10.5604101, 60.2915378], [10.5602388, 60.2914836], [10.5600775, 60.2914374], [10.5598643, 60.2913784], [10.5596554, 60.2913266], [10.5594854, 60.2912876], [10.5592504, 60.2912382], [10.5590791, 60.2912063], [10.5588987, 60.2911747], [10.5587149, 60.291146], [10.5585004, 60.2911159], [10.5583099, 60.291094], [10.5580726, 60.2910694], [10.5578084, 60.2910465], [10.5575985, 60.2910355], [10.557396, 60.2910252], [10.5571968, 60.2910209], [10.5569735, 60.2910185], [10.5567449, 60.2910195], [10.5564867, 60.2910269], [10.5562527, 60.2910375], [10.5559469, 60.2910588], [10.555727, 60.2910797], [10.5554815, 60.2911056], [10.5552234, 60.2911369], [10.5547687, 60.2912003], [10.5543175, 60.2912698], [10.5539004, 60.2913372], [10.5534316, 60.2914103]]}, "properties": {"electrified": "contact_line", "frequency": "16.67", "gauge": "1435", "maxspeed": "80", "name": "Roa-H\u00f8nefossbanen", "operator": "Bane NOR", "passenger_lines": "1", "railway": "rail", "usage": "branch", "voltage": "15000", "length_km": 1.209, "maxspeed_kmh": 80.0}}, {"type": "Feature", "geometry": {"type": "LineString", "coordinates": [[10.2673968, 60.1763822], [10.2664146, 60.1763772]]}, "properties": {"bridge": "yes", "electrified": "contact_line", "frequency": "16.67", "gauge": "1435", "name": "Roa-H\u00f8nefossbanen", "operator": "Bane NOR", "passenger_lines": "1", "railway": "rail", "usage": "branch", "voltage": "15000", "length_km": 0.055}}, {"type": "Feature", "geometry": {"type": "LineString", "coordinates": [[10.2546966, 60.1719169], [10.2545903, 60.1717175], [10.2543946, 60.1714445], [10.2542923, 60.1713242], [10.2541698, 60.1711988], [10.2539089, 60.1709871], [10.2536497, 60.1708091], [10.2533972, 60.1706701], [10.252864, 60.1704467]]}, "properties": {"electrified": "contact_line", "frequency": "16.67", "gauge": "1435", "name": "Roa-H\u00f8nefossbanen", "operator": "Bane NOR", "passenger_lines": "1", "railway": "rail", "usage": "branch", "voltage": "15000", "length_km": 0.197}}, {"type": "Feature", "geometry": {"type": "LineString", "coordinates": [[10.2907188, 60.1798205], [10.2896513, 60.1797654]]}, "properties": {"bridge": "yes", "electrified": "contact_line", "frequency": "16.67", "gauge": "1435", "name": "Roa-H\u00f8nefossbanen", "operator": "Bane NOR", "passenger_lines": "1", "railway": "rail", "usage": "branch", "voltage": "15000", "length_km": 0.06}}, {"type": "Feature", "geometry": {"type": "LineString", "coordinates": [[10.2549693, 60.1723312], [10.2549086, 60.1722343]]}, "properties": {"bridge": "yes", "electrified": "contact_line", "frequency": "16.67", "gauge": "1435", "name": "Roa-H\u00f8nefossbanen", "operator": "Bane NOR", "passenger_lines": "1", "railway": "rail", "usage": "branch", "voltage": "15000", "length_km": 0.011}}, {"type": "Feature", "geometry": {"type": "LineString", "coordinates": [[10.2896513, 60.1797654], [10.2885011, 60.1797109], [10.2873104, 60.1796354], [10.2855519, 60.1795086], [10.2838754, 60.1793494], [10.2819712, 60.1791424], [10.2797988, 60.1788686], [10.2789793, 60.1787459], [10.2784328, 60.1786254], [10.2781094, 60.1785372], [10.2777419, 60.1784076], [10.2773885, 60.1782649], [10.276602, 60.1779134], [10.2753091, 60.1773867], [10.274607, 60.1771693], [10.2739565, 60.1769919], [10.2735861, 60.1769055], [10.2732374, 60.1768275]]}, "properties": {"electrified": "contact_line", "frequency": "16.67", "gauge": "1435", "name": "Roa-H\u00f8nefossbanen", "operator": "Bane NOR", "passenger_lines": "1", "railway": "rail", "usage": "branch", "voltage": "15000", "length_km": 0.991}}, {"type": "Feature", "geometry": {"type": "LineString", "coordinates": [[10.2664146, 60.1763772], [10.2648522, 60.1763534], [10.2641707, 60.1763253], [10.263333, 60.1762603], [10.2623779, 60.1761413], [10.2615166, 60.1759883], [10.2604359, 60.1757373], [10.2595111, 60.1754718], [10.2586609, 60.175167], [10.2578039, 60.1747736], [10.2569032, 60.1742701], [10.2562367, 60.1737899], [10.2556839, 60.1732691]]}, "properties": {"electrified": "contact_line", "frequency": "16.67", "gauge": "1435", "name": "Roa-H\u00f8nefossbanen", "operator": "Bane NOR", "passenger_lines": "1", "railway": "rail", "usage": "branch", "voltage": "15000", "length_km": 0.732}}, {"type": "Feature", "geometry": {"type": "LineString", "coordinates": [[10.3041001, 60.1873584], [10.3038411, 60.1871732], [10.303531, 60.1868474], [10.3033915, 60.1866295], [10.30328, 60.1863904], [10.3032401, 60.1861587], [10.3032177, 60.1857919], [10.3032108, 60.1855026], [10.3031592, 60.1851841], [10.3029574, 60.1847869], [10.3028426, 60.1846437]]}, "properties": {"electrified": "contact_line", "frequency": "16.67", "gauge": "1435", "name": "Roa-H\u00f8nefossbanen", "operator": "Bane NOR", "passenger_lines": "1", "railway": "rail", "usage": "branch", "voltage": "15000", "length_km": 0.316}}, {"type": "Feature", "geometry": {"type": "LineString", "coordinates": [[10.29766, 60.1814448], [10.2975765, 60.1813602]]}, "properties": {"bridge": "yes", "electrified": "contact_line", "frequency": "16.67", "gauge": "1435", "name": "Roa-H\u00f8nefossbanen", "operator": "Bane NOR", "passenger_lines": "1", "railway": "rail", "usage": "branch", "voltage": "15000", "length_km": 0.011}}, {"type": "Feature", "geometry": {"type": "LineString", "coordinates": [[10.2975765, 60.1813602], [10.2969109, 60.1808847], [10.2966919, 60.1807796], [10.2961153, 60.1805028], [10.2956152, 60.180335], [10.2950516, 60.1801847], [10.2943725, 60.1800533], [10.293508, 60.1799565], [10.2920407, 60.1798852], [10.2907188, 60.1798205]]}, "properties": {"electrified": "contact_line", "frequency": "16.67", "gauge": "1435", "name": "Roa-H\u00f8nefossbanen", "operator": "Bane NOR", "passenger_lines": "1", "railway": "rail", "usage": "branch", "voltage": "15000", "length_km": 0.44}}, {"type": "Feature", "geometry": {"type": "LineString", "coordinates": [[10.3044894, 60.1875906], [10.3044116, 60.1875467]]}, "properties": {"bridge": "yes", "electrified": "contact_line", "frequency": "16.67", "gauge": "1435", "maxspeed": "65", "name": "Roa-H\u00f8nefossbanen", "operator": "Bane NOR", "passenger_lines": "1", "railway": "rail", "usage": "branch", "voltage": "15000", "length_km": 0.007, "maxspeed_kmh": 65.0}}, {"type": "Feature", "geometry": {"type": "LineString", "coordinates": [[10.3027698, 60.1845822], [10.302324, 60.1842055], [10.3019998, 60.1840142], [10.3014494, 60.1837944], [10.3002302, 60.1833604], [10.2998781, 60.1832257], [10.2994672, 60.1830363], [10.2990326, 60.1827596], [10.2987406, 60.1825086], [10.2984128, 60.1822079], [10.29766, 60.1814448]]}, "properties": {"electrified": "contact_line", "frequency": "16.67", "gauge": "1435", "name": "Roa-H\u00f8nefossbanen", "operator": "Bane NOR", "passenger_lines": "1", "railway": "rail", "usage": "branch", "voltage": "15000", "length_km": 0.459}}, {"type": "Feature", "geometry": {"type": "LineString", "coordinates": [[10.3028426, 60.1846437], [10.3027698, 60.1845822]]}, "properties": {"bridge": "yes", "electrified": "contact_line", "frequency": "16.67", "gauge": "1435", "name": "Roa-H\u00f8nefossbanen", "operator": "Bane NOR", "passenger_lines": "1", "railway": "rail", "usage": "branch", "voltage": "15000", "length_km": 0.008}}, {"type": "Feature", "geometry": {"type": "LineString", "coordinates": [[10.3321338, 60.1971048], [10.3318296, 60.197044], [10.3315254, 60.1969847]]}, "properties": {"electrified": "contact_line", "frequency": "16.67", "gauge": "1435", "maxspeed": "65", "name": "Roa-H\u00f8nefossbanen", "operator": "Bane NOR", "passenger_lines": "1", "railway": "rail", "usage": "branch", "voltage": "15000", "length_km": 0.036, "maxspeed_kmh": 65.0}}, {"type": "Feature", "geometry": {"type": "LineString", "coordinates": [[10.401099, 60.2384241], [10.4009006, 60.238332]]}, "properties": {"bridge": "yes", "electrified": "contact_line", "frequency": "16.67", "gauge": "1435", "maxspeed": "100", "name": "Roa-H\u00f8nefossbanen", "operator": "Bane NOR", "passenger_lines": "1", "railway": "rail", "usage": "branch", "voltage": "15000", "length_km": 0.015, "maxspeed_kmh": 100.0}}, {"type": "Feature", "geometry": {"type": "LineString", "coordinates": [[10.3889787, 60.2366367], [10.3887443, 60.2365586], [10.3883149, 60.236417], [10.3878707, 60.236274], [10.3872474, 60.2360871], [10.3870187, 60.2360205], [10.386788, 60.2359556], [10.3865674, 60.235895], [10.3863052, 60.2358268], [10.3860444, 60.2357619], [10.3857648, 60.2356933], [10.3855113, 60.2356341], [10.3852028, 60.2355628], [10.3849219, 60.2355009], [10.3845993, 60.235432], [10.3843271, 60.2353767], [10.384077, 60.2353265], [10.3838242, 60.2352789], [10.3834896, 60.2352196], [10.3831563, 60.235163], [10.3828935, 60.2351201], [10.3826675, 60.2350855], [10.3824268, 60.2350488], [10.3821518, 60.2350079], [10.3816529, 60.2349377], [10.3813633, 60.2348947], [10.3811571, 60.2348606], [10.3808992, 60.2348155], [10.3806934, 60.2347749], [10.3804862, 60.2347309], [10.3802795, 60.2346815], [10.3800503, 60.2346231], [10.3798773, 60.2345758], [10.379713, 60.2345255], [10.3795347, 60.2344689], [10.3793389, 60.2344024], [10.3791672, 60.2343403], [10.3790324, 60.2342882], [10.3788988, 60.2342342], [10.3788028, 60.2341926], [10.3786834, 60.2341389], [10.3785456, 60.234076], [10.3784242, 60.2340155], [10.3782314, 60.2339134]]}, "properties": {"electrified": "contact_line", "frequency": "16.67", "gauge": "1435", "maxspeed": "80", "name": "Roa-H\u00f8nefossbanen", "operator": "Bane NOR", "passenger_lines": "1", "railway": "rail", "usage": "branch", "voltage": "15000", "length_km": 0.675, "maxspeed_kmh": 80.0}}, {"type": "Feature", "geometry": {"type": "LineString", "coordinates": [[10.3272142, 60.1950112], [10.3270626, 60.1948533], [10.3268936, 60.1946919], [10.3267166, 60.194548], [10.3265101, 60.1944026], [10.3263086, 60.1942857]]}, "properties": {"electrified": "contact_line", "frequency": "16.67", "gauge": "1435", "maxspeed": "65", "name": "Roa-H\u00f8nefossbanen", "operator": "Bane NOR", "passenger_lines": "1", "railway": "rail", "tunnel": "yes", "usage": "branch", "voltage": "15000", "length_km": 0.096, "maxspeed_kmh": 65.0}}, {"type": "Feature", "geometry": {"type": "LineString", "coordinates": [[10.3222332, 60.1936047], [10.3218772, 60.193626], [10.3215145, 60.19365]]}, "properties": {"electrified": "contact_line", "frequency": "16.67", "gauge": "1435", "maxspeed": "65", "name": "Roa-H\u00f8nefossbanen", "operator": "Bane NOR", "passenger_lines": "1", "railway": "rail", "usage": "branch", "voltage": "15000", "length_km": 0.04, "maxspeed_kmh": 65.0}}, {"type": "Feature", "geometry": {"type": "LineString", "coordinates": [[10.6169571, 60.284552], [10.6167925, 60.2845768], [10.616593, 60.2846035], [10.6163419, 60.2846396], [10.6161056, 60.2846762]]}, "properties": {"electrified": "contact_line", "frequency": "16.67", "gauge": "1435", "maxspeed": "40", "name": "Roa-H\u00f8nefossbanen", "railway": "rail", "service": "siding", "voltage": "15000", "length_km": 0.049, "maxspeed_kmh": 40.0}}, {"type": "Feature", "geometry": {"type": "LineString", "coordinates": [[10.3673392, 60.2192828], [10.3672619, 60.2192345]]}, "properties": {"bridge": "yes", "electrified": "contact_line", "frequency": "16.67", "gauge": "1435", "maxspeed": "65", "name": "Roa-H\u00f8nefossbanen", "operator": "Bane NOR", "passenger_lines": "1", "railway": "rail", "usage": "branch", "voltage": "15000", "length_km": 0.007, "maxspeed_kmh": 65.0}}, {"type": "Feature", "geometry": {"type": "LineString", "coordinates": [[10.3544833, 60.2074365], [10.3544158, 60.2073686], [10.3543165, 60.2072796], [10.3542082, 60.2071872], [10.3541123, 60.2071062], [10.3540077, 60.2070283], [10.3539129, 60.2069603], [10.353821, 60.2069011], [10.3537036, 60.2068269], [10.3535206, 60.2067199], [10.353296, 60.206601], [10.3530975, 60.2065057], [10.3528614, 60.206404], [10.3524812, 60.2062551], [10.3520976, 60.206122], [10.3492827, 60.2051872], [10.348879, 60.205044], [10.3485414, 60.2049345], [10.3481763, 60.2048054], [10.347839, 60.2046851], [10.3475024, 60.2045642], [10.3471974, 60.204455], [10.3469099, 60.2043469], [10.3465234, 60.204199], [10.3462655, 60.2040975], [10.3460459, 60.2040042], [10.3457878, 60.2038816], [10.3455209, 60.2037528], [10.3452875, 60.2036253], [10.3450468, 60.2034776], [10.3448457, 60.203348], [10.3446767, 60.2032333], [10.3444923, 60.2030949], [10.3443749, 60.2030004], [10.3442569, 60.2029051], [10.3441577, 60.2028125], [10.3440229, 60.2026785], [10.3438952, 60.2025529], [10.3437285, 60.202358], [10.343636, 60.2022383], [10.3435193, 60.2020777], [10.3434096, 60.2019164], [10.3432719, 60.2017188], [10.3431994, 60.2016239], [10.3431257, 60.2015296], [10.3430466, 60.2014396], [10.3429554, 60.201344], [10.3428382, 60.2012358], [10.3427435, 60.2011593], [10.3426436, 60.2010857], [10.3425517, 60.2010237], [10.3424102, 60.2009327], [10.3422895, 60.2008608], [10.3421648, 60.2007968], [10.3420293, 60.2007308], [10.3419046, 60.2006741], [10.3417557, 60.2006152], [10.3415941, 60.2005565], [10.3414887, 60.2005175]]}, "properties": {"electrified": "contact_line", "frequency": "16.67", "gauge": "1435", "maxspeed": "65", "name": "Roa-H\u00f8nefossbanen", "operator": "Bane NOR", "passenger_lines": "1", "railway": "rail", "usage": "branch", "voltage": "15000", "length_km": 1.082, "maxspeed_kmh": 65.0}}, {"type": "Feature", "geometry": {"type": "LineString", "coordinates": [[10.6161056, 60.2846762], [10.6169637, 60.2845041]]}, "properties": {"electrified": "contact_line", "frequency": "16.67", "gauge": "1435", "maxspeed": "50", "name": "Roa-H\u00f8nefossbanen", "operator": "Bane NOR", "railway": "rail", "usage": "branch", "voltage": "15000", "length_km": 0.051, "maxspeed_kmh": 50.0}}, {"type": "Feature", "geometry": {"type": "LineString", "coordinates": [[10.6138472, 60.2850133], [10.613087, 60.2850997], [10.6128037, 60.2851293], [10.6125395, 60.2851519], [10.612335, 60.2851645], [10.6121385, 60.2851771], [10.6119085, 60.2851841], [10.6116336, 60.2851854], [10.611411, 60.2851834], [10.6111575, 60.2851731], [10.6109449, 60.2851622], [10.6107411, 60.2851456], [10.6105185, 60.285121], [10.6102985, 60.2850937], [10.610045, 60.2850568], [10.6092236, 60.2849262], [10.6089567, 60.2848866], [10.6087475, 60.2848567], [10.6085061, 60.2848295], [10.6082768, 60.2848065], [10.6080381, 60.2847902], [10.6078611, 60.2847829], [10.6076384, 60.2847796], [10.6074051, 60.2847823], [10.6071925, 60.2847869], [10.6069672, 60.2848002], [10.6067694, 60.2848162], [10.6065407, 60.2848408], [10.606349, 60.284866], [10.6061243, 60.2849013], [10.605899, 60.2849445], [10.6056358, 60.2850015], [10.6053941, 60.2850661], [10.6051628, 60.2851343], [10.6049442, 60.2852097], [10.6047416, 60.2852881], [10.6045217, 60.2853839], [10.6043923, 60.2854464], [10.6042347, 60.2855304], [10.6041261, 60.2855933], [10.6039786, 60.285688], [10.6038726, 60.2857634], [10.6037787, 60.2858356], [10.6036936, 60.285907], [10.6036144, 60.2859795], [10.6035414, 60.2860546], [10.6034743, 60.2861271], [10.6034113, 60.2862048], [10.6033617, 60.286272], [10.603306, 60.2863554], [10.6032631, 60.2864352], [10.6032121, 60.2865422], [10.6031799, 60.2866389], [10.6031484, 60.286734], [10.603127, 60.2868463], [10.6031176, 60.2869563], [10.6031189, 60.2870647], [10.6031229, 60.2871617], [10.6031417, 60.2873116], [10.6031672, 60.2874462], [10.6032255, 60.2877699], [10.6032376, 60.287866], [10.6032456, 60.2879727], [10.603249, 60.2880737], [10.6032416, 60.2881821], [10.6032275, 60.2883007], [10.6032108, 60.2883954], [10.6031826, 60.2885038], [10.6031538, 60.2885955], [10.6031142, 60.2886942], [10.6030706, 60.2887912], [10.6030143, 60.2888944], [10.6029519, 60.2890003], [10.6028567, 60.2891336], [10.60274, 60.2892775], [10.6026153, 60.2894121], [10.6024765, 60.289546], [10.6022975, 60.2896942], [10.6021513, 60.2898069], [10.6019206, 60.2899581], [10.601759, 60.2900575], [10.6015398, 60.2901758], [10.6013098, 60.2902874], [10.6010798, 60.2903908], [10.6009201, 60.2904534], [10.6006929, 60.2905373], [10.6004575, 60.2906148], [10.6001705, 60.2907005], [10.5998862, 60.2907743], [10.5995268, 60.2908587], [10.599184, 60.2909298], [10.5988482, 60.2909953], [10.5980172, 60.2911504]]}, "properties": {"electrified": "contact_line", "frequency": "16.67", "gauge": "1435", "maxspeed": "75", "name": "Roa-H\u00f8nefossbanen", "operator": "Bane NOR", "passenger_lines": "1", "railway": "rail", "usage": "branch", "voltage": "15000", "length_km": 1.347, "maxspeed_kmh": 75.0}}, {"type": "Feature", "geometry": {"type": "LineString", "coordinates": [[10.54788, 60.2915755], [10.5477501, 60.2915618]]}, "properties": {"bridge": "yes", "electrified": "contact_line", "frequency": "16.67", "gauge": "1435", "maxspeed": "90", "name": "Roa-H\u00f8nefossbanen", "operator": "Bane NOR", "passenger_lines": "1", "railway": "rail", "usage": "branch", "voltage": "15000", "length_km": 0.007, "maxspeed_kmh": 90.0}}, {"type": "Feature", "geometry": {"type": "LineString", "coordinates": [[10.476523, 60.2980053], [10.476016, 60.2981221], [10.4755309, 60.2982416], [10.4750756, 60.2983507], [10.4747206, 60.2984273], [10.4744736, 60.298476], [10.4741949, 60.2985246], [10.473935, 60.2985654], [10.47369, 60.2985979], [10.4734499, 60.2986269], [10.4732611, 60.2986471], [10.4730499, 60.298666], [10.4728192, 60.2986833], [10.4725845, 60.2986966], [10.4723451, 60.2987059], [10.4721265, 60.2987109], [10.4718791, 60.2987132], [10.4716384, 60.2987122], [10.4713742, 60.2987059], [10.4710409, 60.2986916], [10.4706815, 60.2986687], [10.46996, 60.2986205], [10.4696314, 60.2985991], [10.469325, 60.2985846], [10.4690413, 60.298578], [10.4687523, 60.2985753], [10.4684801, 60.298578], [10.4681797, 60.298586], [10.4679094, 60.2985999], [10.4676171, 60.2986202], [10.4673643, 60.2986428], [10.4671034, 60.2986704], [10.4668553, 60.2987003], [10.4666119, 60.2987368], [10.4664101, 60.2987687], [10.4662333, 60.2988015]]}, "properties": {"electrified": "contact_line", "frequency": "16.67", "gauge": "1435", "maxspeed": "75", "name": "Roa-H\u00f8nefossbanen", "operator": "Bane NOR", "passenger_lines": "1", "railway": "rail", "usage": "branch", "voltage": "15000", "length_km": 0.588, "maxspeed_kmh": 75.0}}, {"type": "Feature", "geometry": {"type": "LineString", "coordinates": [[10.4249022, 60.2507159], [10.4247205, 60.2505569], [10.4245234, 60.2503902], [10.4243188, 60.2502195], [10.4241411, 60.2500778], [10.4238649, 60.2498585], [10.4235759, 60.2496372], [10.4232661, 60.2494103], [10.4228389, 60.2491068], [10.4225593, 60.2489138], [10.4221845, 60.2486656], [10.4217969, 60.248417], [10.4213972, 60.2481691], [10.4209976, 60.2479312], [10.4205932, 60.2476986], [10.4200112, 60.2473758], [10.4195036, 60.2471089], [10.4189685, 60.2468371], [10.4185179, 60.2466158], [10.4180412, 60.2463909], [10.414111, 60.2445425], [10.4133224, 60.2441691], [10.4128893, 60.2439588]]}, "properties": {"electrified": "contact_line", "frequency": "16.67", "gauge": "1435", "maxspeed": "100", "name": "Roa-H\u00f8nefossbanen", "operator": "Bane NOR", "passenger_lines": "1", "railway": "rail", "usage": "branch", "voltage": "15000", "length_km": 1.01, "maxspeed_kmh": 100.0}}, {"type": "Feature", "geometry": {"type": "LineString", "coordinates": [[10.4264903, 60.2546563], [10.4265208, 60.254582]]}, "properties": {"bridge": "yes", "electrified": "contact_line", "frequency": "16.67", "gauge": "1435", "maxspeed": "90", "name": "Roa-H\u00f8nefossbanen", "operator": "Bane NOR", "passenger_lines": "1", "railway": "rail", "usage": "branch", "voltage": "15000", "length_km": 0.008, "maxspeed_kmh": 90.0}}, {"type": "Feature", "geometry": {"type": "LineString", "coordinates": [[10.4078888, 60.2415485], [10.4077158, 60.2414687]]}, "properties": {"bridge": "yes", "electrified": "contact_line", "frequency": "16.67", "gauge": "1435", "maxspeed": "100", "name": "Roa-H\u00f8nefossbanen", "operator": "Bane NOR", "passenger_lines": "1", "railway": "rail", "usage": "branch", "voltage": "15000", "length_km": 0.013, "maxspeed_kmh": 100.0}}, {"type": "Feature", "geometry": {"type": "LineString", "coordinates": [[10.4077158, 60.2414687], [10.4074068, 60.2413272], [10.4070991, 60.2411884], [10.4066753, 60.2409974], [10.4056433, 60.2405338], [10.4048822, 60.2401906], [10.4039776, 60.2397779], [10.4035149, 60.239557], [10.4031475, 60.2393868], [10.4026935, 60.2391751], [10.4022398, 60.2389603]]}, "properties": {"electrified": "contact_line", "frequency": "16.67", "gauge": "1435", "maxspeed": "100", "name": "Roa-H\u00f8nefossbanen", "operator": "Bane NOR", "passenger_lines": "1", "railway": "rail", "usage": "branch", "voltage": "15000", "length_km": 0.413, "maxspeed_kmh": 100.0}}, {"type": "Feature", "geometry": {"type": "LineString", "coordinates": [[10.2504353, 60.1697504], [10.2501629, 60.1696786]]}, "properties": {"bridge": "yes", "electrified": "contact_line", "frequency": "16.67", "gauge": "1435", "name": "Roa-H\u00f8nefossbanen", "operator": "Bane NOR", "passenger_lines": "1", "railway": "rail", "usage": "branch", "voltage": "15000", "length_km": 0.017}}, {"type": "Feature", "geometry": {"type": "LineString", "coordinates": [[10.2549086, 60.1722343], [10.2546966, 60.1719169]]}, "properties": {"electrified": "contact_line", "frequency": "16.67", "gauge": "1435", "name": "Roa-H\u00f8nefossbanen", "operator": "Bane NOR", "passenger_lines": "1", "railway": "rail", "usage": "branch", "voltage": "15000", "length_km": 0.037}}, {"type": "Feature", "geometry": {"type": "LineString", "coordinates": [[10.2550185, 60.1724092], [10.2549693, 60.1723312]]}, "properties": {"electrified": "contact_line", "frequency": "16.67", "gauge": "1435", "name": "Roa-H\u00f8nefossbanen", "operator": "Bane NOR", "passenger_lines": "1", "railway": "rail", "usage": "branch", "voltage": "15000", "length_km": 0.009}}, {"type": "Feature", "geometry": {"type": "LineString", "coordinates": [[10.2732374, 60.1768275], [10.2728478, 60.1767502], [10.2725212, 60.1766961], [10.2721806, 60.1766421], [10.2716953, 60.1765711], [10.271172, 60.1765094], [10.2706007, 60.1764682], [10.2699245, 60.1764276], [10.2692194, 60.1764132], [10.2687655, 60.1764039], [10.2673968, 60.1763822]]}, "properties": {"electrified": "contact_line", "frequency": "16.67", "gauge": "1435", "name": "Roa-H\u00f8nefossbanen", "operator": "Bane NOR", "passenger_lines": "1", "railway": "rail", "usage": "branch", "voltage": "15000", "length_km": 0.331}}, {"type": "Feature", "geometry": {"type": "LineString", "coordinates": [[10.3769859, 60.2301553], [10.3770617, 60.2300148], [10.3771354, 60.2298838], [10.3774265, 60.2293544]]}, "properties": {"electrified": "contact_line", "frequency": "16.67", "gauge": "1435", "maxspeed": "65", "name": "Roa-H\u00f8nefossbanen", "operator": "Bane NOR", "passenger_lines": "1", "railway": "rail", "usage": "branch", "voltage": "15000", "length_km": 0.093, "maxspeed_kmh": 65.0}}, {"type": "Feature", "geometry": {"type": "LineString", "coordinates": [[10.4009006, 60.238332], [10.4001227, 60.237964], [10.3998021, 60.2378117]]}, "properties": {"electrified": "contact_line", "frequency": "16.67", "gauge": "1435", "maxspeed": "65", "name": "Roa-H\u00f8nefossbanen", "operator": "Bane NOR", "passenger_lines": "1", "railway": "rail", "usage": "branch", "voltage": "15000", "length_km": 0.084, "maxspeed_kmh": 65.0}}, {"type": "Feature", "geometry": {"type": "LineString", "coordinates": [[10.5153473, 60.2931741], [10.5141952, 60.2929736], [10.5137364, 60.2928956], [10.5133361, 60.2928347], [10.5130876, 60.2928015], [10.5128056, 60.292769], [10.5124769, 60.2927343], [10.5121872, 60.2927104], [10.5118632, 60.2926888], [10.5115173, 60.2926733], [10.511184, 60.2926625], [10.5108646, 60.2926586], [10.5105655, 60.2926602], [10.5102703, 60.2926667], [10.509947, 60.2926791], [10.509662, 60.2926961], [10.5093286, 60.2927208], [10.5090357, 60.292747], [10.5087771, 60.2927756], [10.5084609, 60.2928165], [10.5081353, 60.2928628], [10.5078167, 60.2929169], [10.5074872, 60.2929771], [10.5071702, 60.2930443], [10.5068485, 60.2931188], [10.5064528, 60.2932222], [10.5060906, 60.2933272], [10.5057214, 60.2934457], [10.5054325, 60.2935457], [10.5048927, 60.2937367], [10.5045873, 60.2938433], [10.5043708, 60.2939189], [10.5040787, 60.2940131], [10.5038287, 60.2940872], [10.5035615, 60.2941636], [10.5033053, 60.2942323], [10.5030521, 60.2942962], [10.5026961, 60.2943775], [10.5023386, 60.2944512], [10.5019403, 60.294528], [10.5015925, 60.294583], [10.5012178, 60.2946413], [10.5007885, 60.2946963], [10.5003689, 60.2947481], [10.4997808, 60.2948204], [10.4942145, 60.2954963]]}, "properties": {"electrified": "contact_line", "frequency": "16.67", "gauge": "1435", "maxspeed": "90", "name": "Roa-H\u00f8nefossbanen", "operator": "Bane NOR", "passenger_lines": "1", "railway": "rail", "usage": "branch", "voltage": "15000", "length_km": 1.242, "maxspeed_kmh": 90.0}}, {"type": "Feature", "geometry": {"type": "LineString", "coordinates": [[10.5268796, 60.2910337], [10.5265854, 60.2910352], [10.5263162, 60.2910342], [10.5256819, 60.2910287], [10.5253784, 60.2910275], [10.5251411, 60.2910296], [10.5249406, 60.2910335], [10.5247139, 60.2910428], [10.5244658, 60.2910581], [10.5242378, 60.2910804], [10.5239716, 60.2911143], [10.5237684, 60.2911442], [10.5235633, 60.2911807], [10.52334, 60.2912272], [10.5231243, 60.2912788], [10.5228893, 60.2913446], [10.5226922, 60.291406], [10.5225091, 60.2914698], [10.522304, 60.2915519], [10.522074, 60.2916526], [10.5218811, 60.2917486], [10.5217501, 60.2918247], [10.5216126, 60.2919112], [10.5214325, 60.2920293], [10.5210843, 60.2922798], [10.5208522, 60.2924407], [10.5207067, 60.2925322], [10.520534, 60.2926328], [10.520352, 60.292727], [10.5201629, 60.2928144], [10.5199724, 60.2928925], [10.5197921, 60.2929589], [10.5195826, 60.2930286], [10.519373, 60.2930888], [10.5191472, 60.2931464], [10.5189887, 60.2931819], [10.5187433, 60.2932314], [10.5185415, 60.2932646], [10.5183396, 60.2932939], [10.5181331, 60.2933168], [10.5179473, 60.2933346], [10.5177476, 60.2933481], [10.5175607, 60.2933573], [10.5173709, 60.2933624], [10.5172031, 60.2933643], [10.5169972, 60.2933627], [10.5168007, 60.2933547], [10.5165942, 60.2933427], [10.5164386, 60.2933311], [10.5162589, 60.2933128], [10.5160806, 60.2932909], [10.5158754, 60.2932623], [10.5156729, 60.2932311], [10.5153473, 60.2931741]]}, "properties": {"electrified": "contact_line", "frequency": "16.67", "gauge": "1435", "maxspeed": "65", "name": "Roa-H\u00f8nefossbanen", "operator": "Bane NOR", "passenger_lines": "1", "railway": "rail", "usage": "branch", "voltage": "15000", "length_km": 0.736, "maxspeed_kmh": 65.0}}, {"type": "Feature", "geometry": {"type": "LineString", "coordinates": [[10.4265208, 60.254582], [10.4265853, 60.2544067], [10.4266443, 60.2542447], [10.4266859, 60.254114], [10.4267161, 60.2539948], [10.4267295, 60.2539296], [10.4267529, 60.2537886], [10.4267664, 60.2536612], [10.426769, 60.2535307], [10.426769, 60.2534253], [10.4267596, 60.2532952], [10.4267441, 60.2531853], [10.4267174, 60.253042], [10.4266879, 60.2529232], [10.426651, 60.2528211], [10.4266101, 60.2527033], [10.4265451, 60.2525526], [10.426472, 60.2524112], [10.4264123, 60.2523077], [10.4263298, 60.2521779], [10.4262507, 60.2520671], [10.4261615, 60.251951], [10.4259731, 60.2517341], [10.4258611, 60.2516156], [10.4257471, 60.2515005], [10.4256003, 60.2513568], [10.4254822, 60.2512453], [10.4253716, 60.2511405], [10.4252093, 60.2509908], [10.4250611, 60.2508564], [10.4249022, 60.2507159]]}, "properties": {"electrified": "contact_line", "frequency": "16.67", "gauge": "1435", "maxspeed": "90", "name": "Roa-H\u00f8nefossbanen", "operator": "Bane NOR", "passenger_lines": "1", "railway": "rail", "usage": "branch", "voltage": "15000", "length_km": 0.453, "maxspeed_kmh": 90.0}}, {"type": "Feature", "geometry": {"type": "LineString", "coordinates": [[10.5798166, 60.2933901], [10.5770195, 60.2934716], [10.5750401, 60.2935302], [10.5744508, 60.2935507], [10.5739794, 60.2935694], [10.573498, 60.2935899]]}, "properties": {"electrified": "contact_line", "frequency": "16.67", "gauge": "1435", "maxspeed": "90", "name": "Roa-H\u00f8nefossbanen", "operator": "Bane NOR", "passenger_lines": "1", "railway": "rail", "usage": "branch", "voltage": "15000", "length_km": 0.35, "maxspeed_kmh": 90.0}}, {"type": "Feature", "geometry": {"type": "LineString", "coordinates": [[10.5980172, 60.2911504], [10.5970873, 60.2913216], [10.5965515, 60.2914223], [10.596109, 60.2915087], [10.5956114, 60.2916091], [10.5953237, 60.2916706], [10.5949254, 60.2917563], [10.5945841, 60.2918314], [10.5941322, 60.2919374], [10.5937057, 60.2920408], [10.593233, 60.2921584], [10.5928635, 60.2922528], [10.5924236, 60.2923654], [10.5919542, 60.2924814], [10.59158, 60.2925691], [10.5912267, 60.2926466], [10.5908907, 60.292714], [10.5906064, 60.2927688], [10.5903382, 60.2928147], [10.5899989, 60.2928722], [10.5896596, 60.2929214], [10.5893545, 60.2929642], [10.589046, 60.2930031], [10.5886102, 60.293053], [10.5882863, 60.2930855], [10.5879845, 60.2931118], [10.5877157, 60.2931327], [10.5874568, 60.2931497], [10.5870706, 60.2931709], [10.5867561, 60.2931841], [10.5864279, 60.2931955], [10.5860532, 60.2932078], [10.5855265, 60.2932233], [10.5801116, 60.293382]]}, "properties": {"electrified": "contact_line", "frequency": "16.67", "gauge": "1435", "maxspeed": "90", "name": "Roa-H\u00f8nefossbanen", "operator": "Bane NOR", "passenger_lines": "1", "railway": "rail", "usage": "branch", "voltage": "15000", "length_km": 1.035, "maxspeed_kmh": 90.0}}, {"type": "Feature", "geometry": {"type": "LineString", "coordinates": [[10.5477501, 60.2915618], [10.547418, 60.2915245], [10.5470996, 60.2914874], [10.5467563, 60.2914439], [10.5461025, 60.2913565], [10.5457377, 60.2913093], [10.5453602, 60.2912625], [10.5450236, 60.2912216], [10.5447219, 60.2911877], [10.5444087, 60.2911531], [10.5441371, 60.2911226], [10.5437422, 60.2910833], [10.5433445, 60.2910441], [10.5429456, 60.2910086], [10.5424708, 60.290967], [10.5420019, 60.2909289], [10.5416157, 60.2909011], [10.5412041, 60.290872], [10.5406717, 60.2908384], [10.5402359, 60.2908138], [10.5398604, 60.2907944], [10.5395445, 60.2907789], [10.5391543, 60.290763], [10.5388049, 60.2907494], [10.5384509, 60.2907371], [10.5380606, 60.2907258], [10.5376247, 60.2907155], [10.5372264, 60.2907078], [10.5368435, 60.2907035], [10.536466, 60.2907002], [10.5360664, 60.2906982], [10.5355782, 60.2906985], [10.5349895, 60.2907035], [10.5345248, 60.2907098], [10.5339528, 60.2907228], [10.5334881, 60.2907361], [10.533134, 60.2907477], [10.5327009, 60.2907633], [10.5323012, 60.2907803], [10.5318727, 60.2908002], [10.531298, 60.2908314], [10.5304173, 60.2908803], [10.5295986, 60.2909276], [10.5287714, 60.2909747], [10.5281436, 60.2910048], [10.5277935, 60.2910179], [10.5274806, 60.2910265], [10.5271665, 60.291031], [10.5268796, 60.2910337]]}, "properties": {"electrified": "contact_line", "frequency": "16.67", "gauge": "1435", "maxspeed": "90", "name": "Roa-H\u00f8nefossbanen", "operator": "Bane NOR", "passenger_lines": "1", "railway": "rail", "usage": "branch", "voltage": "15000", "length_km": 1.166, "maxspeed_kmh": 90.0}}, {"type": "Feature", "geometry": {"type": "LineString", "coordinates": [[10.2556839, 60.1732691], [10.2553054, 60.1728175], [10.2550185, 60.1724092]]}, "properties": {"electrified": "contact_line", "frequency": "16.67", "gauge": "1435", "name": "Roa-H\u00f8nefossbanen", "operator": "Bane NOR", "passenger_lines": "1", "railway": "rail", "usage": "branch", "voltage": "15000", "length_km": 0.103}}, {"type": "Feature", "geometry": {"type": "LineString", "coordinates": [[10.3095604, 60.1904244], [10.3093922, 60.1903121], [10.3092313, 60.1902074], [10.3090245, 60.1900782], [10.3088142, 60.189956], [10.3084769, 60.1897589], [10.3077688, 60.1893477], [10.3070476, 60.188946], [10.3062952, 60.1885417], [10.3055196, 60.1881335], [10.3047737, 60.1877405]]}, "properties": {"electrified": "contact_line", "frequency": "16.67", "gauge": "1435", "maxspeed": "65", "name": "Roa-H\u00f8nefossbanen", "operator": "Bane NOR", "passenger_lines": "1", "railway": "rail", "usage": "branch", "voltage": "15000", "length_km": 0.4, "maxspeed_kmh": 65.0}}, {"type": "Feature", "geometry": {"type": "LineString", "coordinates": [[10.3047737, 60.1877405], [10.3044894, 60.1875906]]}, "properties": {"electrified": "contact_line", "frequency": "16.67", "gauge": "1435", "maxspeed": "65", "name": "Roa-H\u00f8nefossbanen", "operator": "Bane NOR", "passenger_lines": "1", "railway": "rail", "usage": "branch", "voltage": "15000", "length_km": 0.023, "maxspeed_kmh": 65.0}}, {"type": "Feature", "geometry": {"type": "LineString", "coordinates": [[10.4022398, 60.2389603], [10.4020424, 60.2388685], [10.4017621, 60.2387357], [10.4014362, 60.238584], [10.401099, 60.2384241]]}, "properties": {"electrified": "contact_line", "frequency": "16.67", "gauge": "1435", "maxspeed": "100", "name": "Roa-H\u00f8nefossbanen", "operator": "Bane NOR", "passenger_lines": "1", "railway": "rail", "usage": "branch", "voltage": "15000", "length_km": 0.087, "maxspeed_kmh": 100.0}}, {"type": "Feature", "geometry": {"type": "LineString", "coordinates": [[10.4128893, 60.2439588], [10.4116823, 60.2433731], [10.4090383, 60.2420891], [10.408697, 60.2419286], [10.4078888, 60.2415485]]}, "properties": {"electrified": "contact_line", "frequency": "16.67", "gauge": "1435", "maxspeed": "100", "name": "Roa-H\u00f8nefossbanen", "operator": "Bane NOR", "passenger_lines": "1", "railway": "rail", "usage": "branch", "voltage": "15000", "length_km": 0.386, "maxspeed_kmh": 100.0}}, {"type": "Feature", "geometry": {"type": "LineString", "coordinates": [[10.4203746, 60.267108], [10.4204585, 60.2669248], [10.4205396, 60.2667537], [10.4206194, 60.266594], [10.4206871, 60.2664497], [10.4208467, 60.2661343], [10.4209345, 60.2659626], [10.4209996, 60.2658354], [10.4210921, 60.2656685], [10.4212081, 60.2654636], [10.4213272, 60.2652584], [10.4214187, 60.2651054], [10.4215957, 60.2648367], [10.4217339, 60.2646425], [10.4219142, 60.2643897], [10.4220698, 60.2641782], [10.4223038, 60.2638665], [10.4224674, 60.263651], [10.4226787, 60.2633789], [10.4228027, 60.2632274], [10.4229221, 60.2630806], [10.4230468, 60.2629352], [10.4231863, 60.2627792], [10.4234082, 60.2625391], [10.4236516, 60.2622903], [10.424298, 60.2616425], [10.424528, 60.2614085], [10.4246856, 60.2612386], [10.424801, 60.2611058], [10.4249391, 60.2609319], [10.4250645, 60.2607559], [10.4251671, 60.2606002], [10.4252294, 60.2604918], [10.4252918, 60.2603751], [10.4253615, 60.2602373], [10.4254199, 60.2601063], [10.4254749, 60.2599632], [10.4255164, 60.2598372], [10.4255641, 60.2596705], [10.4255969, 60.2595178], [10.425621, 60.2593675], [10.4256341, 60.2592228], [10.4256418, 60.2589873], [10.4256465, 60.258482], [10.4256512, 60.2582228], [10.425666, 60.2579514], [10.4256868, 60.2576773], [10.4257223, 60.2573877], [10.4257526, 60.2571717], [10.4257974, 60.2569055], [10.4258551, 60.2566141], [10.4259154, 60.2563619], [10.4259717, 60.2561443], [10.4260562, 60.2558516], [10.4261213, 60.255645], [10.4261722, 60.2554843], [10.426238, 60.255298], [10.4262993, 60.2551262], [10.4263835, 60.2549181], [10.4264903, 60.2546563]]}, "properties": {"electrified": "contact_line", "frequency": "16.67", "gauge": "1435", "maxspeed": "90", "name": "Roa-H\u00f8nefossbanen", "operator": "Bane NOR", "passenger_lines": "1", "railway": "rail", "usage": "branch", "voltage": "15000", "length_km": 1.443, "maxspeed_kmh": 90.0}}, {"type": "Feature", "geometry": {"type": "LineString", "coordinates": [[10.4289584, 60.2942868], [10.4286949, 60.2942446], [10.4279841, 60.2941323], [10.427628, 60.2940741], [10.4274067, 60.2940352], [10.4271787, 60.293992], [10.4269675, 60.2939488], [10.4267932, 60.29391], [10.4265866, 60.2938608], [10.4263955, 60.2938123], [10.4262554, 60.2937734], [10.4260502, 60.2937152], [10.4258839, 60.2936641], [10.4256975, 60.2936019], [10.4255406, 60.2935454], [10.4253025, 60.293454], [10.4251222, 60.2933806], [10.4249686, 60.2933105], [10.4247916, 60.2932238], [10.4245978, 60.2931207], [10.4244214, 60.2930211], [10.4242471, 60.2929134], [10.4240794, 60.2927981], [10.4239178, 60.2926768], [10.4238018, 60.2925861], [10.4237033, 60.292503], [10.4235966, 60.2923996], [10.4235108, 60.2923162], [10.4234263, 60.2922259], [10.4233452, 60.2921278], [10.4232661, 60.2920258], [10.4231936, 60.2919311], [10.4231407, 60.2918497], [10.4230817, 60.2917453], [10.4230307, 60.2916529], [10.4229851, 60.2915446], [10.4229509, 60.2914496], [10.422914, 60.2913359], [10.4228865, 60.2912173], [10.4228644, 60.2910843], [10.4228564, 60.2909697], [10.422851, 60.290875], [10.4228584, 60.2907929], [10.4228704, 60.2906919], [10.4228839, 60.2906011], [10.4229067, 60.2904945], [10.4229348, 60.2903978], [10.4229683, 60.2903147], [10.4229978, 60.2902346], [10.4230408, 60.2901415], [10.423089, 60.2900525], [10.4231487, 60.2899544], [10.4232118, 60.2898567], [10.4232929, 60.2897404], [10.4234173, 60.2895726], [10.4236228, 60.2892994], [10.42372, 60.2891618], [10.4237857, 60.2890611], [10.4238461, 60.2889586], [10.423889, 60.2888767], [10.4239413, 60.288763], [10.4239795, 60.2886709], [10.4240037, 60.2885962], [10.4240285, 60.2885094], [10.4240486, 60.2884237], [10.4240613, 60.2883379], [10.4240721, 60.2882555], [10.4240748, 60.2881704], [10.4240754, 60.288079], [10.4240687, 60.28799], [10.4240587, 60.2879049], [10.4240446, 60.2878205], [10.4240211, 60.2877294], [10.4239929, 60.2876267], [10.4239658, 60.2875582]]}, "properties": {"electrified": "contact_line", "frequency": "16.67", "gauge": "1435", "maxspeed": "80", "name": "Roa-H\u00f8nefossbanen", "operator": "Bane NOR", "passenger_lines": "1", "railway": "rail", "usage": "branch", "voltage": "15000", "length_km": 0.932, "maxspeed_kmh": 80.0}}, {"type": "Feature", "geometry": {"type": "LineString", "coordinates": [[10.4931618, 60.2956238], [10.4890572, 60.2961214], [10.4858346, 60.2965139]]}, "properties": {"electrified": "contact_line", "frequency": "16.67", "gauge": "1435", "maxspeed": "75", "name": "Roa-H\u00f8nefossbanen", "operator": "Bane NOR", "passenger_lines": "1", "railway": "rail", "usage": "branch", "voltage": "15000", "length_km": 0.417, "maxspeed_kmh": 75.0}}, {"type": "Feature", "geometry": {"type": "LineString", "coordinates": [[10.4942145, 60.2954963], [10.4931618, 60.2956238]]}, "properties": {"electrified": "contact_line", "frequency": "16.67", "gauge": "1435", "maxspeed": "75", "name": "Roa-H\u00f8nefossbanen", "operator": "Bane NOR", "passenger_lines": "1", "railway": "rail", "usage": "branch", "voltage": "15000", "length_km": 0.06, "maxspeed_kmh": 75.0}}, {"type": "Feature", "geometry": {"type": "LineString", "coordinates": [[10.4569747, 60.2992036], [10.4567541, 60.2991691], [10.4565074, 60.2991315], [10.4562177, 60.299092], [10.4559743, 60.2990627], [10.455749, 60.2990368], [10.4555169, 60.2990126], [10.4552548, 60.2989887], [10.4549289, 60.2989627], [10.4546355, 60.2989445], [10.4543951, 60.2989308], [10.4540551, 60.2989136], [10.4536924, 60.2988953], [10.4533417, 60.298875], [10.4530614, 60.2988561], [10.4528334, 60.2988378], [10.4525384, 60.2988106], [10.4522666, 60.2987812], [10.4520462, 60.2987561], [10.4517833, 60.2987222], [10.4514574, 60.2986757], [10.4512408, 60.2986415], [10.4509632, 60.2985943], [10.4507433, 60.2985534], [10.4504503, 60.2984953], [10.4502075, 60.2984434], [10.4498964, 60.2983733], [10.4496389, 60.2983102], [10.4490166, 60.2981541], [10.4487162, 60.298081], [10.4483749, 60.2980009], [10.4479974, 60.2979182], [10.4475535, 60.2978265], [10.4472209, 60.297764], [10.4469164, 60.2977092], [10.4465181, 60.2976424], [10.4461983, 60.2975919], [10.4458248, 60.2975364], [10.4454459, 60.2974852], [10.4451837, 60.2974517], [10.4449437, 60.2974234], [10.4446386, 60.2973909], [10.4443569, 60.2973616], [10.4439251, 60.2973208], [10.4435791, 60.2972912], [10.4423641, 60.2971869], [10.4418001, 60.2971317], [10.441432, 60.2970898], [10.4411014, 60.2970493], [10.4407474, 60.2970018], [10.4403303, 60.296941], [10.4399474, 60.2968805], [10.4395913, 60.2968197], [10.4393084, 60.2967705], [10.4389724, 60.2967034], [10.4385868, 60.2966277], [10.4381999, 60.2965446], [10.4378653, 60.2964675], [10.4375985, 60.2964031], [10.4368642, 60.2962127], [10.4363559, 60.2960691], [10.4357363, 60.295889], [10.4346903, 60.2955803], [10.434176, 60.2954348], [10.433722, 60.2953105], [10.4332855, 60.2951962], [10.4328503, 60.2950866], [10.4324774, 60.2949962], [10.4320738, 60.2949012], [10.4316795, 60.2948131], [10.4313442, 60.2947407], [10.4309593, 60.2946583], [10.430553, 60.2945772], [10.4300044, 60.2944722], [10.4289584, 60.2942868]]}, "properties": {"electrified": "contact_line", "frequency": "16.67", "gauge": "1435", "maxspeed": "90", "name": "Roa-H\u00f8nefossbanen", "operator": "Bane NOR", "passenger_lines": "1", "railway": "rail", "usage": "branch", "voltage": "15000", "length_km": 1.657, "maxspeed_kmh": 90.0}}, {"type": "Feature", "geometry": {"type": "LineString", "coordinates": [[10.4132809, 60.2730506], [10.4134083, 60.2729469], [10.4135987, 60.2728182], [10.4137677, 60.2727171], [10.4139896, 60.2725957], [10.4143544, 60.2724182], [10.4145677, 60.2723181], [10.4147749, 60.2722369], [10.4150471, 60.2721402], [10.4152771, 60.272066], [10.4155822, 60.2719809], [10.4158504, 60.2719124], [10.416128, 60.2718516], [10.4164318, 60.2717927], [10.4167403, 60.2717382], [10.4171433, 60.2716707], [10.4174819, 60.2716092], [10.4177628, 60.271555], [10.4180123, 60.2714964], [10.4181987, 60.2714476], [10.4183871, 60.2713934], [10.4185843, 60.2713265], [10.418766, 60.2712593], [10.4189517, 60.2711842], [10.4190832, 60.2711253], [10.4192488, 60.2710439], [10.419397, 60.2709627], [10.4195532, 60.2708686], [10.4197048, 60.2707675], [10.4198389, 60.2706658], [10.4199411, 60.2705762], [10.4200327, 60.270489], [10.4201265, 60.2703898], [10.4202318, 60.2702578], [10.4203109, 60.2701424], [10.4203773, 60.2700217], [10.4204149, 60.2699345], [10.4204558, 60.2698215], [10.4204826, 60.2697064], [10.4204994, 60.2695954], [10.4205034, 60.2694959], [10.420498, 60.2693709], [10.4204782, 60.269254], [10.4204417, 60.2691065], [10.4203233, 60.2688046], [10.420259, 60.2686494], [10.4202083, 60.2685187], [10.4201514, 60.268344], [10.4201198, 60.2682046], [10.4201031, 60.2680793], [10.4201051, 60.2679339], [10.4201178, 60.2678026], [10.420142, 60.2676902], [10.4201856, 60.2675435], [10.4202452, 60.2673975], [10.4203064, 60.2672532], [10.4203746, 60.267108]]}, "properties": {"electrified": "contact_line", "frequency": "16.67", "gauge": "1435", "maxspeed": "65", "name": "Roa-H\u00f8nefossbanen", "operator": "Bane NOR", "passenger_lines": "1", "railway": "rail", "usage": "branch", "voltage": "15000", "length_km": 0.867, "maxspeed_kmh": 65.0}}, {"type": "Feature", "geometry": {"type": "LineString", "coordinates": [[10.4858346, 60.2965139], [10.484293, 60.2967015], [10.4834779, 60.2967991], [10.4826046, 60.2969102], [10.4820299, 60.2969892], [10.4815679, 60.2970569], [10.4811559, 60.2971166], [10.4806857, 60.2971918], [10.4802513, 60.2972621], [10.4798935, 60.2973221], [10.4795006, 60.2973909], [10.4790739, 60.2974685], [10.478213, 60.2976361], [10.4776784, 60.2977481], [10.4771735, 60.2978572], [10.4767648, 60.2979482], [10.476523, 60.2980053]]}, "properties": {"electrified": "contact_line", "frequency": "16.67", "gauge": "1435", "maxspeed": "75", "name": "Roa-H\u00f8nefossbanen", "operator": "Bane NOR", "passenger_lines": "1", "railway": "rail", "usage": "branch", "voltage": "15000", "length_km": 0.542, "maxspeed_kmh": 75.0}}, {"type": "Feature", "geometry": {"type": "LineString", "coordinates": [[10.5534316, 60.2914103], [10.5530498, 60.2914663], [10.552737, 60.2915086], [10.5524775, 60.291539], [10.5521958, 60.2915689], [10.5518217, 60.2916031], [10.5515521, 60.2916257], [10.551296, 60.2916406], [10.5510706, 60.2916533], [10.5508085, 60.2916639], [10.5504859, 60.2916735], [10.5501768, 60.2916782], [10.5498395, 60.2916785], [10.5495384, 60.2916749], [10.5492474, 60.2916672], [10.5489631, 60.2916549], [10.5486882, 60.29164], [10.5484226, 60.2916234], [10.5481182, 60.2915988], [10.54788, 60.2915755]]}, "properties": {"electrified": "contact_line", "frequency": "16.67", "gauge": "1435", "maxspeed": "90", "name": "Roa-H\u00f8nefossbanen", "operator": "Bane NOR", "passenger_lines": "1", "railway": "rail", "usage": "branch", "voltage": "15000", "length_km": 0.311, "maxspeed_kmh": 90.0}}, {"type": "Feature", "geometry": {"type": "LineString", "coordinates": [[10.6161056, 60.2846762], [10.6157538, 60.2847452], [10.6155333, 60.2847838], [10.6153437, 60.2848146], [10.6152286, 60.2848318], [10.6147455, 60.2848985], [10.6144758, 60.2849343], [10.6140785, 60.284985], [10.6138472, 60.2850133]]}, "properties": {"electrified": "contact_line", "frequency": "16.67", "gauge": "1435", "maxspeed": "50", "name": "Roa-H\u00f8nefossbanen", "operator": "Bane NOR", "passenger_lines": "1", "railway": "rail", "usage": "branch", "voltage": "15000", "length_km": 0.131, "maxspeed_kmh": 50.0}}, {"type": "Feature", "geometry": {"type": "LineString", "coordinates": [[10.4239498, 60.2875179], [10.4239152, 60.2874406], [10.4238716, 60.2873535], [10.4238173, 60.2872564], [10.4237334, 60.2871242], [10.4236476, 60.2870102], [10.4235524, 60.2868952], [10.4234739, 60.2868127], [10.4233734, 60.2867104], [10.4232526, 60.2865967], [10.4231346, 60.2864937], [10.4229834, 60.286363], [10.422792, 60.2862045], [10.4201078, 60.2839892], [10.4199173, 60.2838333], [10.4197597, 60.2837066], [10.4195914, 60.2835773], [10.4194285, 60.283455], [10.4192796, 60.2833516], [10.4191204, 60.2832444], [10.4189983, 60.2831677], [10.4188257, 60.2830669], [10.4186855, 60.2829857], [10.4183848, 60.2828269], [10.4181749, 60.2827237], [10.4179556, 60.2826247]]}, "properties": {"electrified": "contact_line", "frequency": "16.67", "gauge": "1435", "maxspeed": "80", "name": "Roa-H\u00f8nefossbanen", "operator": "Bane NOR", "passenger_lines": "1", "railway": "rail", "usage": "branch", "voltage": "15000", "length_km": 0.643, "maxspeed_kmh": 80.0}}, {"type": "Feature", "geometry": {"type": "LineString", "coordinates": [[10.4239658, 60.2875582], [10.4239498, 60.2875179]]}, "properties": {"bridge": "yes", "electrified": "contact_line", "frequency": "16.67", "gauge": "1435", "maxspeed": "80", "name": "Roa-H\u00f8nefossbanen", "operator": "Bane NOR", "passenger_lines": "1", "railway": "rail", "usage": "branch", "voltage": "15000", "length_km": 0.005, "maxspeed_kmh": 80.0}}, {"type": "Feature", "geometry": {"type": "LineString", "coordinates": [[10.4126615, 60.2736788], [10.4127458, 60.2735653], [10.4129013, 60.2733884], [10.4130422, 60.2732561], [10.4132809, 60.2730506]]}, "properties": {"electrified": "contact_line", "frequency": "16.67", "gauge": "1435", "maxspeed": "65", "name": "Roa-H\u00f8nefossbanen", "operator": "Bane NOR", "passenger_lines": "1", "railway": "rail", "tunnel": "yes", "usage": "branch", "voltage": "15000", "length_km": 0.078, "maxspeed_kmh": 65.0}}, {"type": "Feature", "geometry": {"type": "LineString", "coordinates": [[10.4179556, 60.2826247], [10.4168744, 60.282164], [10.4166947, 60.2820848], [10.4165331, 60.2820041], [10.4163842, 60.2819316], [10.4162621, 60.2818625], [10.4161153, 60.2817724], [10.4159678, 60.2816773], [10.4158363, 60.2815819], [10.4157183, 60.2814812], [10.4156057, 60.2813881], [10.4155105, 60.2812963], [10.4154199, 60.2811993], [10.4153334, 60.2811022], [10.4152536, 60.2809928], [10.4151765, 60.2808755], [10.4151135, 60.2807585], [10.4150686, 60.2806544], [10.4150203, 60.2805188], [10.4149908, 60.2804304], [10.414974, 60.2803393], [10.4149559, 60.2802226], [10.4149412, 60.280092], [10.4149244, 60.2798573], [10.4149096, 60.279725], [10.4148889, 60.279577], [10.4148627, 60.2794204], [10.4148201, 60.2792672], [10.4147749, 60.2791327], [10.4147226, 60.2790004], [10.4146636, 60.2788712], [10.4145455, 60.2786581], [10.4144527, 60.278513], [10.4143538, 60.2783676], [10.4142183, 60.2781982], [10.4139005, 60.277837], [10.4137368, 60.2776491], [10.4136007, 60.2774847], [10.4134579, 60.2773034], [10.4133513, 60.2771644], [10.4132494, 60.2770198], [10.4131662, 60.2769011], [10.4130951, 60.2767881], [10.4130261, 60.2766807], [10.4129409, 60.2765361], [10.4128678, 60.2764021], [10.41279, 60.2762571], [10.4126854, 60.276038], [10.412611, 60.2758678], [10.41255, 60.2757085], [10.4124849, 60.2755317], [10.41244, 60.2753834], [10.4123917, 60.2752301], [10.4123615, 60.2750968], [10.4123394, 60.2749797], [10.4123213, 60.2748338], [10.4123113, 60.2746855], [10.4123159, 60.2745708], [10.4123347, 60.2744418], [10.4123589, 60.2743054], [10.4123957, 60.2741871], [10.4124434, 60.2740664], [10.4124903, 60.273962], [10.4125748, 60.2738057], [10.4126615, 60.2736788]]}, "properties": {"electrified": "contact_line", "frequency": "16.67", "gauge": "1435", "maxspeed": "65", "name": "Roa-H\u00f8nefossbanen", "operator": "Bane NOR", "passenger_lines": "1", "railway": "rail", "usage": "branch", "voltage": "15000", "length_km": 1.08, "maxspeed_kmh": 65.0}}, {"type": "Feature", "geometry": {"type": "LineString", "coordinates": [[10.4661174, 60.2988228], [10.4659209, 60.2988626], [10.4657529, 60.2988999], [10.4655598, 60.2989451], [10.4653513, 60.2989986], [10.46513, 60.2990594], [10.464902, 60.2991279], [10.4646814, 60.2991963], [10.4640531, 60.2993947], [10.4638237, 60.2994624], [10.4635998, 60.2995216], [10.4633939, 60.2995721], [10.4631384, 60.2996285], [10.4628669, 60.299679], [10.4625866, 60.2997212], [10.4622962, 60.2997601], [10.4620461, 60.299785], [10.4618087, 60.2998036], [10.4616203, 60.2998163], [10.4614151, 60.2998242], [10.4611798, 60.2998292], [10.4609498, 60.2998292], [10.4607131, 60.2998229], [10.4604924, 60.2998123], [10.4602856, 60.2997992], [10.4600874, 60.299783], [10.4598695, 60.2997608], [10.459675, 60.2997355], [10.4594403, 60.2997006], [10.4592331, 60.2996654], [10.4590179, 60.2996252], [10.45881, 60.2995824], [10.458537, 60.2995226], [10.4580671, 60.2994176], [10.4577646, 60.2993528], [10.4575259, 60.2993043], [10.4572064, 60.2992445], [10.4569747, 60.2992036]]}, "properties": {"electrified": "contact_line", "frequency": "16.67", "gauge": "1435", "maxspeed": "75", "name": "Roa-H\u00f8nefossbanen", "operator": "Bane NOR", "passenger_lines": "1", "railway": "rail", "usage": "branch", "voltage": "15000", "length_km": 0.544, "maxspeed_kmh": 75.0}}, {"type": "Feature", "geometry": {"type": "LineString", "coordinates": [[10.4662333, 60.2988015], [10.4661174, 60.2988228]]}, "properties": {"bridge": "yes", "electrified": "contact_line", "frequency": "16.67", "gauge": "1435", "maxspeed": "75", "name": "Roa-H\u00f8nefossbanen", "operator": "Bane NOR", "passenger_lines": "1", "railway": "rail", "usage": "branch", "voltage": "15000", "length_km": 0.007, "maxspeed_kmh": 75.0}}, {"type": "Feature", "geometry": {"type": "LineString", "coordinates": [[10.3779724, 60.2283681], [10.3782448, 60.2278819], [10.3784031, 60.2275791]]}, "properties": {"frequency": "16.67", "gauge": "1435", "maxspeed": "65", "name": "Roa-H\u00f8nefossbanen", "operator": "Bane NOR", "passenger_lines": "1", "railway": "rail", "usage": "branch", "voltage": "15000", "length_km": 0.091, "maxspeed_kmh": 65.0}}, {"type": "Feature", "geometry": {"type": "LineString", "coordinates": [[10.3774265, 60.2293544], [10.3778839, 60.2285262]]}, "properties": {"electrified": "contact_line", "frequency": "16.67", "gauge": "1435", "maxspeed": "65", "name": "Roa-H\u00f8nefossbanen", "operator": "Bane NOR", "passenger_lines": "1", "railway": "rail", "usage": "branch", "voltage": "15000", "length_km": 0.096, "maxspeed_kmh": 65.0}}, {"type": "Feature", "geometry": {"type": "LineString", "coordinates": [[10.3784031, 60.2275791], [10.3784313, 60.2275265], [10.3785121, 60.2273691], [10.3785536, 60.2272733], [10.3785952, 60.227159], [10.378623, 60.227065], [10.3786425, 60.2269613], [10.3786499, 60.2268704], [10.3786509, 60.2267791], [10.3786468, 60.2266876], [10.3786348, 60.2265993], [10.3786127, 60.2265091], [10.3785865, 60.2264242], [10.3785496, 60.2263313], [10.3785007, 60.226233], [10.3784443, 60.2261368], [10.3783786, 60.2260436], [10.3782787, 60.2259167], [10.3781594, 60.2257868], [10.3780393, 60.2256563], [10.37791, 60.2255228], [10.3766084, 60.2241795], [10.3764263, 60.2239903], [10.3762429, 60.2238045], [10.3760887, 60.2236487], [10.3759593, 60.2235318], [10.3757963, 60.2233884], [10.3756941, 60.2233062], [10.3755368, 60.2231895], [10.3753692, 60.2230772], [10.3752056, 60.2229723], [10.3750299, 60.2228691], [10.374881, 60.2227888], [10.3746544, 60.222673], [10.3744049, 60.2225571], [10.3741803, 60.2224548], [10.3738618, 60.222314], [10.3734856, 60.2221458], [10.372942, 60.2219062], [10.3699358, 60.2205699], [10.3693664, 60.2203171], [10.3690291, 60.2201636], [10.3687328, 60.2200257], [10.3683934, 60.2198618], [10.3681641, 60.2197433], [10.3679717, 60.2196407], [10.3677886, 60.2195418], [10.3676102, 60.2194419], [10.3674828, 60.2193676], [10.3673392, 60.2192828]]}, "properties": {"electrified": "contact_line", "frequency": "16.67", "gauge": "1435", "maxspeed": "65", "name": "Roa-H\u00f8nefossbanen", "operator": "Bane NOR", "passenger_lines": "1", "railway": "rail", "usage": "branch", "voltage": "15000", "length_km": 1.16, "maxspeed_kmh": 65.0}}, {"type": "Feature", "geometry": {"type": "LineString", "coordinates": [[10.3782314, 60.2339134], [10.3781891, 60.2338903]]}, "properties": {"bridge": "yes", "electrified": "contact_line", "frequency": "16.67", "gauge": "1435", "maxspeed": "80", "name": "Roa-H\u00f8nefossbanen", "operator": "Bane NOR", "passenger_lines": "1", "railway": "rail", "usage": "branch", "voltage": "15000", "length_km": 0.003, "maxspeed_kmh": 80.0}}, {"type": "Feature", "geometry": {"type": "LineString", "coordinates": [[10.3781891, 60.2338903], [10.3780705, 60.233822], [10.3779418, 60.2337434], [10.3778033, 60.2336567], [10.3776859, 60.2335744], [10.3775706, 60.2334902], [10.3774774, 60.2334156], [10.3773614, 60.2333228], [10.37723, 60.2332029], [10.3771327, 60.233107], [10.3770013, 60.2329682], [10.3769175, 60.2328683], [10.3768451, 60.2327761], [10.3767733, 60.2326709], [10.376719, 60.2325894], [10.3766694, 60.2325001], [10.3766204, 60.2324066], [10.3765809, 60.2323184], [10.3765433, 60.2322265], [10.3765111, 60.2321346], [10.376479, 60.2320214], [10.3764588, 60.2319302], [10.3764454, 60.2318346], [10.376434, 60.2317168], [10.3764313, 60.2316022], [10.3764347, 60.2314894], [10.3764481, 60.2313792], [10.3764682, 60.231274], [10.3764887, 60.2311876], [10.3765078, 60.2311122], [10.3765356, 60.2310369], [10.3765675, 60.230959], [10.376609, 60.2308631], [10.3766476, 60.2307839], [10.3767048, 60.2306664], [10.3769859, 60.2301553]]}, "properties": {"electrified": "contact_line", "frequency": "16.67", "gauge": "1435", "maxspeed": "80", "name": "Roa-H\u00f8nefossbanen", "operator": "Bane NOR", "passenger_lines": "1", "railway": "rail", "usage": "branch", "voltage": "15000", "length_km": 0.444, "maxspeed_kmh": 80.0}}, {"type": "Feature", "geometry": {"type": "LineString", "coordinates": [[10.3998021, 60.2378117], [10.3994762, 60.2376606], [10.3992459, 60.2375561], [10.3990159, 60.2374577], [10.398858, 60.2373943], [10.3986789, 60.2373317], [10.3985012, 60.2372731], [10.3983591, 60.2372312], [10.3981894, 60.2371853], [10.3980473, 60.2371503], [10.3979038, 60.2371187], [10.3977294, 60.2370851], [10.3975618, 60.2370551], [10.397374, 60.2370265], [10.3972118, 60.2370055], [10.3970139, 60.2369842], [10.3968322, 60.2369689], [10.3966364, 60.2369573], [10.396444, 60.2369483], [10.3962569, 60.2369426], [10.3960229, 60.2369386], [10.3957956, 60.2369393], [10.3955776, 60.2369396], [10.3953798, 60.2369423], [10.3951612, 60.2369469], [10.3949238, 60.2369536], [10.3946643, 60.2369616], [10.394439, 60.2369702], [10.3941561, 60.2369832], [10.393916, 60.2369982], [10.3936578, 60.2370155], [10.3933883, 60.2370338], [10.3927499, 60.2370811], [10.3925219, 60.2370971], [10.3923368, 60.237107], [10.3921109, 60.2371165], [10.3919821, 60.23712], [10.3918252, 60.2371204], [10.3916764, 60.23712], [10.3915221, 60.2371154], [10.3913853, 60.2371104], [10.391205, 60.2370994], [10.3910212, 60.2370834], [10.3908663, 60.2370688], [10.3907208, 60.2370508], [10.3905646, 60.23703], [10.390406, 60.2370059], [10.39023, 60.2369739], [10.3900697, 60.2369426], [10.3899302, 60.2369113], [10.3897606, 60.2368704], [10.3895923, 60.2368248], [10.3894038, 60.2367715], [10.3892201, 60.2367146], [10.3889787, 60.2366367]]}, "properties": {"electrified": "contact_line", "frequency": "16.67", "gauge": "1435", "maxspeed": "65", "name": "Roa-H\u00f8nefossbanen", "operator": "Bane NOR", "passenger_lines": "1", "railway": "rail", "usage": "branch", "voltage": "15000", "length_km": 0.641, "maxspeed_kmh": 65.0}}, {"type": "Feature", "geometry": {"type": "LineString", "coordinates": [[10.3315254, 60.1969847], [10.3308201, 60.19685]]}, "properties": {"electrified": "contact_line", "frequency": "16.67", "gauge": "1435", "maxspeed": "65", "name": "Roa-H\u00f8nefossbanen", "operator": "Bane NOR", "passenger_lines": "1", "railway": "rail", "usage": "branch", "voltage": "15000", "length_km": 0.042, "maxspeed_kmh": 65.0}}, {"type": "Feature", "geometry": {"type": "LineString", "coordinates": [[10.3308201, 60.19685], [10.3304677, 60.1967817], [10.3301311, 60.1967143], [10.3299095, 60.1966664], [10.3297415, 60.1966264], [10.329572, 60.1965809]]}, "properties": {"electrified": "contact_line", "frequency": "16.67", "gauge": "1435", "maxspeed": "65", "name": "Roa-H\u00f8nefossbanen", "operator": "Bane NOR", "passenger_lines": "1", "railway": "rail", "usage": "branch", "voltage": "15000", "length_km": 0.076, "maxspeed_kmh": 65.0}}, {"type": "Feature", "geometry": {"type": "LineString", "coordinates": [[10.329572, 60.1965809], [10.3294162, 60.1965374], [10.3292754, 60.1964937], [10.3291474, 60.1964511], [10.3290001, 60.1963996], [10.3288362, 60.1963347], [10.3287098, 60.1962796], [10.3285546, 60.1962054], [10.3283996, 60.1961223], [10.328278, 60.1960509], [10.328136, 60.1959607], [10.3279746, 60.1958485], [10.3278319, 60.1957252], [10.3277184, 60.1956192], [10.3276071, 60.1954972], [10.3274851, 60.1953525], [10.3273617, 60.1951866], [10.3272142, 60.1950112]]}, "properties": {"electrified": "contact_line", "frequency": "16.67", "gauge": "1435", "maxspeed": "65", "name": "Roa-H\u00f8nefossbanen", "operator": "Bane NOR", "passenger_lines": "1", "railway": "rail", "usage": "branch", "voltage": "15000", "length_km": 0.224, "maxspeed_kmh": 65.0}}, {"type": "Feature", "geometry": {"type": "LineString", "coordinates": [[10.3215145, 60.19365], [10.32035, 60.1937257], [10.3197985, 60.1937624], [10.3193715, 60.1937929], [10.3189684, 60.1938163]]}, "properties": {"electrified": "contact_line", "frequency": "16.67", "gauge": "1435", "maxspeed": "65", "name": "Roa-H\u00f8nefossbanen", "operator": "Bane NOR", "passenger_lines": "1", "railway": "rail", "usage": "branch", "voltage": "15000", "length_km": 0.143, "maxspeed_kmh": 65.0}}, {"type": "Feature", "geometry": {"type": "LineString", "coordinates": [[10.3189684, 60.1938163], [10.3188782, 60.1938213], [10.3188315, 60.193824]]}, "properties": {"electrified": "contact_line", "frequency": "16.67", "gauge": "1435", "maxspeed": "65", "name": "Roa-H\u00f8nefossbanen", "operator": "Bane NOR", "passenger_lines": "1", "railway": "rail", "usage": "branch", "voltage": "15000", "length_km": 0.008, "maxspeed_kmh": 65.0}}, {"type": "Feature", "geometry": {"type": "LineString", "coordinates": [[10.3188315, 60.193824], [10.3185929, 60.193832], [10.3183318, 60.1938371], [10.3180773, 60.1938352], [10.3178678, 60.1938298], [10.3176875, 60.1938214], [10.3174718, 60.1938074], [10.3171655, 60.1937812]]}, "properties": {"electrified": "contact_line", "frequency": "16.67", "gauge": "1435", "maxspeed": "65", "name": "Roa-H\u00f8nefossbanen", "operator": "Bane NOR", "passenger_lines": "1", "railway": "rail", "usage": "branch", "voltage": "15000", "length_km": 0.093, "maxspeed_kmh": 65.0}}, {"type": "Feature", "geometry": {"type": "LineString", "coordinates": [[10.3171655, 60.1937812], [10.3169145, 60.1937517], [10.3166843, 60.1937206], [10.3164022, 60.1936757], [10.3161338, 60.193627], [10.3159033, 60.1935794], [10.3156458, 60.193524], [10.3154285, 60.193472], [10.3150531, 60.1933769], [10.3145997, 60.1932604], [10.314066, 60.1931214], [10.3131978, 60.192888], [10.3129052, 60.1928074], [10.3127235, 60.1927554], [10.3125331, 60.1926974], [10.3123601, 60.1926404], [10.3121797, 60.1925751], [10.3120496, 60.1925241], [10.3118022, 60.1924164], [10.3116533, 60.1923421], [10.3115179, 60.1922664], [10.3113898, 60.1921908], [10.3112745, 60.1921151], [10.3111846, 60.1920491], [10.3111035, 60.1919868], [10.3110183, 60.1919134], [10.3109291, 60.1918321], [10.310844, 60.1917367], [10.3106529, 60.1915174], [10.3104236, 60.1912279], [10.310339, 60.1911221], [10.3102612, 60.1910321], [10.3101848, 60.1909474], [10.3100842, 60.1908461], [10.3099614, 60.1907329], [10.3098428, 60.1906334], [10.3096909, 60.1905149], [10.3095604, 60.1904244]]}, "properties": {"electrified": "contact_line", "frequency": "16.67", "gauge": "1435", "maxspeed": "65", "name": "Roa-H\u00f8nefossbanen", "operator": "Bane NOR", "passenger_lines": "1", "railway": "rail", "usage": "branch", "voltage": "15000", "length_km": 0.593, "maxspeed_kmh": 65.0}}, {"type": "Feature", "geometry": {"type": "LineString", "coordinates": [[10.3254383, 60.1939259], [10.3250858, 60.19382], [10.3246996, 60.1937267], [10.3242785, 60.1936547], [10.3239056, 60.193604], [10.3235757, 60.1935802], [10.3231278, 60.1935734], [10.3227482, 60.1935815], [10.3222332, 60.1936047]]}, "properties": {"electrified": "contact_line", "frequency": "16.67", "gauge": "1435", "maxspeed": "65", "name": "Roa-H\u00f8nefossbanen", "operator": "Bane NOR", "passenger_lines": "1", "railway": "rail", "tunnel": "yes", "usage": "branch", "voltage": "15000", "length_km": 0.186, "maxspeed_kmh": 65.0}}, {"type": "Feature", "geometry": {"type": "LineString", "coordinates": [[10.3263086, 60.1942857], [10.3261561, 60.1942124], [10.3259654, 60.1941243], [10.3257966, 60.194054], [10.3256293, 60.193988], [10.3254383, 60.1939259]]}, "properties": {"electrified": "contact_line", "frequency": "16.67", "gauge": "1435", "maxspeed": "65", "name": "Roa-H\u00f8nefossbanen", "operator": "Bane NOR", "passenger_lines": "1", "railway": "rail", "usage": "branch", "voltage": "15000", "length_km": 0.063, "maxspeed_kmh": 65.0}}, {"type": "Feature", "geometry": {"type": "LineString", "coordinates": [[10.249332, 60.1694739], [10.2491981, 60.1694487], [10.2489835, 60.1694081], [10.2488159, 60.1693803], [10.2485597, 60.1693435], [10.2482821, 60.1693086], [10.2480266, 60.1692836], [10.247808, 60.1692622], [10.2474929, 60.1692416], [10.2459638, 60.1691402], [10.2453449, 60.1691036]]}, "properties": {"electrified": "contact_line", "frequency": "16.67", "gauge": "1435", "name": "Roa-H\u00f8nefossbanen", "operator": "Bane NOR", "passenger_lines": "2", "railway": "rail", "usage": "branch", "voltage": "15000", "length_km": 0.226}}, {"type": "Feature", "geometry": {"type": "LineString", "coordinates": [[10.2501629, 60.1696786], [10.2498907, 60.1696063], [10.2495758, 60.1695285], [10.2494843, 60.1695085]]}, "properties": {"bridge": "yes", "electrified": "contact_line", "frequency": "16.67", "gauge": "1435", "name": "Roa-H\u00f8nefossbanen", "operator": "Bane NOR", "passenger_lines": "1", "railway": "rail", "usage": "branch", "voltage": "15000", "length_km": 0.042}}, {"type": "Feature", "geometry": {"type": "LineString", "coordinates": [[10.2513075, 60.1699894], [10.2504353, 60.1697504]]}, "properties": {"bridge": "yes", "electrified": "contact_line", "frequency": "16.67", "gauge": "1435", "name": "Roa-H\u00f8nefossbanen", "operator": "Bane NOR", "passenger_lines": "1", "railway": "rail", "usage": "branch", "voltage": "15000", "length_km": 0.055}}, {"type": "Feature", "geometry": {"type": "LineString", "coordinates": [[10.3044116, 60.1875467], [10.3042638, 60.1874625], [10.3041001, 60.1873584]]}, "properties": {"electrified": "contact_line", "frequency": "16.67", "gauge": "1435", "maxspeed": "65", "name": "Roa-H\u00f8nefossbanen", "operator": "Bane NOR", "passenger_lines": "1", "railway": "rail", "usage": "branch", "voltage": "15000", "length_km": 0.027, "maxspeed_kmh": 65.0}}, {"type": "Feature", "geometry": {"type": "LineString", "coordinates": [[10.3414315, 60.2004975], [10.3412807, 60.2004492], [10.3411073, 60.2003989], [10.3409585, 60.2003593], [10.340764, 60.2003146], [10.3405548, 60.2002713], [10.3403583, 60.2002359], [10.3401478, 60.2002033], [10.3399479, 60.2001759], [10.3393887, 60.2001046], [10.3391225, 60.2000696], [10.3389263, 60.2000418], [10.338802, 60.2000233], [10.338639, 60.199997], [10.3384935, 60.1999713], [10.3383607, 60.1999447], [10.3382025, 60.1999107], [10.3380389, 60.1998714], [10.3378696, 60.1998255], [10.3376949, 60.1997734], [10.337538, 60.1997217], [10.3373915, 60.1996695], [10.3372211, 60.1996031], [10.3370693, 60.1995374], [10.3369442, 60.1994785], [10.3368071, 60.1994088], [10.3366777, 60.1993375], [10.3365643, 60.1992678], [10.3364423, 60.1991882], [10.3363247, 60.1991038], [10.3361828, 60.1989956], [10.3360072, 60.1988546], [10.3357013, 60.198609], [10.3355196, 60.1984657], [10.335347, 60.1983419], [10.3351749, 60.1982301], [10.3350019, 60.1981221], [10.3348141, 60.1980184], [10.3346412, 60.1979295], [10.3344387, 60.1978295], [10.3342158, 60.1977289], [10.3340028, 60.1976422], [10.3337574, 60.1975489], [10.3335442, 60.1974736], [10.3332564, 60.1973828], [10.3330533, 60.1973229], [10.3328629, 60.1972696], [10.3326973, 60.1972283], [10.332481, 60.1971786], [10.3323301, 60.1971458], [10.3321338, 60.1971048]]}, "properties": {"electrified": "contact_line", "frequency": "16.67", "gauge": "1435", "maxspeed": "65", "name": "Roa-H\u00f8nefossbanen", "operator": "Bane NOR", "passenger_lines": "1", "railway": "rail", "usage": "branch", "voltage": "15000", "length_km": 0.66, "maxspeed_kmh": 65.0}}, {"type": "Feature", "geometry": {"type": "LineString", "coordinates": [[10.3414887, 60.2005175], [10.3414315, 60.2004975]]}, "properties": {"bridge": "yes", "electrified": "contact_line", "frequency": "16.67", "gauge": "1435", "maxspeed": "65", "name": "Roa-H\u00f8nefossbanen", "operator": "Bane NOR", "passenger_lines": "1", "railway": "rail", "usage": "branch", "voltage": "15000", "length_km": 0.004, "maxspeed_kmh": 65.0}}, {"type": "Feature", "geometry": {"type": "LineString", "coordinates": [[10.3545188, 60.2074738], [10.3544833, 60.2074365]]}, "properties": {"bridge": "yes", "electrified": "contact_line", "frequency": "16.67", "gauge": "1435", "maxspeed": "65", "name": "Roa-H\u00f8nefossbanen", "operator": "Bane NOR", "passenger_lines": "1", "railway": "rail", "usage": "branch", "voltage": "15000", "length_km": 0.005, "maxspeed_kmh": 65.0}}, {"type": "Feature", "geometry": {"type": "LineString", "coordinates": [[10.3672619, 60.2192345], [10.3670436, 60.2191015], [10.3668894, 60.2190002], [10.3666922, 60.2188697], [10.3659131, 60.2183255], [10.3657414, 60.2182076], [10.3655711, 60.2180933], [10.3654464, 60.2180137], [10.3653418, 60.2179504], [10.3652117, 60.2178748], [10.3650809, 60.2178037], [10.3649391, 60.2177303], [10.3648013, 60.217663], [10.3646521, 60.2175941], [10.3644878, 60.2175219], [10.3643178, 60.2174527], [10.3641428, 60.2173842], [10.3639631, 60.2173206], [10.3638008, 60.217265], [10.3636184, 60.2172067], [10.3634139, 60.2171474], [10.3632496, 60.2171018], [10.3631202, 60.2170678], [10.3629006, 60.2170136], [10.3626595, 60.2169582], [10.3624745, 60.2169159], [10.3621935, 60.2168588], [10.3618737, 60.2167937], [10.3594168, 60.2162927], [10.3587569, 60.2161572], [10.3584994, 60.2161045], [10.358301, 60.2160612], [10.3581803, 60.2160343], [10.358024, 60.2159988], [10.3579033, 60.215969], [10.3577551, 60.215929], [10.357617, 60.21589], [10.3574621, 60.2158421], [10.3573152, 60.2157918], [10.3571536, 60.2157318], [10.3569592, 60.2156489], [10.3567889, 60.2155699], [10.3566755, 60.2155106], [10.3565636, 60.2154497], [10.356465, 60.2153904], [10.3563859, 60.2153411], [10.3562792, 60.2152682], [10.3562001, 60.2152095], [10.3561099, 60.2151364], [10.3560298, 60.2150676], [10.3559446, 60.214992], [10.3558782, 60.2149251], [10.3558152, 60.2148548], [10.3557435, 60.2147658], [10.3556992, 60.2147062], [10.3556476, 60.2146279], [10.3556033, 60.2145523], [10.3555651, 60.2144724], [10.3555235, 60.2143711], [10.3554947, 60.2142839], [10.3554726, 60.2141902], [10.3554571, 60.2140923], [10.3554518, 60.2139757], [10.3554558, 60.2138678], [10.3554665, 60.2137689], [10.355488, 60.2136533], [10.3555195, 60.2135114], [10.355599, 60.2131923], [10.3556164, 60.2131226], [10.3556352, 60.213034], [10.355659, 60.2128968], [10.355668, 60.2127875], [10.3556761, 60.2126499], [10.3556757, 60.2125535], [10.3556742, 60.2124613], [10.3556684, 60.212342], [10.3556509, 60.2121919], [10.3556355, 60.2120906], [10.3556003, 60.2119194], [10.3555671, 60.2117802], [10.3555348, 60.2116689], [10.3554977, 60.2115513], [10.3553517, 60.2111247], [10.3553462, 60.2111086], [10.3553029, 60.210974], [10.3552694, 60.2108652], [10.3552332, 60.2107275], [10.3552023, 60.2106062], [10.3551789, 60.2105059], [10.3551581, 60.2103967], [10.3551383, 60.2102709], [10.3551202, 60.21015], [10.3551125, 60.2100762], [10.3551024, 60.2099942], [10.3550964, 60.2099066], [10.355092, 60.2098326], [10.35509, 60.2097465], [10.3550873, 60.2096456], [10.3550873, 60.2095598], [10.3550883, 60.2094815], [10.3550917, 60.2093757], [10.3551018, 60.2091915], [10.3551172, 60.2089101], [10.3551172, 60.2088062], [10.3551138, 60.2087122], [10.3551031, 60.2085773], [10.355081, 60.208462], [10.3550572, 60.2083714], [10.3550334, 60.2082991], [10.3550099, 60.2082315], [10.3549851, 60.2081669], [10.3549401, 60.2080679], [10.3548865, 60.2079636], [10.3548302, 60.207872], [10.3547604, 60.2077657], [10.3546793, 60.2076575], [10.3546008, 60.2075625], [10.3545188, 60.2074738]]}, "properties": {"electrified": "contact_line", "frequency": "16.67", "gauge": "1435", "maxspeed": "65", "name": "Roa-H\u00f8nefossbanen", "operator": "Bane NOR", "passenger_lines": "1", "railway": "rail", "usage": "branch", "voltage": "15000", "length_km": 1.658, "maxspeed_kmh": 65.0}}, {"type": "Feature", "geometry": {"type": "LineString", "coordinates": [[10.3778839, 60.2285262], [10.3779724, 60.2283681]]}, "properties": {"frequency": "16.67", "gauge": "1435", "maxspeed": "65", "name": "Roa-H\u00f8nefossbanen", "operator": "Bane NOR", "passenger_lines": "1", "railway": "rail", "usage": "branch", "voltage": "15000", "length_km": 0.018, "maxspeed_kmh": 65.0}}]}