{"type": "FeatureCollection", "features": [{"type": "Feature", "geometry": {"type": "LineString", "coordinates": [[10.8000608, 59.9074796], [10.7973863, 59.9065231], [10.7969426, 59.9063675], [10.7966141, 59.9062563], [10.7962955, 59.9061543], [10.7959786, 59.9060569], [10.7957104, 59.9059823], [10.7952321, 59.9058582], [10.7948618, 59.9057752], [10.7945505, 59.9057088]]}, "properties": {"electrified": "contact_line", "frequency": "16.67", "gauge": "1435", "maxspeed": "110", "name": "Romeriksporten", "operator": "Bane NOR", "railway": "rail", "tunnel": "yes", "usage": "main", "voltage": "15000", "length_km": 0.367, "maxspeed_kmh": 110.0}}, {"type": "Feature", "geometry": {"type": "LineString", "coordinates": [[10.8000608, 59.9074796], [10.7989633, 59.9071233], [10.7983912, 59.9069561], [10.7978658, 59.9068139], [10.7972687, 59.9066633], [10.7968117, 59.9065555], [10.7963147, 59.9064509], [10.7959244, 59.9063757], [10.7955187, 59.9063029], [10.7951118, 59.906239], [10.7946534, 59.9061746]]}, "properties": {"electrified": "contact_line", "frequency": "16.67", "gauge": "1435", "maxspeed": "110", "name": "Romeriksporten", "operator": "Bane NOR", "passenger_lines": "1", "railway": "rail", "tunnel": "yes", "usage": "main", "voltage": "15000", "length_km": 0.337, "maxspeed_kmh": 110.0}}, {"type": "Feature", "geometry": {"type": "LineString", "coordinates": [[10.7945791, 59.905669], [10.794897, 59.9057391], [10.7953, 59.9058284], [10.7957695, 59.9059504], [10.7960266, 59.9060236], [10.7963357, 59.9061171], [10.7966558, 59.9062196], [10.7969858, 59.9063313], [10.7974303, 59.9064871], [10.8001052, 59.9074438], [10.8005079, 59.9075887], [10.8010247, 59.9077725], [10.801559, 59.9079611], [10.8018868, 59.9080811], [10.8022332, 59.9081956], [10.8027119, 59.9083437], [10.8031391, 59.9084624], [10.8035778, 59.9085728], [10.8039869, 59.9086634], [10.8044376, 59.9087556], [10.8049156, 59.9088393], [10.8052529, 59.9088881], [10.805641, 59.9089409], [10.8060262, 59.9089849], [10.8064088, 59.9090236], [10.8067471, 59.9090502], [10.8071112, 59.9090729], [10.8074481, 59.9090883], [10.8078416, 59.9091003], [10.8081893, 59.9091049], [10.8085374, 59.9091045], [10.8089517, 59.9090987], [10.8093063, 59.9090878], [10.809703, 59.9090696], [10.8101278, 59.9090478], [10.8130506, 59.9088913], [10.8153204, 59.9087714]]}, "properties": {"electrified": "contact_line", "frequency": "16.67", "gauge": "1435", "maxspeed": "110", "name": "Romeriksporten", "operator": "Bane NOR", "passenger_lines": "2", "railway": "rail", "tunnel": "yes", "usage": "main", "voltage": "15000", "length_km": 1.268, "maxspeed_kmh": 110.0}}, {"type": "Feature", "geometry": {"type": "LineString", "coordinates": [[11.0319438, 59.9525409], [11.0314788, 59.9525523], [11.0302122, 59.952586], [11.0291375, 59.9526112], [11.0280574, 59.9526421], [11.0274821, 59.9526567], [11.0269252, 59.9526701], [11.0262551, 59.9526846], [11.0255482, 59.9526915], [11.024763, 59.9526938], [11.0242604, 59.9526889], [11.0237997, 59.9526825], [11.0233934, 59.9526732], [11.0229516, 59.9526582], [11.0223846, 59.9526359], [11.0218193, 59.9526084], [11.0212313, 59.9525726], [11.0207228, 59.9525378], [11.0202119, 59.9524988]]}, "properties": {"electrified": "contact_line", "frequency": "16.67", "gauge": "1435", "maxspeed": "190", "name": "Romeriksporten", "operator": "Bane NOR", "passenger_lines": "2", "railway": "rail", "tunnel": "yes", "usage": "main", "voltage": "15000", "length_km": 0.657, "maxspeed_kmh": 190.0}}, {"type": "Feature", "geometry": {"type": "LineString", "coordinates": [[11.0255484, 59.9524901], [11.0266426, 59.95246], [11.0271051, 59.9524452], [11.0275688, 59.9524285], [11.0294357, 59.9523654], [11.0298989, 59.9523489], [11.0303657, 59.952336], [11.030822, 59.9523262], [11.0312801, 59.9523217], [11.0316931, 59.9523201], [11.0321096, 59.9523212], [11.0323202, 59.9523188], [11.0326644, 59.9523129], [11.0328584, 59.9523092], [11.0330529, 59.9523034]]}, "properties": {"electrified": "contact_line", "frequency": "16.67", "gauge": "1435", "name": "Romeriksporten", "operator": "Bane NOR", "railway": "rail", "usage": "main", "voltage": "15000", "length_km": 0.42}}, {"type": "Feature", "geometry": {"type": "LineString", "coordinates": [[11.01992, 59.9524314], [11.0203285, 59.9524653], [11.0212205, 59.9525292], [11.0218365, 59.952566], [11.0223929, 59.9525927], [11.0229834, 59.9526167], [11.0233981, 59.9526297], [11.0238081, 59.9526393], [11.0242799, 59.9526469], [11.0247785, 59.9526495], [11.0255681, 59.9526496], [11.0262548, 59.9526401], [11.026906, 59.9526289], [11.02748, 59.9526158], [11.0280579, 59.9526007], [11.0291292, 59.9525705], [11.030222, 59.9525411], [11.0314776, 59.9525077], [11.0319377, 59.9524949]]}, "properties": {"electrified": "contact_line", "frequency": "16.67", "gauge": "1435", "maxspeed": "160", "name": "Romeriksporten", "operator": "Bane NOR", "passenger_lines": "2", "railway": "rail", "tunnel": "yes", "usage": "main", "voltage": "15000", "length_km": 0.674, "maxspeed_kmh": 160.0}}, {"type": "Feature", "geometry": {"type": "LineString", "coordinates": [[11.0332292, 59.9523387], [11.0330693, 59.9523453], [11.0329084, 59.952353], [11.0326342, 59.9523668], [11.0323056, 59.9523879], [11.0320761, 59.9524044], [11.0316635, 59.9524343], [11.0312521, 59.952466], [11.0308582, 59.9524985], [11.0304651, 59.952534], [11.0296584, 59.9526105], [11.0294397, 59.9526305], [11.029221, 59.952649], [11.029001, 59.9526665], [11.0287809, 59.9526827], [11.0285658, 59.952698], [11.0283535, 59.9527112], [11.0281391, 59.9527241], [11.027926, 59.9527356], [11.0277106, 59.9527459], [11.0274952, 59.9527548], [11.0272798, 59.9527626], [11.0270644, 59.9527698], [11.0268463, 59.9527759], [11.0266296, 59.9527806], [11.0264128, 59.952785], [11.0261961, 59.9527881], [11.0259777, 59.9527895], [11.0257608, 59.9527889], [11.0255424, 59.9527883], [11.0253255, 59.9527863], [11.0249867, 59.9527826]]}, "properties": {"electrified": "contact_line", "frequency": "16.67", "gauge": "1435", "name": "Romeriksporten", "operator": "Bane NOR", "railway": "rail", "usage": "main", "voltage": "15000", "length_km": 0.464}}, {"type": "Feature", "geometry": {"type": "LineString", "coordinates": [[11.0189277, 59.9523382], [11.0195659, 59.9524026], [11.01992, 59.9524314]]}, "properties": {"electrified": "contact_line", "frequency": "16.67", "gauge": "1435", "maxspeed": "160", "name": "Romeriksporten", "operator": "Bane NOR", "passenger_lines": "2", "railway": "rail", "tunnel": "yes", "usage": "main", "voltage": "15000", "length_km": 0.056, "maxspeed_kmh": 160.0}}, {"type": "Feature", "geometry": {"type": "LineString", "coordinates": [[11.0249867, 59.9527826], [11.0245395, 59.9527726], [11.0241336, 59.9527588], [11.0237544, 59.9527418], [11.0234122, 59.9527264], [11.0231092, 59.9527095], [11.0228016, 59.9526884], [11.0224169, 59.9526662], [11.021847, 59.9526269], [11.0212284, 59.9525825], [11.0204394, 59.952519], [11.0202119, 59.9524988]]}, "properties": {"electrified": "contact_line", "frequency": "16.67", "gauge": "1435", "name": "Romeriksporten", "operator": "Bane NOR", "railway": "rail", "tunnel": "yes", "usage": "main", "voltage": "15000", "length_km": 0.269}}, {"type": "Feature", "geometry": {"type": "LineString", "coordinates": [[11.01992, 59.9524314], [11.0206121, 59.9524801], [11.021243, 59.9525181], [11.0218586, 59.9525491], [11.0224023, 59.952563], [11.0229989, 59.9525648], [11.0234494, 59.9525639], [11.0240358, 59.9525516], [11.0245052, 59.9525347], [11.0255484, 59.9524901]]}, "properties": {"electrified": "contact_line", "frequency": "16.67", "gauge": "1435", "name": "Romeriksporten", "operator": "Bane NOR", "railway": "rail", "tunnel": "yes", "usage": "main", "voltage": "15000", "length_km": 0.316}}, {"type": "Feature", "geometry": {"type": "LineString", "coordinates": [[11.0189103, 59.9523799], [11.0185975, 59.9523481], [11.0180807, 59.9522905], [11.017525, 59.9522236], [11.0169569, 59.9521517], [11.0162908, 59.9520623], [11.0125185, 59.9515429], [11.0099286, 59.95119], [11.0068246, 59.9507644], [11.0058397, 59.9506213], [11.0047314, 59.9504488], [11.0036463, 59.9502642], [11.0026584, 59.9500819], [11.0016859, 59.9498913], [11.0005468, 59.9496469], [10.9994896, 59.9494093], [10.9984529, 59.9491537], [10.9899738, 59.9469534], [10.9876617, 59.9463503], [10.9853606, 59.9457501], [10.9664125, 59.9408093], [10.9429829, 59.9345496], [10.9243564, 59.9298629], [10.863353, 59.9139191], [10.8621992, 59.9136179], [10.8582041, 59.9125751], [10.8572468, 59.9123252], [10.8560462, 59.9120107], [10.8524474, 59.9110682], [10.8508578, 59.9106599], [10.8476079, 59.9099171], [10.8469463, 59.9097834], [10.8461116, 59.9096247], [10.8451051, 59.9094463], [10.8442649, 59.9093018], [10.8432323, 59.9091444], [10.8413426, 59.9088808], [10.8404756, 59.9087756], [10.8385544, 59.9085722], [10.8374968, 59.90848], [10.8355658, 59.90834], [10.8336057, 59.908239], [10.8325476, 59.9082054], [10.8302323, 59.9081694], [10.8289683, 59.9081755], [10.8277317, 59.9081959], [10.8260374, 59.9082541], [10.8236062, 59.9083765], [10.8226336, 59.9084335]]}, "properties": {"electrified": "contact_line", "frequency": "16.67", "gauge": "1435", "maxspeed": "210", "name": "Romeriksporten", "operator": "Bane NOR", "passenger_lines": "2", "railway": "rail", "tunnel": "yes", "usage": "main", "voltage": "15000", "length_km": 12.129, "maxspeed_kmh": 210.0}}, {"type": "Feature", "geometry": {"type": "LineString", "coordinates": [[11.0202119, 59.9524988], [11.0199737, 59.9524789], [11.0195502, 59.952442], [11.0189103, 59.9523799]]}, "properties": {"electrified": "contact_line", "frequency": "16.67", "gauge": "1435", "maxspeed": "190", "name": "Romeriksporten", "operator": "Bane NOR", "passenger_lines": "2", "railway": "rail", "tunnel": "yes", "usage": "main", "voltage": "15000", "length_km": 0.074, "maxspeed_kmh": 190.0}}, {"type": "Feature", "geometry": {"type": "LineString", "coordinates": [[10.8153281, 59.9088143], [10.8130616, 59.9089345], [10.8101427, 59.9090892], [10.8097208, 59.9091106], [10.8093179, 59.9091298], [10.8089581, 59.909142], [10.8085411, 59.9091478], [10.8081909, 59.9091482], [10.8078406, 59.9091436], [10.8074445, 59.9091315], [10.8071051, 59.909116], [10.8067383, 59.9090932], [10.806397, 59.9090663], [10.8060117, 59.9090274], [10.805624, 59.9089831], [10.8052337, 59.90893], [10.8048936, 59.9088808], [10.8044116, 59.9087963], [10.8039579, 59.9087035], [10.8035459, 59.9086123], [10.8031039, 59.9085011], [10.8026736, 59.9083815], [10.8021924, 59.9082326], [10.8018433, 59.9081173], [10.8015145, 59.9079969], [10.8009807, 59.9078085], [10.8004636, 59.9076245], [10.8000608, 59.9074796]]}, "properties": {"electrified": "contact_line", "frequency": "16.67", "gauge": "1435", "maxspeed": "110", "name": "Romeriksporten", "operator": "Bane NOR", "passenger_lines": "2", "railway": "rail", "tunnel": "yes", "usage": "main", "voltage": "15000", "length_km": 0.903, "maxspeed_kmh": 110.0}}, {"type": "Feature", "geometry": {"type": "LineString", "coordinates": [[10.8226296, 59.9083854], [10.8235951, 59.908331], [10.826029, 59.9082138], [10.8277251, 59.9081555], [10.8289696, 59.9081346], [10.8302275, 59.9081289], [10.8325489, 59.9081648], [10.8336197, 59.9082013], [10.8355745, 59.9082997], [10.8375143, 59.9084403], [10.8385776, 59.9085335], [10.8404984, 59.9087376], [10.8413689, 59.9088425], [10.8432618, 59.9091054], [10.8442931, 59.9092655], [10.8451381, 59.9094093], [10.8461448, 59.9095887], [10.8469798, 59.9097487], [10.8476433, 59.9098822], [10.8508954, 59.9106263], [10.8524874, 59.9110346], [10.8537872, 59.9113746], [10.8572835, 59.9122891], [10.8606663, 59.9131721], [10.8633897, 59.913883], [10.9243922, 59.9298262], [10.9430201, 59.9345137], [10.9664489, 59.9407729], [10.9853988, 59.9457144], [10.990011, 59.9469176], [10.998492, 59.9491174], [10.99953, 59.9493735], [11.0005644, 59.9496097], [11.0017087, 59.9498497], [11.0026832, 59.9500429], [11.0036789, 59.9502244], [11.0047604, 59.9504082], [11.0058571, 59.9505821], [11.0068463, 59.9507259], [11.0125392, 59.9515048], [11.0163142, 59.9520249], [11.0169853, 59.952113], [11.0175446, 59.9521843], [11.0181014, 59.9522498], [11.01862, 59.9523066], [11.0189277, 59.9523382]]}, "properties": {"electrified": "contact_line", "frequency": "16.67", "gauge": "1435", "maxspeed": "210", "name": "Romeriksporten", "operator": "Bane NOR", "passenger_lines": "2", "railway": "rail", "tunnel": "yes", "usage": "main", "voltage": "15000", "length_km": 12.13, "maxspeed_kmh": 210.0}}, {"type": "Feature", "geometry": {"type": "LineString", "coordinates": [[11.0319377, 59.9524949], [11.0327034, 59.9524752]]}, "properties": {"electrified": "contact_line", "frequency": "16.67", "gauge": "1435", "maxspeed": "160", "name": "Romeriksporten", "operator": "Bane NOR", "passenger_lines": "2", "railway": "rail", "tunnel": "yes", "usage": "main", "voltage": "15000", "length_km": 0.043, "maxspeed_kmh": 160.0}}, {"type": "Feature", "geometry": {"type": "LineString", "coordinates": [[11.032707, 59.9525171], [11.0319438, 59.9525409]]}, "properties": {"electrified": "contact_line", "frequency": "16.67", "gauge": "1435", "maxspeed": "160", "name": "Romeriksporten", "operator": "Bane NOR", "passenger_lines": "2", "railway": "rail", "tunnel": "yes", "usage": "main", "voltage": "15000", "length_km": 0.043, "maxspeed_kmh": 160.0}}, {"type": "Feature", "geometry": {"type": "LineString", "coordinates": [[10.8226336, 59.9084335], [10.818726, 59.9086315], [10.8153281, 59.9088143]]}, "properties": {"electrified": "contact_line", "frequency": "16.67", "gauge": "1435", "maxspeed": "210", "name": "Romeriksporten", "operator": "Bane NOR", "passenger_lines": "2", "railway": "rail", "tunnel": "yes", "usage": "main", "voltage": "15000", "length_km": 0.411, "maxspeed_kmh": 210.0}}, {"type": "Feature", "geometry": {"type": "LineString", "coordinates": [[10.8153204, 59.9087714], [10.8187345, 59.9085729], [10.8226296, 59.9083854]]}, "properties": {"electrified": "contact_line", "frequency": "16.67", "gauge": "1435", "maxspeed": "210", "name": "Romeriksporten", "operator": "Bane NOR", "passenger_lines": "2", "railway": "rail", "tunnel": "yes", "usage": "main", "voltage": "15000", "length_km": 0.411, "maxspeed_kmh": 210.0}}]}