{"type": "FeatureCollection", "features": [{"type": "Feature", "geometry": {"type": "LineString", "coordinates": [[13.331007, 65.2424858], [13.3311156, 65.2424492], [13.3312654, 65.2423945], [13.3315726, 65.2422734], [13.3320171, 65.2420898], [13.3323517, 65.241948], [13.3326435, 65.2418109], [13.3328912, 65.2416712], [13.3364616, 65.2394581], [13.3367023, 65.239307], [13.3368088, 65.2392394], [13.3369464, 65.2391531]]}, "properties": {"gauge": "1435", "name": "Sefrivatn pukkverk", "operator": "Bane NOR", "railway": "rail", "service": "spur", "length_km": 0.465}}, {"type": "Feature", "geometry": {"type": "LineString", "coordinates": [[13.3301826, 65.2427552], [13.3303936, 65.2426801], [13.3305583, 65.2426277], [13.3309221, 65.2425147], [13.331007, 65.2424858]]}, "properties": {"gauge": "1435", "name": "Sefrivatn pukkverk", "operator": "Bane NOR", "railway": "rail", "service": "spur", "length_km": 0.049}}, {"type": "Feature", "geometry": {"type": "LineString", "coordinates": [[13.3328912, 65.2416712], [13.3330649, 65.2415765], [13.3332511, 65.2414822], [13.3335527, 65.241329], [13.3337747, 65.2412066], [13.333917, 65.2411189], [13.3354014, 65.2401889], [13.3357742, 65.2399569], [13.3359312, 65.2398513], [13.3360277, 65.2397743], [13.3361417, 65.23968], [13.3362637, 65.2395884], [13.3363717, 65.2395151], [13.3364616, 65.2394581]]}, "properties": {"gauge": "1435", "name": "Sefrivatn pukkverk", "operator": "Bane NOR", "railway": "rail", "service": "spur", "length_km": 0.298}}]}