{"type": "FeatureCollection", "features": [{"type": "Feature", "geometry": {"type": "LineString", "coordinates": [[7.979797, 58.2940459], [7.9798067, 58.2940703], [7.9799165, 58.2944582], [7.980001, 58.2947507], [7.9801005, 58.2951179], [7.9802383, 58.2956007], [7.9803684, 58.2960982], [7.9803911, 58.2962092], [7.9803717, 58.2964897], [7.9803725, 58.2965107]]}, "properties": {"gauge": "1067;1435", "name": "Setesdalsbanen", "railway": "narrow_gauge", "length_km": 0.278}}, {"type": "Feature", "geometry": {"type": "LineString", "coordinates": [[7.9803725, 58.2965107], [7.9803664, 58.2966549]]}, "properties": {"bridge": "yes", "gauge": "1067;1435", "name": "Setesdalsbanen", "railway": "narrow_gauge", "length_km": 0.016}}, {"type": "Feature", "geometry": {"type": "LineString", "coordinates": [[7.9802718, 58.2975487], [7.9802082, 58.2977005], [7.980127, 58.2978756], [7.9800406, 58.2980611], [7.9799829, 58.2981879], [7.9798695, 58.2984402], [7.9796885, 58.2988179], [7.9796214, 58.2989659], [7.979482, 58.299251], [7.9793543, 58.2995187], [7.9792204, 58.2997926], [7.9791221, 58.2999667], [7.9791027, 58.2999992], [7.979039, 58.3000894], [7.9789556, 58.3001823], [7.9788724, 58.3002575], [7.9787157, 58.300377], [7.9785607, 58.3004732], [7.9784654, 58.3005233], [7.9783559, 58.3005766], [7.9781409, 58.3006632], [7.9780423, 58.3006957], [7.9777619, 58.3007775], [7.9774402, 58.3008423], [7.9771613, 58.3008785], [7.9767397, 58.3009183], [7.9763498, 58.3009422], [7.9759361, 58.3009692], [7.9753443, 58.3009979], [7.9748765, 58.3010281], [7.9745073, 58.3010631], [7.9742502, 58.3010747], [7.9738934, 58.3010994], [7.9736354, 58.3011087], [7.9734068, 58.3011182], [7.9730613, 58.3011115], [7.9725545, 58.3010721], [7.9720046, 58.3010213], [7.9716157, 58.3010058], [7.9713393, 58.3010143], [7.9710551, 58.3010481], [7.9706833, 58.3011289], [7.9690549, 58.3015649], [7.9688622, 58.3016366]]}, "properties": {"gauge": "1067", "name": "Setesdalsbanen", "railway": "narrow_gauge", "length_km": 0.946}}, {"type": "Feature", "geometry": {"type": "LineString", "coordinates": [[7.9538223, 58.3166866], [7.9534183, 58.3167121], [7.9528885, 58.3167407], [7.9525241, 58.3167646], [7.952392, 58.3167725], [7.9521907, 58.3167829], [7.9519678, 58.3167801], [7.9516679, 58.3167719], [7.9515229, 58.316763], [7.9513899, 58.3167514], [7.951171, 58.316719], [7.9509613, 58.3166888], [7.950205, 58.3165768], [7.9499968, 58.3165466], [7.9496901, 58.3165122], [7.9493664, 58.3164914], [7.949077, 58.316481], [7.948206, 58.316494], [7.947934, 58.3164852], [7.9477501, 58.3164643], [7.9475666, 58.3164265], [7.9471505, 58.3163139], [7.9467707, 58.3162083]]}, "properties": {"gauge": "1067", "name": "Setesdalsbanen", "railway": "narrow_gauge", "length_km": 0.426}}, {"type": "Feature", "geometry": {"type": "LineString", "coordinates": [[7.8983089, 58.3441473], [7.8983184, 58.3441372], [7.8983982, 58.3440522], [7.8984629, 58.3439926], [7.8985578, 58.3439262], [7.8987121, 58.3438322], [7.8987843, 58.3437933], [7.8989282, 58.3437358], [7.8990457, 58.3436984], [7.899138, 58.3436731], [7.8993828, 58.3436064], [7.8997135, 58.3435259], [7.9002648, 58.3433836]]}, "properties": {"gauge": "1067", "name": "Setesdalsbanen", "railway": "narrow_gauge", "length_km": 0.147}}, {"type": "Feature", "geometry": {"type": "LineString", "coordinates": [[7.9022087, 58.3428516], [7.9018551, 58.3429308], [7.9015359, 58.3430068], [7.9007044, 58.3432279], [7.9004631, 58.3432905], [7.8997991, 58.3434665], [7.8996315, 58.3435198], [7.8993828, 58.3436064]]}, "properties": {"gauge": "1067", "name": "Setesdalsbanen", "railway": "narrow_gauge", "service": "siding", "length_km": 0.186}}, {"type": "Feature", "geometry": {"type": "LineString", "coordinates": [[7.9368461, 58.3216565], [7.9365376, 58.3219663], [7.9362801, 58.3222326], [7.9352501, 58.3233129], [7.9346809, 58.3239188], [7.9343919, 58.3242228], [7.9341934, 58.3243988], [7.9338661, 58.3246509], [7.9335147, 58.3248989], [7.9329193, 58.3252129], [7.9325975, 58.325372], [7.9321638, 58.3256286], [7.9318634, 58.3258469], [7.9315165, 58.3261044], [7.9312719, 58.326246], [7.9309006, 58.3264057]]}, "properties": {"gauge": "1067", "name": "Setesdalsbanen", "railway": "narrow_gauge", "usage": "tourism", "length_km": 0.64}}, {"type": "Feature", "geometry": {"type": "LineString", "coordinates": [[7.9467707, 58.3162083], [7.9464819, 58.3161436], [7.9461252, 58.3161084], [7.9458167, 58.3161098], [7.9455587, 58.3161361], [7.9453763, 58.3161685], [7.9452347, 58.3162], [7.9449955, 58.3162798], [7.9448109, 58.3163648], [7.9444515, 58.3165972], [7.9440625, 58.3168649], [7.9437031, 58.3170692], [7.9433384, 58.3172636], [7.9430004, 58.3174341], [7.9426785, 58.3176087], [7.9425412, 58.3177069], [7.9424022, 58.3178398], [7.9422735, 58.3180018], [7.9420911, 58.3182553], [7.9418953, 58.3184441], [7.9416458, 58.3186075], [7.941383, 58.3187667], [7.9408412, 58.3191006], [7.940337, 58.3194091], [7.9400446, 58.3195837], [7.9397763, 58.3197429], [7.9394706, 58.3199247], [7.9391246, 58.3201387], [7.9387464, 58.3203683], [7.9385533, 58.3204852], [7.9383736, 58.3205923], [7.9381563, 58.3207248], [7.9379807, 58.3208339]]}, "properties": {"gauge": "1067", "name": "Setesdalsbanen", "railway": "narrow_gauge", "length_km": 0.768}}, {"type": "Feature", "geometry": {"type": "LineString", "coordinates": [[7.9656473, 58.307398], [7.9652927, 58.3075667], [7.9650427, 58.3077207], [7.9649404, 58.3078318], [7.9648778, 58.3079513], [7.9648129, 58.3081696], [7.9647289, 58.3085993], [7.9646444, 58.3088145], [7.9645036, 58.3090007], [7.9642978, 58.3091805], [7.9639706, 58.3093706], [7.9634341, 58.3096524], [7.9629272, 58.3099145], [7.9624927, 58.3101372], [7.9621482, 58.3103075], [7.9619135, 58.3104096], [7.9615983, 58.3105217], [7.9612081, 58.3106294], [7.9608929, 58.3107189], [7.9606232, 58.3108219], [7.9604933, 58.3108965], [7.9603926, 58.3109741], [7.9602921, 58.3110613], [7.9602128, 58.3111615], [7.9601553, 58.311267], [7.9601109, 58.3113996], [7.9601043, 58.3115051], [7.9601269, 58.3116208], [7.9601542, 58.3116883], [7.9602315, 58.3118716], [7.9603577, 58.3122154], [7.9604006, 58.3124225], [7.9604193, 58.3126183], [7.9604015, 58.3128466], [7.9603626, 58.3130745], [7.9602951, 58.3132822], [7.9601848, 58.3135118], [7.9600451, 58.3137272], [7.9598216, 58.3140166], [7.9596771, 58.3141957], [7.9594778, 58.3144736], [7.9593618, 58.3147481], [7.9593045, 58.3149547], [7.9591859, 58.3152046], [7.9591354, 58.3152701], [7.959055, 58.3153677], [7.9589365, 58.3154822], [7.958781, 58.3155963], [7.9585382, 58.3157336], [7.9580725, 58.3159215], [7.9574985, 58.3161388], [7.9567958, 58.3163951], [7.9562404, 58.3165997], [7.9559562, 58.31668], [7.955653, 58.3167335], [7.9554319, 58.3167517], [7.9552266, 58.3167519], [7.9548779, 58.316728], [7.95432, 58.316687], [7.9540694, 58.3166785], [7.9538223, 58.3166866]]}, "properties": {"electrified": "no", "gauge": "1067", "name": "Setesdalsbanen", "railway": "narrow_gauge", "length_km": 1.399}}, {"type": "Feature", "geometry": {"type": "LineString", "coordinates": [[7.9688622, 58.3016366], [7.9687496, 58.3016817], [7.9685779, 58.3017775], [7.9684009, 58.3019438], [7.9682829, 58.3021073], [7.9682185, 58.3022989], [7.968232, 58.3028641], [7.9682132, 58.3030924], [7.9681809, 58.303332], [7.9680844, 58.3036434], [7.9679932, 58.3038788], [7.9677331, 58.3043255], [7.9674406, 58.3048117], [7.9671188, 58.3053641], [7.9669821, 58.3056121], [7.9669257, 58.3057305], [7.9669042, 58.3058447], [7.9669096, 58.3059799], [7.9669579, 58.3061349], [7.9670062, 58.3062618], [7.9670223, 58.3064337], [7.9669847, 58.3066], [7.9669043, 58.3067296], [7.9667755, 58.3068592], [7.9666173, 58.3069763], [7.9664823, 58.3070511], [7.9663443, 58.3071026]]}, "properties": {"gauge": "1067", "name": "Setesdalsbanen", "railway": "narrow_gauge", "length_km": 0.646}}, {"type": "Feature", "geometry": {"type": "LineString", "coordinates": [[7.9002648, 58.3433836], [7.9012947, 58.3431207], [7.9022087, 58.3428516], [7.9028504, 58.3426421], [7.9036443, 58.3423619], [7.904331, 58.3420198], [7.9049747, 58.3416848], [7.9056372, 58.3413413], [7.9063132, 58.3410428], [7.9068228, 58.3408458], [7.9072036, 58.3407035], [7.9076194, 58.3405346], [7.9078876, 58.3403995], [7.9082068, 58.3401911], [7.9084696, 58.3399546], [7.9086949, 58.3396632], [7.9088639, 58.3394647], [7.9090109, 58.3393354], [7.9092448, 58.3391788], [7.9095291, 58.3390423], [7.9100307, 58.3388354], [7.9106154, 58.3385988], [7.9113584, 58.3382975], [7.9120531, 58.338023], [7.9125332, 58.3378245], [7.9129757, 58.3376457], [7.9133244, 58.3375077], [7.9139118, 58.337267], [7.9142283, 58.3371064], [7.914518, 58.336936], [7.9148641, 58.3367291], [7.9152449, 58.3365377], [7.9156955, 58.3363672], [7.9159659, 58.3362872], [7.9164277, 58.3361743], [7.9170527, 58.3360294], [7.9173285, 58.3359606], [7.9175463, 58.3358871], [7.9177527, 58.3357844], [7.9179914, 58.3356323], [7.9182516, 58.3354605], [7.9185306, 58.3353], [7.9187533, 58.3352057], [7.919287, 58.3349987], [7.9205556, 58.33452], [7.9210251, 58.3343425], [7.9214462, 58.3341834], [7.9218217, 58.3340441], [7.9222884, 58.3338694], [7.9226692, 58.3337202], [7.9230662, 58.3335371], [7.9233317, 58.3333823], [7.923616, 58.3331598], [7.9239407, 58.3328683], [7.9241525, 58.3327289], [7.9245173, 58.3325458], [7.924941, 58.3323557], [7.9251825, 58.3322318], [7.9254185, 58.3320431], [7.9255419, 58.3318826], [7.9255982, 58.3317051], [7.9255982, 58.3314418], [7.9255901, 58.3311742], [7.9255821, 58.3309743], [7.9256143, 58.3308011], [7.9256701, 58.3306717], [7.9257699, 58.330535], [7.925879, 58.3304051], [7.9260029, 58.3303081], [7.9261612, 58.3302137], [7.9263181, 58.3301299], [7.9263989, 58.3300909], [7.9267803, 58.3299238], [7.9269212, 58.3298551], [7.9269661, 58.329828], [7.927988, 58.3293535], [7.9285786, 58.3290924], [7.9289322, 58.3289141], [7.9292166, 58.3287089], [7.9293775, 58.3285577], [7.9295276, 58.3283409], [7.9296135, 58.3280818], [7.9296296, 58.3278396], [7.9295625, 58.3275269], [7.9295384, 58.3273185], [7.9295706, 58.3271762], [7.9296579, 58.3270339], [7.9298054, 58.3268733], [7.9299743, 58.326755], [7.9301058, 58.3266874], [7.9302843, 58.3266101], [7.9305947, 58.3265074], [7.9309006, 58.3264057]]}, "properties": {"gauge": "1067", "name": "Setesdalsbanen", "railway": "narrow_gauge", "usage": "tourism", "length_km": 2.727}}, {"type": "Feature", "geometry": {"type": "LineString", "coordinates": [[7.979718, 58.2933988], [7.9797475, 58.2935081], [7.9797582, 58.2936152], [7.9797641, 58.2937825], [7.979769, 58.2939003], [7.979797, 58.2940459]]}, "properties": {"gauge": "1435", "name": "Setesdalsbanen", "railway": "rail", "service": "yard", "length_km": 0.072}}, {"type": "Feature", "geometry": {"type": "LineString", "coordinates": [[7.9803664, 58.2966549], [7.980365, 58.2966742], [7.9803376, 58.297258], [7.9803194, 58.2973785], [7.9803067, 58.2974363], [7.9802718, 58.2975487]]}, "properties": {"gauge": "1067", "name": "Setesdalsbanen", "railway": "narrow_gauge", "length_km": 0.1}}, {"type": "Feature", "geometry": {"type": "LineString", "coordinates": [[7.9004631, 58.3432905], [7.9000336, 58.3433757], [7.899599, 58.3434419]]}, "properties": {"gauge": "1067", "name": "Setesdalsbanen", "railway": "narrow_gauge", "service": "spur", "length_km": 0.053}}, {"type": "Feature", "geometry": {"type": "LineString", "coordinates": [[7.8983089, 58.3441473], [7.8982555, 58.3442259]]}, "properties": {"bridge": "yes", "gauge": "1067", "name": "Setesdalsbanen", "railway": "narrow_gauge", "length_km": 0.009}}]}