{"type": "FeatureCollection", "features": [{"type": "Feature", "geometry": {"type": "LineString", "coordinates": [[8.6054598, 58.7076649], [8.6049017, 58.7077282], [8.6043811, 58.7077895], [8.6041376, 58.7078106], [8.603902, 58.7078234], [8.6034618, 58.7078184], [8.6031893, 58.7078002], [8.6029731, 58.7077801], [8.6028273, 58.7077612], [8.6026556, 58.7077299], [8.602395, 58.7076769], [8.6020655, 58.7075947], [8.6017011, 58.7075033], [8.6011125, 58.7073432], [8.5998096, 58.7069931], [8.5995785, 58.7069346], [8.599259, 58.7068551]]}, "properties": {"gauge": "1435", "name": "Simonstad sidespor", "railway": "rail", "service": "spur", "length_km": 0.386}}, {"type": "Feature", "geometry": {"type": "LineString", "coordinates": [[8.5985634, 58.7066743], [8.5981671, 58.7066013], [8.5979368, 58.7065711], [8.5977671, 58.7065639], [8.5976852, 58.7065575], [8.5973503, 58.7065585], [8.5968312, 58.7065697], [8.5962204, 58.7065791]]}, "properties": {"gauge": "1435", "name": "Simonstad sidespor", "railway": "rail", "service": "spur", "length_km": 0.138}}, {"type": "Feature", "geometry": {"type": "LineString", "coordinates": [[8.599259, 58.7068551], [8.5985634, 58.7066743]]}, "properties": {"bridge": "yes", "name": "Simonstad sidespor", "railway": "rail", "service": "spur", "length_km": 0.045}}, {"type": "Feature", "geometry": {"type": "LineString", "coordinates": [[8.5976852, 58.7065575], [8.5974234, 58.7065474], [8.5970409, 58.7065308], [8.596829, 58.7065277], [8.5962169, 58.7065395]]}, "properties": {"gauge": "1435", "name": "Simonstad sidespor", "railway": "rail", "service": "spur", "length_km": 0.085}}]}