{"type": "FeatureCollection", "features": [{"type": "Feature", "geometry": {"type": "LineString", "coordinates": [[10.6993754, 59.9147813], [10.6981791, 59.9155631], [10.6976165, 59.9159305], [10.69714, 59.9162283], [10.6965476, 59.9166092], [10.6959094, 59.9170166], [10.6954144, 59.9173432], [10.6948852, 59.9176878], [10.6944693, 59.9179273], [10.6939955, 59.9181634], [10.6935544, 59.9183615], [10.6930233, 59.9185817], [10.6927338, 59.9186923], [10.6925016, 59.9187755], [10.6922228, 59.9188662], [10.6919724, 59.918945], [10.6918006, 59.9189921], [10.6916723, 59.9190256], [10.6915441, 59.9190579], [10.6914146, 59.9190907], [10.6912852, 59.91912], [10.6911393, 59.9191523], [10.6909958, 59.9191821], [10.6908512, 59.9192101], [10.6907041, 59.919237], [10.6905113, 59.9192721], [10.690321, 59.9193037], [10.6901247, 59.9193352], [10.689938, 59.9193644], [10.6895516, 59.9194228], [10.6891676, 59.9194848], [10.6888169, 59.9195455], [10.688402, 59.9196264], [10.6881932, 59.9196701], [10.6879194, 59.9197313], [10.6876161, 59.9198008], [10.6874497, 59.919841], [10.6872862, 59.9198841], [10.6870664, 59.9199457], [10.6865047, 59.9201081], [10.6860011, 59.9202528], [10.6856662, 59.9203481], [10.6854977, 59.9203973], [10.6853333, 59.9204475], [10.6852088, 59.9204861], [10.6850842, 59.9205268], [10.6849581, 59.9205686], [10.6848382, 59.9206104], [10.6845991, 59.9206945], [10.6843765, 59.9207646], [10.684251, 59.9208029], [10.6841248, 59.92084]]}, "properties": {"electrified": "contact_line", "frequency": "16.67", "gauge": "1435", "maxspeed": "50", "name": "Sk\u00f8yen-Filipstadlinjen", "railway": "rail", "service": "spur", "voltage": "15000", "length_km": 1.115, "maxspeed_kmh": 50.0}}, {"type": "Feature", "geometry": {"type": "LineString", "coordinates": [[10.688402, 59.9196264], [10.6885557, 59.9195939], [10.6887111, 59.9195587], [10.6889279, 59.9195091], [10.6891422, 59.9194559], [10.6893251, 59.9194155], [10.6895128, 59.9193764], [10.6897053, 59.9193414], [10.6899003, 59.9193089], [10.690287, 59.9192515], [10.6906736, 59.9191929], [10.6908227, 59.9191675], [10.6909694, 59.9191409], [10.6911112, 59.9191131], [10.6912578, 59.9190816], [10.6913853, 59.9190521], [10.6915103, 59.9190215], [10.691633, 59.9189902], [10.6917604, 59.9189577], [10.6919389, 59.9189054], [10.6921651, 59.9188373], [10.6924612, 59.9187417], [10.6926948, 59.9186607], [10.6929689, 59.9185536], [10.6935383, 59.9183173], [10.6939352, 59.9181385], [10.6944246, 59.9178931], [10.6947626, 59.9176975], [10.6950241, 59.9175294], [10.6953473, 59.9173177], [10.6958529, 59.9169849], [10.6964793, 59.9165742], [10.6970532, 59.9161843], [10.6974877, 59.9158885], [10.6977802, 59.9156932], [10.6988249, 59.9150109], [10.6992306, 59.914746]]}, "properties": {"electrified": "contact_line", "frequency": "16.67", "gauge": "1435", "name": "Sk\u00f8yen-Filipstadlinjen", "railway": "rail", "service": "spur", "voltage": "15000", "length_km": 0.836}}, {"type": "Feature", "geometry": {"type": "LineString", "coordinates": [[10.6859686, 59.9203113], [10.6860584, 59.9202844], [10.6861482, 59.9202565], [10.6862923, 59.9202093], [10.6866174, 59.9200914], [10.6868218, 59.9200217], [10.6869299, 59.919987], [10.6869968, 59.9199658], [10.6870664, 59.9199457]]}, "properties": {"electrified": "contact_line", "frequency": "16.67", "gauge": "1435", "maxspeed": "50", "name": "Sk\u00f8yen-Filipstadlinjen", "railway": "rail", "service": "spur", "voltage": "15000", "length_km": 0.074, "maxspeed_kmh": 50.0}}, {"type": "Feature", "geometry": {"type": "LineString", "coordinates": [[10.6993754, 59.9147813], [10.6994708, 59.9147151]]}, "properties": {"bridge": "yes", "electrified": "contact_line", "frequency": "16.67", "gauge": "1435", "name": "Sk\u00f8yen-Filipstadlinjen", "railway": "rail", "service": "spur", "voltage": "15000", "length_km": 0.009}}, {"type": "Feature", "geometry": {"type": "LineString", "coordinates": [[10.6994708, 59.9147151], [10.6995876, 59.9146403], [10.7001897, 59.9142231], [10.7005347, 59.9139914], [10.7007468, 59.91385], [10.7008675, 59.9137697], [10.7009587, 59.913708]]}, "properties": {"electrified": "contact_line", "frequency": "16.67", "gauge": "1435", "name": "Sk\u00f8yen-Filipstadlinjen", "railway": "rail", "service": "spur", "voltage": "15000", "length_km": 0.14}}, {"type": "Feature", "geometry": {"type": "LineString", "coordinates": [[10.6993485, 59.9146697], [10.7000037, 59.9142428], [10.7004288, 59.9139826], [10.7006755, 59.9138256], [10.7012094, 59.9134764], [10.7015573, 59.9132532]]}, "properties": {"electrified": "contact_line", "frequency": "16.67", "gauge": "1435", "name": "Sk\u00f8yen-Filipstadlinjen", "railway": "rail", "service": "spur", "voltage": "15000", "length_km": 0.201}}, {"type": "Feature", "geometry": {"type": "LineString", "coordinates": [[10.6993485, 59.9146697], [10.6992306, 59.914746]]}, "properties": {"bridge": "yes", "electrified": "contact_line", "frequency": "16.67", "gauge": "1435", "name": "Sk\u00f8yen-Filipstadlinjen", "railway": "rail", "service": "spur", "voltage": "15000", "length_km": 0.011}}]}