{"type": "FeatureCollection", "features": [{"type": "Feature", "geometry": {"type": "LineString", "coordinates": [[7.9370551, 58.1532891], [7.9364862, 58.1532665], [7.9359417, 58.153265], [7.9353878, 58.1532827], [7.9348494, 58.1533171]]}, "properties": {"electrified": "contact_line", "frequency": "16.67", "gauge": "1435", "maxspeed": "85", "name": "Skytterhuset tunnel", "operator": "Bane NOR", "passenger_lines": "1", "railway": "rail", "tunnel": "yes", "usage": "main", "voltage": "15000", "length_km": 0.13, "maxspeed_kmh": 85.0}}]}