{"type": "FeatureCollection", "features": [{"type": "Feature", "geometry": {"type": "LineString", "coordinates": [[6.0261079, 58.4768678], [6.026069, 58.476812], [6.0258997, 58.4766059], [6.0257847, 58.4764854], [6.0256605, 58.4763676], [6.0253911, 58.4761382], [6.0250013, 58.4758301]]}, "properties": {"electrified": "contact_line", "frequency": "16.67", "gauge": "1435", "maxspeed": "95", "name": "Sletteb\u00f8 tunnel", "operator": "Bane NOR", "passenger_lines": "1", "railway": "rail", "tunnel": "yes", "usage": "main", "voltage": "15000", "length_km": 0.133, "maxspeed_kmh": 95.0}}]}