{"type": "FeatureCollection", "features": [{"type": "Feature", "geometry": {"type": "LineString", "coordinates": [[9.945883, 60.2410772], [9.9461417, 60.2409441], [9.9463653, 60.2408428], [9.9465289, 60.2407707], [9.947239, 60.2404742], [9.9474496, 60.240389], [9.9476494, 60.2403131], [9.9478023, 60.2402638], [9.9479578, 60.2402185], [9.9481416, 60.2401746], [9.948442, 60.2401154], [9.9486606, 60.2400794], [9.9488832, 60.2400541], [9.9490951, 60.2400395], [9.9493338, 60.2400262], [9.9496905, 60.2400275], [9.9499641, 60.2400395], [9.9502444, 60.2400655], [9.9505556, 60.2401121], [9.9508667, 60.2401686], [9.9513186, 60.2402545], [9.9515426, 60.2402925], [9.9517988, 60.2403277], [9.9519718, 60.2403437], [9.9522856, 60.2403677], [9.9525619, 60.2403796], [9.9538144, 60.2404369], [9.9552441, 60.2405061]]}, "properties": {"electrified": "no", "gauge": "1435", "name": "Soknabruket sidespor", "railway": "rail", "service": "spur", "usage": "industrial", "length_km": 0.564}}, {"type": "Feature", "geometry": {"type": "LineString", "coordinates": [[9.9479491, 60.2340072], [9.9476172, 60.2341091], [9.9473637, 60.2342083], [9.9471291, 60.2343215], [9.9469654, 60.2344134], [9.9467589, 60.2345412], [9.9465725, 60.2346837], [9.9464115, 60.2348481], [9.9462935, 60.2350006], [9.9462104, 60.2351404], [9.9461474, 60.2352795], [9.9461178, 60.2353987], [9.9460977, 60.2355425], [9.9461004, 60.2356624], [9.9461232, 60.2358002], [9.9461581, 60.235916], [9.9462345, 60.2360612], [9.946311, 60.236175], [9.9466047, 60.2365638], [9.9468032, 60.2368254], [9.9469949, 60.2370705], [9.9477553, 60.238075], [9.9481322, 60.2385723], [9.9483253, 60.2388952], [9.9484058, 60.2390736], [9.9484353, 60.2392433], [9.9484085, 60.2393831], [9.9483763, 60.2394963], [9.9483106, 60.2396314], [9.9482582, 60.2397153], [9.9481241, 60.2398717], [9.9479699, 60.2400189], [9.9478358, 60.2401194], [9.9476467, 60.2402312], [9.9473396, 60.240385], [9.9467575, 60.2406326], [9.9465001, 60.2407578], [9.9463284, 60.240839], [9.945883, 60.2410772], [9.9456954, 60.2411838], [9.9451469, 60.2414933], [9.9446949, 60.2417495], [9.9445595, 60.2418381], [9.9444509, 60.2419206], [9.9443556, 60.2420165], [9.9442725, 60.242123], [9.9441987, 60.2422661], [9.9441732, 60.242372], [9.9441679, 60.2424818], [9.9442041, 60.2426389], [9.9442403, 60.2427374], [9.9443221, 60.2428718], [9.9444589, 60.2430376], [9.9445917, 60.2431747], [9.945104, 60.2437059], [9.9455904, 60.2442042], [9.9457236, 60.2443342], [9.9459099, 60.244468], [9.946205, 60.2446264], [9.9466744, 60.2448101], [9.9470392, 60.2449539], [9.9473557, 60.2450417], [9.9477741, 60.2451322], [9.9482489, 60.2452387]]}, "properties": {"electrified": "contact_line", "frequency": "16.67", "gauge": "1435", "name": "Soknabruket sidespor", "railway": "rail", "service": "spur", "usage": "industrial", "voltage": "15000", "length_km": 1.489}}, {"type": "Feature", "geometry": {"type": "LineString", "coordinates": [[9.9456954, 60.2411838], [9.9453159, 60.2414234], [9.9450919, 60.2415958], [9.9446453, 60.2419426], [9.9444937, 60.2420938], [9.94442, 60.2421889], [9.9443597, 60.2423114], [9.9443288, 60.2424545], [9.9443315, 60.2425996], [9.9443757, 60.2427347], [9.9444535, 60.2428645], [9.9445742, 60.2430083], [9.9448103, 60.2432619], [9.9451576, 60.243646], [9.9452971, 60.2438117], [9.945395, 60.2439641], [9.9455904, 60.2442042]]}, "properties": {"electrified": "no", "gauge": "1435", "name": "Soknabruket sidespor", "railway": "rail", "service": "spur", "usage": "industrial", "length_km": 0.372}}]}