{"type": "FeatureCollection", "features": [{"type": "Feature", "geometry": {"type": "LineString", "coordinates": [[10.8005883, 59.849232], [10.8002553, 59.8493344], [10.7999673, 59.8494179], [10.7996815, 59.849482], [10.7993651, 59.8495401]]}, "properties": {"electrified": "contact_line", "frequency": "16.67", "gauge": "1435", "maxspeed": "85", "name": "Sole tunnel", "operator": "Bane NOR", "passenger_lines": "2", "railway": "rail", "tunnel": "yes", "usage": "branch", "voltage": "15000", "length_km": 0.077, "maxspeed_kmh": 85.0}}, {"type": "Feature", "geometry": {"type": "LineString", "coordinates": [[10.7993431, 59.8495035], [10.799629, 59.8494524], [10.799921, 59.849385], [10.8002193, 59.8492993], [10.8005543, 59.8491971]]}, "properties": {"electrified": "contact_line", "frequency": "16.67", "gauge": "1435", "name": "Sole tunnel", "operator": "Bane NOR", "passenger_lines": "2", "railway": "rail", "tunnel": "yes", "usage": "branch", "voltage": "15000", "length_km": 0.076}}]}