{"type": "FeatureCollection", "features": [{"type": "Feature", "geometry": {"type": "LineString", "coordinates": [[12.0228619, 60.1882648], [12.0229999, 60.1882772], [12.0231506, 60.1882941], [12.023313, 60.1883146], [12.0234769, 60.1883371], [12.0236401, 60.1883628], [12.0238032, 60.188392], [12.0239703, 60.188425], [12.0241362, 60.1884596], [12.0242997, 60.1884979], [12.0244622, 60.1885384], [12.024681, 60.1885953], [12.0248949, 60.1886535], [12.0251093, 60.1887153], [12.0253226, 60.1887784], [12.0258181, 60.1889351], [12.0261633, 60.189053], [12.0265671, 60.1891998], [12.026773, 60.1892771], [12.0270811, 60.1893983], [12.0273937, 60.1895281], [12.0277342, 60.1896781], [12.0280739, 60.1898331], [12.0284, 60.1899934], [12.0285825, 60.1900886], [12.0288502, 60.1902327]]}, "properties": {"electrified": "contact_line", "frequency": "16.67", "gauge": "1435", "maxspeed": "70", "name": "Sol\u00f8rbanen", "operator": "Bane NOR", "passenger_lines": "1", "railway": "rail", "usage": "branch", "voltage": "15000", "length_km": 0.404, "maxspeed_kmh": 70.0}}, {"type": "Feature", "geometry": {"type": "LineString", "coordinates": [[11.9647933, 60.610403], [11.9646531, 60.6104313], [11.964059, 60.6105564], [11.963257, 60.6107361], [11.9625802, 60.6109047], [11.9616115, 60.6111717], [11.9605949, 60.6114758], [11.9594604, 60.6118233], [11.9573736, 60.6124985], [11.9562811, 60.6128756], [11.9549328, 60.6133422], [11.9536748, 60.6138015], [11.9522399, 60.6143398], [11.9509417, 60.6148518], [11.9498632, 60.6152861], [11.9483829, 60.6159125], [11.9468389, 60.6165932], [11.9421253, 60.6188472], [11.9398212, 60.6199723], [11.9387403, 60.6204934], [11.9381678, 60.6207617], [11.9380838, 60.620801], [11.9375054, 60.6210678], [11.9358891, 60.6217961], [11.9346955, 60.6223139], [11.9335502, 60.6227974], [11.9321296, 60.6233797], [11.9308761, 60.623875], [11.9298515, 60.6242724], [11.9282207, 60.6248763], [11.9259247, 60.6256923], [11.9242054, 60.6262719], [11.9210793, 60.6272898], [11.9209722, 60.627322], [11.918731, 60.6280469], [11.9173658, 60.6284863], [11.9157483, 60.629004], [11.9126313, 60.630003], [11.9115973, 60.6303366], [11.9067684, 60.6318908], [11.9043893, 60.632655], [11.9032949, 60.6330075], [11.9019953, 60.6334206], [11.896863, 60.6350686], [11.8944463, 60.6358696], [11.8913668, 60.6369606], [11.8904069, 60.6373229], [11.8893501, 60.6377254], [11.8884623, 60.63807], [11.8874491, 60.6384736], [11.8862522, 60.6389616], [11.8851162, 60.639439], [11.8840206, 60.6399144], [11.8828233, 60.6404491], [11.882733, 60.6404897], [11.8814269, 60.6410776], [11.8791388, 60.642095], [11.8780929, 60.6425504], [11.8765131, 60.6432065], [11.8752336, 60.643718], [11.873901, 60.644226], [11.8722349, 60.6448383], [11.8708509, 60.6453275], [11.8693864, 60.6458205], [11.8662322, 60.6468343], [11.8647687, 60.6473079], [11.8641373, 60.6475219], [11.8630189, 60.6479176], [11.8621498, 60.6482312], [11.8616573, 60.6484168], [11.8612849, 60.6485637], [11.8600845, 60.6490496], [11.8589584, 60.6495259], [11.8575042, 60.6501881], [11.8560639, 60.6508862], [11.8547094, 60.6516027], [11.8540415, 60.6519662], [11.8534116, 60.6523208], [11.8523718, 60.6529159], [11.8516302, 60.6533589], [11.8507625, 60.6538854], [11.8499626, 60.6543903], [11.8488479, 60.6551135], [11.8480917, 60.6556277], [11.8473607, 60.6561364], [11.8468824, 60.6564811], [11.8463685, 60.6568601], [11.8457686, 60.6573294], [11.8453954, 60.657642], [11.8450316, 60.6579672], [11.8447088, 60.6582683], [11.8443814, 60.6585917], [11.8440704, 60.6589183], [11.8437855, 60.6592358], [11.8434991, 60.6595761], [11.8432105, 60.6599399], [11.8428057, 60.6605064], [11.8425603, 60.6608896], [11.8423298, 60.6612831], [11.8421346, 60.6616526], [11.8418768, 60.6622123], [11.8416698, 60.6627479], [11.8415196, 60.6632105], [11.8414024, 60.663665], [11.8413555, 60.6638692], [11.8412699, 60.6643894], [11.8412248, 60.6647781], [11.8411709, 60.6654457], [11.8411167, 60.6660777], [11.8410569, 60.6665305], [11.8409773, 60.6669636], [11.8408772, 60.6673983], [11.8407571, 60.6678247], [11.840605, 60.66828], [11.8404213, 60.6687534], [11.8403209, 60.6689682], [11.8401504, 60.6693396], [11.8399765, 60.6696856], [11.8396702, 60.6702449], [11.83937, 60.6707901], [11.8388096, 60.6717927], [11.838773, 60.6718628]]}, "properties": {"electrified": "no", "gauge": "1435", "maxspeed": "100", "name": "Sol\u00f8rbanen", "operator": "Bane NOR", "passenger_lines": "1", "railway": "rail", "usage": "branch", "length_km": 10.082, "maxspeed_kmh": 100.0}}, {"type": "Feature", "geometry": {"type": "LineString", "coordinates": [[12.0219668, 60.3147316], [12.0219868, 60.3148906]]}, "properties": {"bridge": "yes", "electrified": "no", "gauge": "1435", "maxspeed": "90", "name": "Sol\u00f8rbanen", "operator": "Bane NOR", "passenger_lines": "1", "railway": "rail", "usage": "branch", "length_km": 0.018, "maxspeed_kmh": 90.0}}, {"type": "Feature", "geometry": {"type": "LineString", "coordinates": [[12.0297313, 60.1907601], [12.0300303, 60.1909644], [12.0303302, 60.1911867], [12.0305606, 60.1913717], [12.0307241, 60.1915168], [12.030912, 60.1917031], [12.0310629, 60.1918706], [12.0312146, 60.1920682], [12.0313447, 60.1922725], [12.0314306, 60.1924365], [12.0315182, 60.1926309], [12.0315844, 60.1928343], [12.0316376, 60.1930686], [12.0316804, 60.1932721]]}, "properties": {"electrified": "no", "gauge": "1435", "maxspeed": "70", "name": "Sol\u00f8rbanen", "operator": "Bane NOR", "passenger_lines": "1", "railway": "rail", "usage": "branch", "length_km": 0.305, "maxspeed_kmh": 70.0}}, {"type": "Feature", "geometry": {"type": "LineString", "coordinates": [[12.0316804, 60.1932721], [12.0317391, 60.1935869]]}, "properties": {"bridge": "yes", "electrified": "no", "gauge": "1435", "maxspeed": "70", "name": "Sol\u00f8rbanen", "operator": "Bane NOR", "passenger_lines": "1", "railway": "rail", "usage": "branch", "length_km": 0.035, "maxspeed_kmh": 70.0}}, {"type": "Feature", "geometry": {"type": "LineString", "coordinates": [[12.0537621, 60.2595378], [12.0539726, 60.26059], [12.0541515, 60.2614839], [12.054449, 60.2629706], [12.0549028, 60.2651771], [12.0551214, 60.2662402], [12.0552608, 60.2668441], [12.0552895, 60.2671939], [12.0553024, 60.2674128], [12.055297, 60.267635], [12.0552702, 60.2679196], [12.0552179, 60.2681318], [12.0551576, 60.2683274], [12.0550516, 60.2686014], [12.0548558, 60.2689738], [12.0547244, 60.269188], [12.0545045, 60.26947], [12.0542362, 60.2697759], [12.0537776, 60.2702016], [12.0532899, 60.2705898], [12.052238, 60.2713135], [12.0511168, 60.2721036], [12.0497784, 60.27304], [12.0480081, 60.2742888], [12.0464605, 60.2753741], [12.0453098, 60.2761787], [12.0448807, 60.2765178], [12.0440787, 60.2771441], [12.0435074, 60.2776495], [12.0430005, 60.2781615], [12.0426035, 60.278599], [12.0420054, 60.279349], [12.0412865, 60.2804952], [12.0401546, 60.2824046], [12.0392936, 60.2838393], [12.0392157, 60.283974], [12.0388752, 60.2845626], [12.0379794, 60.2860729], [12.0368394, 60.2880059], [12.0359382, 60.2895307], [12.0351201, 60.2908972], [12.0347968, 60.2914424], [12.0345461, 60.2918636], [12.0336691, 60.29346], [12.0330656, 60.2947825], [12.0325559, 60.2960997], [12.0319739, 60.297664], [12.0315126, 60.2989159], [12.0309037, 60.3005651], [12.030437, 60.3018289], [12.0300132, 60.302981], [12.0297611, 60.3036533], [12.0294821, 60.3042739], [12.0292354, 60.304719], [12.0289215, 60.305196], [12.0285058, 60.3056982], [12.0278352, 60.3064064], [12.0268455, 60.3074574], [12.025837, 60.3085017], [12.0246354, 60.3097359], [12.0238119, 60.3105928], [12.0231333, 60.3113128], [12.0227364, 60.3118429], [12.0224172, 60.3123052], [12.022208, 60.3127648], [12.0220095, 60.313429], [12.0219505, 60.3138434], [12.0219371, 60.3143588], [12.0219668, 60.3147316]]}, "properties": {"electrified": "no", "gauge": "1435", "maxspeed": "90", "name": "Sol\u00f8rbanen", "operator": "Bane NOR", "passenger_lines": "1", "railway": "rail", "usage": "branch", "length_km": 6.536, "maxspeed_kmh": 90.0}}, {"type": "Feature", "geometry": {"type": "LineString", "coordinates": [[12.0622725, 60.4593317], [12.0625497, 60.459917], [12.0627268, 60.4602892], [12.063278, 60.4614496], [12.0634925, 60.4619091], [12.0637149, 60.4623737], [12.0643267, 60.4636697], [12.0648786, 60.4648334], [12.0656591, 60.4664821], [12.0661023, 60.4674132], [12.0665784, 60.4684177], [12.0671383, 60.4695966], [12.0672946, 60.4699245], [12.0680715, 60.4715687], [12.0689052, 60.4733288], [12.0690568, 60.473652], [12.0692714, 60.4741107], [12.0694055, 60.4744424], [12.0695289, 60.4747736], [12.0696536, 60.4751893], [12.069734, 60.4755124], [12.0697944, 60.4758171], [12.069852, 60.4762103], [12.0698816, 60.4765896], [12.0698923, 60.4771845], [12.0698819, 60.4774924], [12.0698521, 60.4783753], [12.0698172, 60.4799071], [12.069836, 60.4802216], [12.0698789, 60.480513], [12.0699419, 60.4807608], [12.0700184, 60.4810112], [12.0701149, 60.481261], [12.0702691, 60.4815788], [12.0704234, 60.4818379], [12.0705883, 60.4820903], [12.0707265, 60.482274], [12.0709263, 60.4825158], [12.0711489, 60.4827576], [12.0714225, 60.4830193], [12.0718181, 60.4833919], [12.0720394, 60.4835968], [12.0725745, 60.4840831], [12.0738539, 60.4852591], [12.0752192, 60.486521], [12.0757804, 60.487037], [12.0763524, 60.4875622], [12.0776874, 60.4887936], [12.0779215, 60.4890087], [12.0784196, 60.4894656]]}, "properties": {"electrified": "no", "gauge": "1435", "maxspeed": "100", "name": "Sol\u00f8rbanen", "operator": "Bane NOR", "passenger_lines": "1", "railway": "rail", "usage": "branch", "length_km": 3.515, "maxspeed_kmh": 100.0}}, {"type": "Feature", "geometry": {"type": "LineString", "coordinates": [[11.9818598, 60.6088404], [11.9815641, 60.6088292]]}, "properties": {"bridge": "yes", "electrified": "no", "gauge": "1435", "maxspeed": "90", "name": "Sol\u00f8rbanen", "operator": "Bane NOR", "passenger_lines": "1", "railway": "rail", "usage": "branch", "length_km": 0.016, "maxspeed_kmh": 90.0}}, {"type": "Feature", "geometry": {"type": "LineString", "coordinates": [[11.5787658, 60.8438554], [11.578234, 60.843973], [11.5771858, 60.8442015], [11.5713862, 60.845473], [11.5699733, 60.8457759], [11.5691858, 60.8459504], [11.5686159, 60.8460869], [11.5681846, 60.8461959], [11.5678156, 60.8462956], [11.5674904, 60.8463865], [11.5672014, 60.846472], [11.5666428, 60.8466458], [11.5663073, 60.8467552], [11.5657161, 60.8469601], [11.5651443, 60.8471756], [11.5646902, 60.8473579], [11.5642699, 60.8475354], [11.5638614, 60.8477192], [11.5634523, 60.8479126], [11.5630607, 60.8481087], [11.5625404, 60.8483862], [11.562159, 60.8486075], [11.5617277, 60.848869], [11.5613468, 60.8491192], [11.5610079, 60.8493579], [11.5607701, 60.8495321], [11.5605645, 60.8496926], [11.5603477, 60.8498652], [11.5601205, 60.8500569], [11.5598834, 60.8502632]]}, "properties": {"electrified": "no", "gauge": "1435", "name": "Sol\u00f8rbanen", "operator": "Bane NOR", "passenger_lines": "1", "railway": "rail", "usage": "branch", "length_km": 1.281}}, {"type": "Feature", "geometry": {"type": "LineString", "coordinates": [[11.6112693, 60.8361541], [11.6109234, 60.8362142], [11.610559, 60.8362724]]}, "properties": {"bridge": "yes", "electrified": "no", "gauge": "1435", "maxspeed": "95", "name": "Sol\u00f8rbanen", "operator": "Bane NOR", "passenger_lines": "1", "railway": "rail", "usage": "branch", "length_km": 0.041, "maxspeed_kmh": 95.0}}, {"type": "Feature", "geometry": {"type": "LineString", "coordinates": [[11.5428777, 60.8666216], [11.5428655, 60.8668517], [11.5428563, 60.8671413], [11.5428574, 60.8674122], [11.542867, 60.8676555], [11.5428862, 60.8679387], [11.5429173, 60.8682783], [11.5429676, 60.8686358], [11.5430083, 60.8688672], [11.5430776, 60.8691881], [11.5431157, 60.8693328], [11.5431672, 60.8695288], [11.5432184, 60.869696], [11.5433355, 60.8700406], [11.5434471, 60.8703195], [11.543583, 60.8706142], [11.5437187, 60.8708891], [11.543842, 60.8711169], [11.5439665, 60.871327], [11.5441559, 60.8716356], [11.5442759, 60.8718288], [11.5443688, 60.871974], [11.5445877, 60.8723285], [11.544701, 60.8725087], [11.5448074, 60.8726807], [11.544956, 60.8729169], [11.5452258, 60.8733455], [11.5456462, 60.874023], [11.5458819, 60.8744047], [11.5460593, 60.8746895], [11.5464837, 60.8753729], [11.5468773, 60.876009], [11.5470533, 60.8763106], [11.547167, 60.8765207], [11.5472605, 60.8767163], [11.5473396, 60.876902], [11.5473993, 60.8770547], [11.5474064, 60.8770756], [11.547448, 60.8771979], [11.5475012, 60.8773801], [11.5475555, 60.8775648], [11.5476143, 60.8778369], [11.5476626, 60.87813], [11.5476876, 60.878393], [11.5476944, 60.8786411], [11.5476827, 60.8788603], [11.5476555, 60.8791289], [11.5476459, 60.8791912], [11.5476163, 60.8793834], [11.5475556, 60.8797267], [11.547516, 60.8799069], [11.5474735, 60.8800728], [11.5474147, 60.8802613], [11.5473498, 60.880445], [11.5472482, 60.8806899], [11.5472233, 60.8807517], [11.5472155, 60.880771]]}, "properties": {"electrified": "no", "gauge": "1435", "name": "Sol\u00f8rbanen", "operator": "Bane NOR", "passenger_lines": "1", "railway": "rail", "usage": "branch", "length_km": 1.612}}, {"type": "Feature", "geometry": {"type": "LineString", "coordinates": [[11.5428976, 60.8663708], [11.5428777, 60.8666216]]}, "properties": {"bridge": "yes", "electrified": "no", "gauge": "1435", "name": "Sol\u00f8rbanen", "operator": "Bane NOR", "passenger_lines": "1", "railway": "rail", "usage": "branch", "length_km": 0.028}}, {"type": "Feature", "geometry": {"type": "LineString", "coordinates": [[11.608032, 60.836605], [11.6070742, 60.8367287], [11.6053835, 60.8369469], [11.6045941, 60.8370468]]}, "properties": {"electrified": "no", "gauge": "1435", "maxspeed": "100", "name": "Sol\u00f8rbanen", "operator": "Bane NOR", "passenger_lines": "1", "railway": "rail", "usage": "branch", "length_km": 0.193, "maxspeed_kmh": 100.0}}, {"type": "Feature", "geometry": {"type": "LineString", "coordinates": [[11.6087695, 60.8365087], [11.608032, 60.836605]]}, "properties": {"bridge": "yes", "electrified": "no", "gauge": "1435", "maxspeed": "100", "name": "Sol\u00f8rbanen", "operator": "Bane NOR", "passenger_lines": "1", "railway": "rail", "usage": "branch", "length_km": 0.042, "maxspeed_kmh": 100.0}}, {"type": "Feature", "geometry": {"type": "LineString", "coordinates": [[11.6045941, 60.8370468], [11.6030631, 60.8372444]]}, "properties": {"bridge": "yes", "electrified": "no", "gauge": "1435", "maxspeed": "100", "name": "Sol\u00f8rbanen", "operator": "Bane NOR", "passenger_lines": "1", "railway": "rail", "usage": "branch", "length_km": 0.086, "maxspeed_kmh": 100.0}}, {"type": "Feature", "geometry": {"type": "LineString", "coordinates": [[11.610559, 60.8362724], [11.6101697, 60.8363283], [11.6096449, 60.8363998]]}, "properties": {"electrified": "no", "gauge": "1435", "maxspeed": "95", "name": "Sol\u00f8rbanen", "operator": "Bane NOR", "passenger_lines": "1", "railway": "rail", "usage": "branch", "length_km": 0.052, "maxspeed_kmh": 95.0}}, {"type": "Feature", "geometry": {"type": "LineString", "coordinates": [[11.6778421, 60.8118653], [11.6768316, 60.8120338], [11.6759617, 60.8121839], [11.6747707, 60.812395], [11.6725846, 60.8128062], [11.6707005, 60.8131833], [11.6698877, 60.8133524], [11.6682196, 60.8137135], [11.6675385, 60.8138652], [11.6662721, 60.8141555], [11.6650129, 60.8144577], [11.663897, 60.814733], [11.6627902, 60.815013], [11.6615193, 60.8153464], [11.6602722, 60.8156855], [11.6597933, 60.8158192], [11.6590677, 60.8160232], [11.6581307, 60.8162935], [11.6572519, 60.8165536], [11.6563291, 60.8168322], [11.6547478, 60.8173183], [11.6528379, 60.8179527], [11.6514638, 60.8184364], [11.6501891, 60.8189789], [11.6484053, 60.8198245], [11.6473009, 60.8204364], [11.6469472, 60.8206148], [11.6454804, 60.8214045], [11.6449499, 60.8216846], [11.6443803, 60.8219497], [11.6436866, 60.8222521], [11.6429588, 60.8225375], [11.6427322, 60.8226203], [11.6404813, 60.8234428], [11.6402051, 60.8235419], [11.6376961, 60.8244416], [11.6374947, 60.8245182], [11.6372438, 60.8246069], [11.6364366, 60.8249013], [11.6355722, 60.8252119], [11.6345108, 60.8255962], [11.6337082, 60.8258839], [11.6324838, 60.8263273], [11.6317199, 60.8266252], [11.6308353, 60.8270078], [11.6306766, 60.8270791], [11.6300865, 60.8273665], [11.6295134, 60.8276636], [11.6289921, 60.8279581], [11.6284592, 60.8282789], [11.6279501, 60.8286118], [11.6275459, 60.828895], [11.6261154, 60.8299471], [11.6256098, 60.8302963], [11.6252424, 60.8305355], [11.6249024, 60.8307489], [11.6243921, 60.8310526], [11.623847, 60.8313625], [11.6232924, 60.831667], [11.6227521, 60.8319524], [11.622005, 60.8323284], [11.621217, 60.8327061], [11.6206598, 60.8329641], [11.6201836, 60.8331751], [11.6195856, 60.8334369], [11.6190701, 60.8336527], [11.6186415, 60.8338239], [11.6182324, 60.833987], [11.6177984, 60.8341524], [11.6173513, 60.8343232], [11.6169326, 60.8344765], [11.6164724, 60.8346403], [11.6161028, 60.8347702], [11.615724, 60.8348959], [11.6151425, 60.8350879], [11.614592, 60.8352679], [11.6140299, 60.8354425], [11.6137632, 60.8355224], [11.6133451, 60.8356458]]}, "properties": {"electrified": "no", "gauge": "1435", "maxspeed": "100", "name": "Sol\u00f8rbanen", "operator": "Bane NOR", "passenger_lines": "1", "railway": "rail", "usage": "branch", "length_km": 4.461, "maxspeed_kmh": 100.0}}, {"type": "Feature", "geometry": {"type": "LineString", "coordinates": [[11.7147733, 60.8067407], [11.7145003, 60.8068137]]}, "properties": {"bridge": "yes", "electrified": "no", "gauge": "1435", "maxspeed": "70", "name": "Sol\u00f8rbanen", "operator": "Bane NOR", "passenger_lines": "1", "railway": "rail", "usage": "branch", "length_km": 0.017, "maxspeed_kmh": 70.0}}, {"type": "Feature", "geometry": {"type": "LineString", "coordinates": [[12.0289919, 60.1903134], [12.0292565, 60.1904708], [12.0295302, 60.1906387], [12.0297313, 60.1907601]]}, "properties": {"electrified": "contact_line", "frequency": "16.67", "gauge": "1435", "maxspeed": "70", "name": "Sol\u00f8rbanen", "operator": "Bane NOR", "passenger_lines": "1", "railway": "rail", "usage": "branch", "voltage": "15000", "length_km": 0.064, "maxspeed_kmh": 70.0}}, {"type": "Feature", "geometry": {"type": "LineString", "coordinates": [[12.0288502, 60.1902327], [12.0289919, 60.1903134]]}, "properties": {"bridge": "yes", "electrified": "contact_line", "frequency": "16.67", "gauge": "1435", "maxspeed": "70", "name": "Sol\u00f8rbanen", "operator": "Bane NOR", "passenger_lines": "1", "railway": "rail", "usage": "branch", "voltage": "15000", "length_km": 0.012, "maxspeed_kmh": 70.0}}, {"type": "Feature", "geometry": {"type": "LineString", "coordinates": [[12.0486921, 60.3408856], [12.0490971, 60.3409984]]}, "properties": {"bridge": "yes", "electrified": "no", "gauge": "1435", "maxspeed": "90", "name": "Sol\u00f8rbanen", "operator": "Bane NOR", "passenger_lines": "1", "railway": "rail", "usage": "branch", "length_km": 0.026, "maxspeed_kmh": 90.0}}, {"type": "Feature", "geometry": {"type": "LineString", "coordinates": [[12.0469078, 60.3404181], [12.0486921, 60.3408856]]}, "properties": {"electrified": "no", "gauge": "1435", "maxspeed": "90", "name": "Sol\u00f8rbanen", "operator": "Bane NOR", "passenger_lines": "1", "railway": "rail", "usage": "branch", "length_km": 0.111, "maxspeed_kmh": 90.0}}, {"type": "Feature", "geometry": {"type": "LineString", "coordinates": [[12.0466409, 60.3403497], [12.0469078, 60.3404181]]}, "properties": {"bridge": "yes", "electrified": "no", "gauge": "1435", "maxspeed": "90", "name": "Sol\u00f8rbanen", "operator": "Bane NOR", "passenger_lines": "1", "railway": "rail", "usage": "branch", "length_km": 0.017, "maxspeed_kmh": 90.0}}, {"type": "Feature", "geometry": {"type": "LineString", "coordinates": [[12.0219868, 60.3148906], [12.0222092, 60.3162323], [12.022503, 60.3180049], [12.0229122, 60.3203192], [12.0230234, 60.3209481], [12.0233667, 60.3231128], [12.0234716, 60.3236599], [12.0236456, 60.3246904], [12.0238817, 60.3261006], [12.0241177, 60.3275559], [12.0244342, 60.3293935], [12.0244647, 60.3295668], [12.0246093, 60.3303893], [12.0246649, 60.3305911], [12.0247668, 60.3308726], [12.0248982, 60.3311467], [12.0250243, 60.3313771], [12.0253193, 60.3317581], [12.0255876, 60.3320568], [12.026183, 60.3325494], [12.0268992, 60.3329954], [12.0275134, 60.3333141], [12.0283797, 60.3337482], [12.0304906, 60.3348288], [12.0320839, 60.3356279], [12.0338246, 60.3365027], [12.0349056, 60.3370244], [12.0355707, 60.3373098], [12.0362037, 60.3375447], [12.0367911, 60.3377425], [12.0376655, 60.338004], [12.0396933, 60.3385426], [12.0423156, 60.339231], [12.0446782, 60.3398395], [12.0466409, 60.3403497]]}, "properties": {"electrified": "no", "gauge": "1435", "maxspeed": "90", "name": "Sol\u00f8rbanen", "operator": "Bane NOR", "passenger_lines": "1", "railway": "rail", "usage": "branch", "length_km": 3.433, "maxspeed_kmh": 90.0}}, {"type": "Feature", "geometry": {"type": "LineString", "coordinates": [[12.0537307, 60.2593809], [12.0537621, 60.2595378]]}, "properties": {"bridge": "yes", "electrified": "no", "gauge": "1435", "maxspeed": "90", "name": "Sol\u00f8rbanen", "operator": "Bane NOR", "passenger_lines": "1", "railway": "rail", "usage": "branch", "length_km": 0.018, "maxspeed_kmh": 90.0}}, {"type": "Feature", "geometry": {"type": "LineString", "coordinates": [[12.0317391, 60.1935869], [12.0317834, 60.1938478], [12.0318114, 60.1939789], [12.0318376, 60.1941415], [12.0318656, 60.1943116], [12.0318907, 60.194477], [12.0319252, 60.1946372], [12.0321626, 60.1959584], [12.0326766, 60.198798], [12.0329101, 60.2000806], [12.0330602, 60.2009054], [12.0332131, 60.2020011], [12.0333257, 60.2034593], [12.0333472, 60.2046188], [12.0333606, 60.2066952], [12.0334089, 60.2108704], [12.0334196, 60.2134448], [12.033484, 60.2164293], [12.0335162, 60.2186249], [12.0335144, 60.2189635], [12.0335054, 60.2207031], [12.0335591, 60.2225361], [12.0336985, 60.2235751], [12.0338809, 60.2241825], [12.0342404, 60.2250909], [12.03475, 60.2261778], [12.0359556, 60.2286517], [12.0379686, 60.2327728], [12.0393439, 60.2356454], [12.0403099, 60.2376347], [12.0407056, 60.2384485], [12.0411175, 60.2392999], [12.0417398, 60.2404183], [12.0423272, 60.241241], [12.0428637, 60.241936], [12.0438963, 60.2430915], [12.0456827, 60.2450417], [12.0466939, 60.2461279], [12.048571, 60.2481949], [12.0507673, 60.2506081], [12.0512912, 60.2511811], [12.051613, 60.2515691], [12.0517659, 60.2517667], [12.0519134, 60.2519943], [12.0520891, 60.252321], [12.0522541, 60.2526457], [12.0523801, 60.2529651], [12.0524111, 60.253073], [12.0524858, 60.2533326], [12.0525032, 60.2533936], [12.0525641, 60.2536931], [12.0530137, 60.2559059], [12.0535159, 60.2583499], [12.0535283, 60.2584101], [12.0536303, 60.2589194], [12.0536375, 60.2589553]]}, "properties": {"electrified": "no", "gauge": "1435", "maxspeed": "70", "name": "Sol\u00f8rbanen", "operator": "Bane NOR", "passenger_lines": "1", "railway": "rail", "usage": "branch", "length_km": 7.464, "maxspeed_kmh": 70.0}}, {"type": "Feature", "geometry": {"type": "LineString", "coordinates": [[11.5471417, 60.8809284], [11.5469592, 60.8813347], [11.546781, 60.881721], [11.5467298, 60.881832], [11.5466324, 60.8820477], [11.5465654, 60.8821961], [11.5462573, 60.8828684], [11.5462134, 60.8829649], [11.5458619, 60.8837252], [11.5457907, 60.8838865], [11.545611, 60.8842904], [11.5452572, 60.8850644], [11.5450081, 60.8856127], [11.544823, 60.8860179], [11.5445763, 60.8865592], [11.5444747, 60.8867766], [11.5444251, 60.8868826], [11.5443929, 60.8869401], [11.544359, 60.8869934], [11.5442732, 60.8871125], [11.5441039, 60.8873557], [11.5439956, 60.8874919], [11.5438595, 60.8876312], [11.5437619, 60.8877201], [11.5436905, 60.8877787], [11.5436321, 60.887825], [11.5434363, 60.8879653], [11.5430548, 60.8882458], [11.5424929, 60.8886505], [11.5423065, 60.8887828], [11.5422337, 60.8888316], [11.5421476, 60.8888847], [11.5419614, 60.8889913], [11.5418039, 60.8890759], [11.5416681, 60.8891534], [11.5415809, 60.8892076], [11.5415066, 60.8892573]]}, "properties": {"electrified": "no", "gauge": "1435", "maxspeed": "40", "name": "Sol\u00f8rbanen", "operator": "Bane NOR", "passenger_lines": "1", "railway": "rail", "usage": "branch", "length_km": 0.991, "maxspeed_kmh": 40.0}}, {"type": "Feature", "geometry": {"type": "LineString", "coordinates": [[12.0036098, 60.6082846], [12.0032817, 60.6083035], [12.0010686, 60.6084292], [11.9993015, 60.6085564], [11.9975351, 60.6087134], [11.9959944, 60.6088723], [11.9951709, 60.6089736], [11.9941073, 60.6091418], [11.9934315, 60.6092573], [11.9927502, 60.6093692], [11.9922822, 60.6094376], [11.9916974, 60.6095074], [11.9911923, 60.6095488], [11.990701, 60.6095765], [11.9902129, 60.6095857], [11.9897613, 60.6095823], [11.9893358, 60.6095679], [11.9888882, 60.6095395], [11.9885434, 60.6095091], [11.9881211, 60.6094652], [11.9876618, 60.609405], [11.9866566, 60.6092657]]}, "properties": {"electrified": "no", "gauge": "1435", "maxspeed": "85", "name": "Sol\u00f8rbanen", "operator": "Bane NOR", "passenger_lines": "1", "railway": "rail", "usage": "branch", "length_km": 0.949, "maxspeed_kmh": 85.0}}, {"type": "Feature", "geometry": {"type": "LineString", "coordinates": [[12.0380552, 60.5898212], [12.0368857, 60.5902589]]}, "properties": {"bridge": "yes", "electrified": "no", "gauge": "1435", "maxspeed": "100", "name": "Sol\u00f8rbanen", "operator": "Bane NOR", "passenger_lines": "1", "railway": "rail", "usage": "branch", "length_km": 0.081, "maxspeed_kmh": 100.0}}, {"type": "Feature", "geometry": {"type": "LineString", "coordinates": [[12.0501238, 60.4298791], [12.0502639, 60.4311959], [12.0503309, 60.431824], [12.0503685, 60.4321939], [12.050409, 60.4325993]]}, "properties": {"electrified": "no", "gauge": "1435", "maxspeed": "100", "name": "Sol\u00f8rbanen", "operator": "Bane NOR", "passenger_lines": "1", "railway": "rail", "usage": "branch", "length_km": 0.303, "maxspeed_kmh": 100.0}}, {"type": "Feature", "geometry": {"type": "LineString", "coordinates": [[12.050409, 60.4325993], [12.0504345, 60.432837]]}, "properties": {"bridge": "yes", "electrified": "no", "gauge": "1435", "maxspeed": "100", "name": "Sol\u00f8rbanen", "operator": "Bane NOR", "passenger_lines": "1", "railway": "rail", "usage": "branch", "length_km": 0.027, "maxspeed_kmh": 100.0}}, {"type": "Feature", "geometry": {"type": "LineString", "coordinates": [[12.0431923, 60.3607898], [12.0430488, 60.3608611], [12.0426142, 60.3610995], [12.0422387, 60.361341], [12.0419209, 60.3615797], [12.0417626, 60.361721], [12.0415816, 60.3618961], [12.0414086, 60.362101], [12.0412423, 60.3623384], [12.0411364, 60.3625308], [12.0410438, 60.362735], [12.0409821, 60.36293], [12.0409392, 60.3631395], [12.0409204, 60.3633431], [12.0409258, 60.3635553], [12.0409687, 60.363816], [12.041135, 60.3644135], [12.0411859, 60.3645779], [12.0412355, 60.3647689], [12.0412785, 60.3649705], [12.0413026, 60.3651986], [12.0413161, 60.3655043], [12.041304, 60.3657079], [12.0412664, 60.3660123], [12.0412154, 60.3662716], [12.0411531, 60.3665348]]}, "properties": {"electrified": "no", "gauge": "1435", "maxspeed": "85", "name": "Sol\u00f8rbanen", "operator": "Bane NOR", "passenger_lines": "1", "railway": "rail", "usage": "branch", "length_km": 0.676, "maxspeed_kmh": 85.0}}, {"type": "Feature", "geometry": {"type": "LineString", "coordinates": [[11.7611352, 60.7520646], [11.7610091, 60.7523149], [11.760873, 60.7525633], [11.7607234, 60.7527978], [11.7605934, 60.7529819], [11.7604351, 60.753206], [11.7602615, 60.7534247], [11.7599939, 60.7537322], [11.759652, 60.7540818], [11.7591082, 60.7546402], [11.7582035, 60.7555588], [11.7577516, 60.7560201], [11.7573179, 60.7564742], [11.7566465, 60.7571994], [11.7561235, 60.7577949], [11.7556119, 60.7583998], [11.7551766, 60.7589322], [11.7547721, 60.7594438], [11.7542212, 60.7601742], [11.7538551, 60.760689], [11.7535177, 60.7611765], [11.7532508, 60.7615748], [11.7529424, 60.7620517], [11.7527048, 60.7624399], [11.7523295, 60.7630676], [11.7519687, 60.7637096], [11.75162, 60.7643587], [11.7513065, 60.764988], [11.7509964, 60.7656536], [11.7507113, 60.7663103], [11.7504184, 60.7670401], [11.7501495, 60.7677313], [11.7496098, 60.7691006], [11.7493723, 60.7696709], [11.7491312, 60.7702314], [11.7490284, 60.7704606], [11.7488607, 60.7708255], [11.7486112, 60.7713556], [11.7483316, 60.7719233], [11.747962, 60.77264], [11.7476732, 60.7731718], [11.7473815, 60.7736979], [11.7471367, 60.7741242], [11.7467666, 60.7747454], [11.7464527, 60.7752651], [11.7460983, 60.7758245], [11.7457312, 60.7763822], [11.7453369, 60.7769648], [11.7445953, 60.7780105], [11.7438164, 60.7790518], [11.743281, 60.7797343], [11.7427092, 60.7804408], [11.7423168, 60.7809088], [11.7419542, 60.7813347], [11.7415094, 60.7818463], [11.7410532, 60.7823599], [11.7400951, 60.7833933], [11.7392001, 60.7843135], [11.7387494, 60.7847632], [11.7382725, 60.7852314], [11.7370974, 60.7863331], [11.7360253, 60.7873154], [11.7348695, 60.7883081], [11.7339122, 60.7891148], [11.7331946, 60.7897233], [11.7318678, 60.7908716], [11.7314364, 60.7912593], [11.730987, 60.791673], [11.7300465, 60.7925565], [11.7290789, 60.793524], [11.7283462, 60.7942843], [11.7275646, 60.7951354], [11.7271717, 60.7955738], [11.7268012, 60.7960017], [11.7263912, 60.7964873], [11.7259565, 60.7970189], [11.7255543, 60.797529], [11.7251702, 60.798027], [11.7247033, 60.7986491], [11.724222, 60.7992979], [11.7238913, 60.7997398], [11.7235741, 60.8001627], [11.7233482, 60.8004432], [11.7231137, 60.8006979], [11.7228614, 60.8009489], [11.7226148, 60.8011728], [11.7223236, 60.8014154], [11.7220554, 60.8016182], [11.7217993, 60.8018006], [11.7214707, 60.802016], [11.7211539, 60.8022137], [11.7205547, 60.8025701], [11.720265, 60.8027474], [11.7199427, 60.8029551], [11.7195462, 60.8032328], [11.719229, 60.8034887], [11.7188448, 60.8038353], [11.7186677, 60.8040087], [11.7184728, 60.8042117], [11.7178574, 60.8048505]]}, "properties": {"electrified": "no", "gauge": "1435", "maxspeed": "100", "name": "Sol\u00f8rbanen", "operator": "Bane NOR", "passenger_lines": "1", "railway": "rail", "usage": "branch", "length_km": 6.375, "maxspeed_kmh": 100.0}}, {"type": "Feature", "geometry": {"type": "LineString", "coordinates": [[11.7612197, 60.751885], [11.7611352, 60.7520646]]}, "properties": {"bridge": "yes", "electrified": "no", "gauge": "1435", "maxspeed": "100", "name": "Sol\u00f8rbanen", "operator": "Bane NOR", "passenger_lines": "1", "railway": "rail", "usage": "branch", "length_km": 0.021, "maxspeed_kmh": 100.0}}, {"type": "Feature", "geometry": {"type": "LineString", "coordinates": [[12.0536375, 60.2589553], [12.0537001, 60.2592279], [12.0537307, 60.2593809]]}, "properties": {"electrified": "no", "gauge": "1435", "maxspeed": "90", "name": "Sol\u00f8rbanen", "operator": "Bane NOR", "passenger_lines": "1", "railway": "rail", "usage": "branch", "length_km": 0.048, "maxspeed_kmh": 90.0}}, {"type": "Feature", "geometry": {"type": "LineString", "coordinates": [[12.0214605, 60.1882044], [12.0217023, 60.1882105], [12.0219602, 60.1882174], [12.0222224, 60.1882268], [12.0224816, 60.1882376], [12.0227461, 60.1882556], [12.0228619, 60.1882648]]}, "properties": {"electrified": "contact_line", "frequency": "16.67", "gauge": "1435", "maxspeed": "40", "name": "Sol\u00f8rbanen", "operator": "Bane NOR", "passenger_lines": "1", "railway": "rail", "usage": "branch", "voltage": "15000", "length_km": 0.078, "maxspeed_kmh": 40.0}}, {"type": "Feature", "geometry": {"type": "LineString", "coordinates": [[12.0645654, 60.5701715], [12.0639572, 60.5706746], [12.0633584, 60.5711865], [12.0595802, 60.5743338], [12.0550777, 60.5781195], [12.0537077, 60.5792692], [12.0524607, 60.5803119], [12.0517692, 60.5808918], [12.0515944, 60.5810399], [12.04914, 60.5830957], [12.0480081, 60.5840462], [12.0474388, 60.5845208], [12.0469111, 60.5849668], [12.0458396, 60.5858622], [12.0454748, 60.5861678], [12.0450523, 60.5865136], [12.0447527, 60.5867309], [12.0441511, 60.5871465], [12.0436804, 60.5874369], [12.0431272, 60.5877445], [12.0427349, 60.5879487], [12.0422883, 60.5881693], [12.0418396, 60.5883713], [12.0413361, 60.5885849], [12.0407303, 60.5888226], [12.0380552, 60.5898212]]}, "properties": {"electrified": "no", "gauge": "1435", "maxspeed": "100", "name": "Sol\u00f8rbanen", "operator": "Bane NOR", "passenger_lines": "1", "railway": "rail", "usage": "branch", "length_km": 2.647, "maxspeed_kmh": 100.0}}, {"type": "Feature", "geometry": {"type": "LineString", "coordinates": [[12.0646726, 60.5700862], [12.0645654, 60.5701715]]}, "properties": {"bridge": "yes", "electrified": "no", "gauge": "1435", "maxspeed": "100", "name": "Sol\u00f8rbanen", "operator": "Bane NOR", "passenger_lines": "1", "railway": "rail", "usage": "branch", "length_km": 0.011, "maxspeed_kmh": 100.0}}, {"type": "Feature", "geometry": {"type": "LineString", "coordinates": [[12.0788983, 60.4987364], [12.0788901, 60.4987853]]}, "properties": {"bridge": "yes", "electrified": "no", "gauge": "1435", "maxspeed": "100", "name": "Sol\u00f8rbanen", "operator": "Bane NOR", "passenger_lines": "1", "railway": "rail", "usage": "branch", "length_km": 0.005, "maxspeed_kmh": 100.0}}, {"type": "Feature", "geometry": {"type": "LineString", "coordinates": [[12.079591, 60.4946465], [12.0793254, 60.4962001], [12.0792652, 60.496552], [12.0791063, 60.497547], [12.07891, 60.4986696], [12.0788983, 60.4987364]]}, "properties": {"electrified": "no", "gauge": "1435", "maxspeed": "100", "name": "Sol\u00f8rbanen", "operator": "Bane NOR", "passenger_lines": "1", "railway": "rail", "usage": "branch", "length_km": 0.457, "maxspeed_kmh": 100.0}}, {"type": "Feature", "geometry": {"type": "LineString", "coordinates": [[12.0798929, 60.4928063], [12.0797957, 60.4934331], [12.0795999, 60.4945851], [12.079591, 60.4946465]]}, "properties": {"electrified": "no", "gauge": "1435", "maxspeed": "90", "name": "Sol\u00f8rbanen", "operator": "Bane NOR", "passenger_lines": "1", "railway": "rail", "usage": "branch", "length_km": 0.206, "maxspeed_kmh": 90.0}}, {"type": "Feature", "geometry": {"type": "LineString", "coordinates": [[12.0784196, 60.4894656], [12.07858, 60.4896128], [12.0788696, 60.4898829], [12.0790762, 60.4900858], [12.0792438, 60.4902621], [12.0793752, 60.490422], [12.0795496, 60.4906625], [12.0796743, 60.4908785], [12.0798031, 60.4911368], [12.0798768, 60.4913177], [12.0799318, 60.4914981], [12.0799774, 60.4917583], [12.0799935, 60.4920688], [12.0799895, 60.4921745], [12.0799707, 60.4923409], [12.0799157, 60.4926966]]}, "properties": {"electrified": "no", "gauge": "1435", "maxspeed": "90", "name": "Sol\u00f8rbanen", "operator": "Bane NOR", "passenger_lines": "1", "railway": "rail", "usage": "branch", "length_km": 0.377, "maxspeed_kmh": 90.0}}, {"type": "Feature", "geometry": {"type": "LineString", "coordinates": [[12.0788901, 60.4987853], [12.078885, 60.4988156], [12.0788763, 60.498868], [12.0786443, 60.5002236], [12.0784099, 60.5016119], [12.078253, 60.5025246], [12.0781924, 60.5028644], [12.078144, 60.5031766], [12.078087, 60.5035213], [12.0776092, 60.506332], [12.076945, 60.510253], [12.0762204, 60.5145183], [12.075573, 60.51833], [12.0750334, 60.5215109], [12.0744474, 60.5248904], [12.0734922, 60.5305169], [12.0730188, 60.5333531], [12.0728913, 60.5341405], [12.072713, 60.5351729], [12.0720149, 60.539159], [12.071563, 60.5418147], [12.0713574, 60.5430373], [12.0711579, 60.5442142], [12.0709888, 60.5451698], [12.0707389, 60.5466771], [12.0702666, 60.5494626], [12.0700908, 60.5505548], [12.0699862, 60.5511173], [12.0699379, 60.5514008], [12.069887, 60.5516865], [12.0698038, 60.5521795], [12.0697448, 60.5525091], [12.0696838, 60.552877], [12.0692341, 60.5554733], [12.0689645, 60.557111], [12.0688703, 60.5576438], [12.0685408, 60.5595318], [12.068196, 60.5615247], [12.0681511, 60.5618149], [12.0680942, 60.5621437], [12.0678404, 60.5636425], [12.0677318, 60.5642901], [12.0676808, 60.5645652], [12.0676205, 60.5649], [12.0675637, 60.5652573], [12.0674024, 60.5661766], [12.0673335, 60.5665081], [12.0672463, 60.5668218], [12.0671269, 60.5671573], [12.0669651, 60.5675099], [12.0667782, 60.5678519], [12.0665488, 60.5682044], [12.0661895, 60.5686723], [12.0658542, 60.5690361], [12.0655693, 60.5693171], [12.0651428, 60.569697], [12.0646726, 60.5700862]]}, "properties": {"electrified": "no", "gauge": "1435", "maxspeed": "100", "name": "Sol\u00f8rbanen", "operator": "Bane NOR", "passenger_lines": "1", "railway": "rail", "usage": "branch", "length_km": 8.0, "maxspeed_kmh": 100.0}}, {"type": "Feature", "geometry": {"type": "LineString", "coordinates": [[12.0799157, 60.4926966], [12.0798929, 60.4928063]]}, "properties": {"bridge": "yes", "electrified": "no", "gauge": "1435", "maxspeed": "90", "name": "Sol\u00f8rbanen", "operator": "Bane NOR", "passenger_lines": "1", "railway": "rail", "usage": "branch", "length_km": 0.012, "maxspeed_kmh": 90.0}}, {"type": "Feature", "geometry": {"type": "LineString", "coordinates": [[12.0591167, 60.452701], [12.0592587, 60.452993], [12.0593444, 60.4531639], [12.0594171, 60.4533182], [12.0598703, 60.4542793], [12.0598924, 60.4543265], [12.059996, 60.4545474], [12.0601103, 60.4547909], [12.0604764, 60.455558], [12.0608418, 60.4563249], [12.061093, 60.4568512], [12.0619631, 60.4586742], [12.0621628, 60.4591076]]}, "properties": {"electrified": "no", "gauge": "1435", "maxspeed": "70", "name": "Sol\u00f8rbanen", "operator": "Bane NOR", "passenger_lines": "1", "railway": "rail", "usage": "branch", "length_km": 0.733, "maxspeed_kmh": 70.0}}, {"type": "Feature", "geometry": {"type": "LineString", "coordinates": [[12.0525257, 60.4388649], [12.0530105, 60.4398904], [12.0534938, 60.440909], [12.0546198, 60.4432684], [12.0551445, 60.4443544], [12.0557453, 60.4456257], [12.0568809, 60.4479985], [12.0576607, 60.4496435], [12.058057, 60.4504729], [12.0584634, 60.4513284], [12.0591167, 60.452701]]}, "properties": {"electrified": "no", "gauge": "1435", "maxspeed": "100", "name": "Sol\u00f8rbanen", "operator": "Bane NOR", "passenger_lines": "1", "railway": "rail", "usage": "branch", "length_km": 1.584, "maxspeed_kmh": 100.0}}, {"type": "Feature", "geometry": {"type": "LineString", "coordinates": [[12.0524927, 60.438798], [12.0525257, 60.4388649]]}, "properties": {"bridge": "yes", "electrified": "no", "gauge": "1435", "maxspeed": "100", "name": "Sol\u00f8rbanen", "operator": "Bane NOR", "passenger_lines": "1", "railway": "rail", "usage": "branch", "length_km": 0.008, "maxspeed_kmh": 100.0}}, {"type": "Feature", "geometry": {"type": "LineString", "coordinates": [[12.0504345, 60.432837], [12.0504788, 60.4332188], [12.0505175, 60.4335512], [12.050579, 60.4339654], [12.050626, 60.4342348], [12.0507018, 60.4345626], [12.0507822, 60.4348637], [12.0509204, 60.4353082], [12.0511349, 60.4358823], [12.0513892, 60.4364559], [12.0517726, 60.4372703], [12.0518745, 60.4374923], [12.0519899, 60.4377503], [12.0521198, 60.4380147], [12.0524927, 60.438798]]}, "properties": {"electrified": "no", "gauge": "1435", "maxspeed": "100", "name": "Sol\u00f8rbanen", "operator": "Bane NOR", "passenger_lines": "1", "railway": "rail", "usage": "branch", "length_km": 0.675, "maxspeed_kmh": 100.0}}, {"type": "Feature", "geometry": {"type": "LineString", "coordinates": [[12.0462173, 60.3918289], [12.0462788, 60.3924179], [12.046335, 60.3929836], [12.0464219, 60.3938156], [12.046777, 60.3972018], [12.0470132, 60.3995603], [12.0473604, 60.4028827], [12.047482, 60.4040729], [12.0477195, 60.4064022], [12.0478049, 60.4072224], [12.0485412, 60.4144393], [12.0492806, 60.4216088], [12.049478, 60.4234957], [12.0496403, 60.4249924], [12.04971, 60.425739], [12.0499259, 60.4278971], [12.0500205, 60.4288286], [12.0500718, 60.4293553], [12.0501238, 60.4298791]]}, "properties": {"electrified": "no", "gauge": "1435", "maxspeed": "100", "name": "Sol\u00f8rbanen", "operator": "Bane NOR", "passenger_lines": "1", "railway": "rail", "usage": "branch", "length_km": 4.245, "maxspeed_kmh": 100.0}}, {"type": "Feature", "geometry": {"type": "LineString", "coordinates": [[12.0462091, 60.391751], [12.0462173, 60.3918289]]}, "properties": {"bridge": "yes", "electrified": "no", "gauge": "1435", "maxspeed": "100", "name": "Sol\u00f8rbanen", "operator": "Bane NOR", "passenger_lines": "1", "railway": "rail", "usage": "branch", "length_km": 0.009, "maxspeed_kmh": 100.0}}, {"type": "Feature", "geometry": {"type": "LineString", "coordinates": [[12.0460836, 60.3904818], [12.046136, 60.3910977], [12.0461574, 60.391316], [12.0462091, 60.391751]]}, "properties": {"electrified": "no", "gauge": "1435", "maxspeed": "100", "name": "Sol\u00f8rbanen", "operator": "Bane NOR", "passenger_lines": "1", "railway": "rail", "usage": "branch", "length_km": 0.142, "maxspeed_kmh": 100.0}}, {"type": "Feature", "geometry": {"type": "LineString", "coordinates": [[12.0434524, 60.3782929], [12.0434967, 60.3784053]]}, "properties": {"bridge": "yes", "electrified": "no", "gauge": "1435", "maxspeed": "100", "name": "Sol\u00f8rbanen", "operator": "Bane NOR", "passenger_lines": "1", "railway": "rail", "usage": "branch", "length_km": 0.013, "maxspeed_kmh": 100.0}}, {"type": "Feature", "geometry": {"type": "LineString", "coordinates": [[12.0411531, 60.3665348], [12.0409244, 60.3674744], [12.0407514, 60.3681938], [12.0406562, 60.3686136], [12.0405677, 60.3690751], [12.0405261, 60.3693874], [12.0404953, 60.3698296], [12.0404899, 60.3702566], [12.0405154, 60.3707175], [12.040565, 60.3711583], [12.0406294, 60.3715184], [12.0407152, 60.3718684], [12.0407823, 60.3721137], [12.0408922, 60.372436], [12.041076, 60.3728941], [12.0412892, 60.37338], [12.0417399, 60.3743931], [12.0421194, 60.3752502], [12.0425498, 60.3762499], [12.0434524, 60.3782929]]}, "properties": {"electrified": "no", "gauge": "1435", "maxspeed": "100", "name": "Sol\u00f8rbanen", "operator": "Bane NOR", "passenger_lines": "1", "railway": "rail", "usage": "branch", "length_km": 1.328, "maxspeed_kmh": 100.0}}, {"type": "Feature", "geometry": {"type": "LineString", "coordinates": [[12.0460736, 60.390393], [12.0460836, 60.3904818]]}, "properties": {"bridge": "yes", "electrified": "no", "gauge": "1435", "maxspeed": "100", "name": "Sol\u00f8rbanen", "operator": "Bane NOR", "passenger_lines": "1", "railway": "rail", "usage": "branch", "length_km": 0.01, "maxspeed_kmh": 100.0}}, {"type": "Feature", "geometry": {"type": "LineString", "coordinates": [[12.0434967, 60.3784053], [12.0436415, 60.3787417], [12.0439754, 60.3795086], [12.0445722, 60.3808608], [12.0447915, 60.3813864], [12.0449792, 60.3818967], [12.045051, 60.3821363], [12.0451308, 60.3824174], [12.045224, 60.3827928], [12.0452857, 60.3831053], [12.0453541, 60.3835494], [12.0454493, 60.3844232], [12.0455371, 60.3852793], [12.0456699, 60.3865082], [12.0457914, 60.3876755], [12.0460736, 60.390393]]}, "properties": {"electrified": "no", "gauge": "1435", "maxspeed": "100", "name": "Sol\u00f8rbanen", "operator": "Bane NOR", "passenger_lines": "1", "railway": "rail", "usage": "branch", "length_km": 1.346, "maxspeed_kmh": 100.0}}, {"type": "Feature", "geometry": {"type": "LineString", "coordinates": [[12.0490971, 60.3409984], [12.0501432, 60.3412997], [12.0507574, 60.3415267], [12.0512885, 60.3417483], [12.0518383, 60.3420417], [12.0523077, 60.342327], [12.0527181, 60.3425964], [12.0528855, 60.3427367], [12.0530507, 60.3428751], [12.0533457, 60.3431552], [12.0535442, 60.3433874], [12.0537561, 60.3436887], [12.0539895, 60.3441213], [12.0540887, 60.3444093], [12.0541477, 60.3446734], [12.0541638, 60.3450729], [12.054145, 60.3455334], [12.0540994, 60.3463402], [12.0540485, 60.3471616], [12.0539851, 60.3480826], [12.0539439, 60.348681], [12.0538259, 60.3503426], [12.0537548, 60.3516619], [12.0537065, 60.352249], [12.0536565, 60.35264], [12.0535227, 60.3532016], [12.0534088, 60.3535366], [12.0532639, 60.3538856], [12.0530754, 60.3542518], [12.0529434, 60.3544706], [12.0527342, 60.354791], [12.0524217, 60.3552076], [12.0522214, 60.3554522], [12.0520198, 60.3556728], [12.0518303, 60.3558643], [12.0514065, 60.356259], [12.0510793, 60.3565389], [12.0506927, 60.356841], [12.0500641, 60.3572851], [12.0495705, 60.3575849], [12.0490126, 60.3579013], [12.0482797, 60.3582791], [12.0474543, 60.3586842], [12.0461453, 60.3593267], [12.0450465, 60.3598698], [12.0431923, 60.3607898]]}, "properties": {"electrified": "no", "gauge": "1435", "maxspeed": "90", "name": "Sol\u00f8rbanen", "operator": "Bane NOR", "passenger_lines": "1", "railway": "rail", "usage": "branch", "length_km": 2.512, "maxspeed_kmh": 90.0}}, {"type": "Feature", "geometry": {"type": "LineString", "coordinates": [[12.0183848, 60.6005824], [12.0183326, 60.600635], [12.0182592, 60.6007135], [12.0180646, 60.6009037], [12.0178601, 60.6010921], [12.0176396, 60.6012585], [12.0174645, 60.6013804], [12.0169307, 60.601697], [12.0164845, 60.6019474], [12.0160678, 60.6021553], [12.0158418, 60.6022644], [12.0156503, 60.6023544], [12.0153368, 60.6024952], [12.0150398, 60.6026153], [12.0147191, 60.6027338], [12.0144477, 60.602824], [12.0141419, 60.6029168], [12.0134102, 60.6031243], [12.0131153, 60.603215], [12.012898, 60.6032897], [12.0127088, 60.6033648], [12.0124903, 60.6034619], [12.0123114, 60.6035495], [12.0120028, 60.6037423], [12.0118164, 60.6038848], [12.0116521, 60.6040244], [12.0115053, 60.6041749], [12.0113698, 60.6043334], [12.0112357, 60.6045049], [12.0109796, 60.6048438]]}, "properties": {"electrified": "no", "gauge": "1435", "maxspeed": "60", "name": "Sol\u00f8rbanen", "operator": "Bane NOR", "passenger_lines": "1", "railway": "rail", "usage": "branch", "length_km": 0.639, "maxspeed_kmh": 60.0}}, {"type": "Feature", "geometry": {"type": "LineString", "coordinates": [[12.0275228, 60.5937563], [12.0268951, 60.5939927], [12.0263488, 60.5942099], [12.0249923, 60.5948374], [12.0249382, 60.5948667]]}, "properties": {"electrified": "no", "gauge": "1435", "maxspeed": "100", "name": "Sol\u00f8rbanen", "operator": "Bane NOR", "passenger_lines": "1", "railway": "rail", "usage": "branch", "length_km": 0.188, "maxspeed_kmh": 100.0}}, {"type": "Feature", "geometry": {"type": "LineString", "coordinates": [[12.0276877, 60.5936958], [12.0275228, 60.5937563]]}, "properties": {"bridge": "yes", "electrified": "no", "gauge": "1435", "maxspeed": "100", "name": "Sol\u00f8rbanen", "operator": "Bane NOR", "passenger_lines": "1", "railway": "rail", "usage": "branch", "length_km": 0.011, "maxspeed_kmh": 100.0}}, {"type": "Feature", "geometry": {"type": "LineString", "coordinates": [[12.0368857, 60.5902589], [12.0328386, 60.5917716], [12.0316396, 60.5922169], [12.0296063, 60.5929783], [12.0276877, 60.5936958]]}, "properties": {"electrified": "no", "gauge": "1435", "maxspeed": "100", "name": "Sol\u00f8rbanen", "operator": "Bane NOR", "passenger_lines": "1", "railway": "rail", "usage": "branch", "length_km": 0.633, "maxspeed_kmh": 100.0}}, {"type": "Feature", "geometry": {"type": "LineString", "coordinates": [[11.6096449, 60.8363998], [11.6091269, 60.8364652], [11.6087695, 60.8365087]]}, "properties": {"electrified": "no", "gauge": "1435", "maxspeed": "100", "name": "Sol\u00f8rbanen", "operator": "Bane NOR", "passenger_lines": "1", "railway": "rail", "usage": "branch", "length_km": 0.049, "maxspeed_kmh": 100.0}}, {"type": "Feature", "geometry": {"type": "LineString", "coordinates": [[11.6133451, 60.8356458], [11.6131369, 60.8357058], [11.6128029, 60.8357992], [11.6124899, 60.8358816], [11.6121538, 60.8359652], [11.6118594, 60.8360338], [11.6115786, 60.8360933], [11.6112693, 60.8361541]]}, "properties": {"electrified": "no", "gauge": "1435", "maxspeed": "95", "name": "Sol\u00f8rbanen", "operator": "Bane NOR", "passenger_lines": "1", "railway": "rail", "usage": "branch", "length_km": 0.126, "maxspeed_kmh": 95.0}}, {"type": "Feature", "geometry": {"type": "LineString", "coordinates": [[11.7145003, 60.8068137], [11.7143172, 60.8068595], [11.714118, 60.8069064], [11.7139249, 60.8069488], [11.7137238, 60.8069881], [11.7135266, 60.8070227], [11.7133024, 60.8070561], [11.7130861, 60.8070878], [11.7128246, 60.8071225], [11.71239, 60.8071666], [11.7108416, 60.8073273], [11.7106153, 60.8073508], [11.7087771, 60.8075453], [11.7078596, 60.8076408], [11.7071353, 60.8077162], [11.7043386, 60.8080081], [11.7040521, 60.8080383], [11.7035641, 60.8080897], [11.7021552, 60.8082329], [11.7019512, 60.8082568], [11.6999733, 60.8084646], [11.697918, 60.8086904], [11.6969419, 60.8088114], [11.6959297, 60.8089472], [11.6946486, 60.8091378], [11.6933348, 60.809346], [11.6910866, 60.8097081], [11.6874741, 60.8102989], [11.6861196, 60.8105205], [11.6849844, 60.8106947], [11.6830544, 60.8110187], [11.6814065, 60.8112864], [11.6797767, 60.8115493], [11.6778421, 60.8118653]]}, "properties": {"electrified": "no", "gauge": "1435", "maxspeed": "70", "name": "Sol\u00f8rbanen", "operator": "Bane NOR", "passenger_lines": "1", "railway": "rail", "usage": "branch", "length_km": 2.077, "maxspeed_kmh": 70.0}}, {"type": "Feature", "geometry": {"type": "LineString", "coordinates": [[11.7149764, 60.8066813], [11.7147733, 60.8067407]]}, "properties": {"electrified": "no", "gauge": "1435", "maxspeed": "70", "name": "Sol\u00f8rbanen", "operator": "Bane NOR", "passenger_lines": "1", "railway": "rail", "usage": "branch", "length_km": 0.013, "maxspeed_kmh": 70.0}}, {"type": "Feature", "geometry": {"type": "LineString", "coordinates": [[11.7154719, 60.8065119], [11.7152835, 60.8065799], [11.7151259, 60.8066323], [11.7149764, 60.8066813]]}, "properties": {"bridge": "yes", "electrified": "no", "gauge": "1435", "maxspeed": "70", "name": "Sol\u00f8rbanen", "operator": "Bane NOR", "passenger_lines": "1", "railway": "rail", "usage": "branch", "length_km": 0.033, "maxspeed_kmh": 70.0}}, {"type": "Feature", "geometry": {"type": "LineString", "coordinates": [[11.7178574, 60.8048505], [11.7175898, 60.8051282], [11.7173843, 60.8053452], [11.7172515, 60.8054734], [11.7171445, 60.8055731], [11.717045, 60.8056618], [11.7169283, 60.8057573], [11.7168217, 60.8058394], [11.7167112, 60.8059184], [11.7165756, 60.8060049], [11.7163584, 60.8061298], [11.7160325, 60.8062878], [11.7157603, 60.8064016], [11.7155631, 60.8064781], [11.7154719, 60.8065119]]}, "properties": {"electrified": "no", "gauge": "1435", "maxspeed": "70", "name": "Sol\u00f8rbanen", "operator": "Bane NOR", "passenger_lines": "1", "railway": "rail", "usage": "branch", "length_km": 0.229, "maxspeed_kmh": 70.0}}, {"type": "Feature", "geometry": {"type": "LineString", "coordinates": [[11.7954948, 60.7215721], [11.7952337, 60.7217538], [11.7945048, 60.7222587], [11.7932508, 60.7231257], [11.7896076, 60.725646], [11.7875045, 60.7271077], [11.7873475, 60.7272128]]}, "properties": {"electrified": "no", "gauge": "1435", "maxspeed": "90", "name": "Sol\u00f8rbanen", "operator": "Bane NOR", "passenger_lines": "1", "railway": "rail", "usage": "branch", "length_km": 0.77, "maxspeed_kmh": 90.0}}, {"type": "Feature", "geometry": {"type": "LineString", "coordinates": [[11.7873475, 60.7272128], [11.786628, 60.7277102], [11.7791005, 60.7329233], [11.7783106, 60.7334736], [11.7768744, 60.734467], [11.7761582, 60.7349626], [11.7754592, 60.7354453], [11.7748883, 60.7358378], [11.773936, 60.7365019], [11.7734975, 60.736812], [11.7730504, 60.7371335], [11.7723575, 60.7376413], [11.7718278, 60.7380365], [11.7714684, 60.7383099], [11.7711351, 60.7385636], [11.7703874, 60.7391503], [11.7696674, 60.7397347], [11.7689578, 60.7403263], [11.7685796, 60.7406481], [11.7681799, 60.7409915], [11.7677079, 60.7414091], [11.7672323, 60.7418438], [11.766855, 60.7422016], [11.7665376, 60.7425183], [11.7662072, 60.7428557], [11.7659082, 60.7431723], [11.7656131, 60.743496], [11.7653682, 60.7437779], [11.76507, 60.7441325], [11.764795, 60.7444772], [11.7645147, 60.7448396], [11.7643552, 60.7450572], [11.7642386, 60.7452171], [11.763989, 60.745577], [11.763753, 60.7459341], [11.7634928, 60.7463451], [11.7632891, 60.7466918], [11.7629644, 60.7472868], [11.7627244, 60.7477619], [11.7624999, 60.7482474], [11.7621303, 60.7491571], [11.7618167, 60.7501134], [11.7614266, 60.7513371], [11.7612197, 60.751885]]}, "properties": {"electrified": "no", "gauge": "1435", "maxspeed": "100", "name": "Sol\u00f8rbanen", "operator": "Bane NOR", "passenger_lines": "1", "railway": "rail", "usage": "branch", "length_km": 3.139, "maxspeed_kmh": 100.0}}, {"type": "Feature", "geometry": {"type": "LineString", "coordinates": [[11.8274615, 60.6991146], [11.8274262, 60.6992689], [11.8273857, 60.6994173], [11.82731, 60.6996306], [11.8272623, 60.699752], [11.8271913, 60.6998977], [11.8271229, 60.7000067], [11.8270719, 60.7000887], [11.8270132, 60.7001672], [11.8268761, 60.7003408], [11.8267876, 60.7004379]]}, "properties": {"electrified": "no", "gauge": "1435", "maxspeed": "80", "name": "Sol\u00f8rbanen", "operator": "Bane NOR", "passenger_lines": "1", "railway": "rail", "usage": "branch", "length_km": 0.153, "maxspeed_kmh": 80.0}}, {"type": "Feature", "geometry": {"type": "LineString", "coordinates": [[11.8267876, 60.7004379], [11.8265784, 60.7006413], [11.8263938, 60.7008021], [11.8258153, 60.7012576], [11.8252091, 60.7017118], [11.8247706, 60.702034], [11.8237823, 60.7027261], [11.8230191, 60.7032435], [11.8221769, 60.7037908], [11.8213722, 60.7042941], [11.8205, 60.7048159], [11.8198541, 60.7051918], [11.81912, 60.7056024], [11.8183118, 60.7060429], [11.8175139, 60.7064658], [11.8165791, 60.7069458], [11.8156175, 60.7074235], [11.8147083, 60.7078664], [11.8136133, 60.7084033], [11.8127422, 60.7088283], [11.8116894, 60.7093519], [11.8108854, 60.7097731], [11.8100512, 60.710223], [11.8091038, 60.7107533], [11.8082854, 60.7112295], [11.8069687, 60.7120294], [11.8059317, 60.7127079], [11.8052749, 60.7131683], [11.8047063, 60.7135869], [11.8041806, 60.7139923], [11.8036539, 60.7144197], [11.8031828, 60.7148176], [11.8026812, 60.7152663], [11.8022293, 60.7156953], [11.802008, 60.7159085], [11.8018016, 60.7161361], [11.8002807, 60.7176678], [11.7995122, 60.7184097], [11.7990884, 60.7187888], [11.798662, 60.7191652], [11.7982543, 60.719511], [11.7978586, 60.7198305], [11.7975596, 60.7200685], [11.7970273, 60.7204753], [11.7963995, 60.7209382]]}, "properties": {"electrified": "no", "gauge": "1435", "maxspeed": "100", "name": "Sol\u00f8rbanen", "operator": "Bane NOR", "passenger_lines": "1", "railway": "rail", "usage": "branch", "length_km": 2.84, "maxspeed_kmh": 100.0}}, {"type": "Feature", "geometry": {"type": "LineString", "coordinates": [[11.8375706, 60.6740416], [11.8375055, 60.6741593]]}, "properties": {"bridge": "yes", "electrified": "no", "gauge": "1435", "maxspeed": "100", "name": "Sol\u00f8rbanen", "operator": "Bane NOR", "passenger_lines": "1", "railway": "rail", "usage": "branch", "length_km": 0.014, "maxspeed_kmh": 100.0}}, {"type": "Feature", "geometry": {"type": "LineString", "coordinates": [[11.8385799, 60.6722176], [11.8381977, 60.6729042], [11.8375706, 60.6740416]]}, "properties": {"electrified": "no", "gauge": "1435", "maxspeed": "100", "name": "Sol\u00f8rbanen", "operator": "Bane NOR", "passenger_lines": "1", "railway": "rail", "usage": "branch", "length_km": 0.211, "maxspeed_kmh": 100.0}}, {"type": "Feature", "geometry": {"type": "LineString", "coordinates": [[11.8375055, 60.6741593], [11.83733, 60.6745074], [11.8371715, 60.6748327], [11.8369733, 60.6752627], [11.8367957, 60.675691], [11.8367841, 60.6757202], [11.836697, 60.6759392], [11.8366054, 60.6761951], [11.8364811, 60.6765592], [11.8363043, 60.677131], [11.8362037, 60.6774907], [11.8360924, 60.6779263], [11.8360171, 60.6782774], [11.8359447, 60.6786576], [11.8358309, 60.6793837], [11.8358278, 60.6794422], [11.8357193, 60.6800834], [11.8355966, 60.6809012], [11.8354842, 60.6815451], [11.835435, 60.6817534], [11.8353465, 60.6820489], [11.8352446, 60.6823076], [11.8351083, 60.6825898], [11.8349348, 60.6828973], [11.8347318, 60.6831974], [11.8343022, 60.6838223], [11.8340947, 60.6841182], [11.8333239, 60.6852314], [11.8327261, 60.6861002], [11.8325164, 60.686405], [11.8322633, 60.6867668], [11.8320317, 60.6871009], [11.8316343, 60.6876748], [11.8313679, 60.6880593], [11.8306399, 60.6891166], [11.8303242, 60.6895727], [11.8300612, 60.6899668], [11.8298721, 60.6902806], [11.8296089, 60.6907676], [11.8294363, 60.6911321], [11.829322, 60.6914091], [11.8292016, 60.691723], [11.8291189, 60.6919738], [11.8290621, 60.6921681], [11.8290091, 60.692372], [11.8287187, 60.6936192], [11.8285324, 60.6944321], [11.8283503, 60.695233], [11.8281969, 60.695891], [11.8280858, 60.6963784], [11.8279759, 60.6968568], [11.8277881, 60.6976885], [11.8275975, 60.6985198], [11.8274615, 60.6991146]]}, "properties": {"electrified": "no", "gauge": "1435", "maxspeed": "100", "name": "Sol\u00f8rbanen", "operator": "Bane NOR", "passenger_lines": "1", "railway": "rail", "usage": "branch", "length_km": 2.847, "maxspeed_kmh": 100.0}}, {"type": "Feature", "geometry": {"type": "LineString", "coordinates": [[11.838773, 60.6718628], [11.8385799, 60.6722176]]}, "properties": {"bridge": "yes", "electrified": "no", "gauge": "1435", "maxspeed": "100", "name": "Sol\u00f8rbanen", "operator": "Bane NOR", "passenger_lines": "1", "railway": "rail", "usage": "branch", "length_km": 0.041, "maxspeed_kmh": 100.0}}, {"type": "Feature", "geometry": {"type": "LineString", "coordinates": [[11.9649301, 60.6103761], [11.9647933, 60.610403]]}, "properties": {"bridge": "yes", "electrified": "no", "gauge": "1435", "maxspeed": "100", "name": "Sol\u00f8rbanen", "operator": "Bane NOR", "passenger_lines": "1", "railway": "rail", "usage": "branch", "length_km": 0.008, "maxspeed_kmh": 100.0}}, {"type": "Feature", "geometry": {"type": "LineString", "coordinates": [[11.9776256, 60.6089319], [11.9739403, 60.6092746], [11.9707149, 60.6095725], [11.9698298, 60.6096567], [11.9689393, 60.6097502], [11.968258, 60.6098344], [11.9675196, 60.6099336], [11.9669344, 60.6100233], [11.966406, 60.6101075], [11.9658239, 60.6102069], [11.9654632, 60.6102727], [11.9649301, 60.6103761]]}, "properties": {"electrified": "no", "gauge": "1435", "maxspeed": "100", "name": "Sol\u00f8rbanen", "operator": "Bane NOR", "passenger_lines": "1", "railway": "rail", "usage": "branch", "length_km": 0.715, "maxspeed_kmh": 100.0}}, {"type": "Feature", "geometry": {"type": "LineString", "coordinates": [[11.9815641, 60.6088292], [11.980736, 60.6088045], [11.9799604, 60.6087999], [11.9793064, 60.6088144], [11.9786653, 60.6088479], [11.9781818, 60.6088848], [11.9776256, 60.6089319]]}, "properties": {"electrified": "no", "gauge": "1435", "maxspeed": "90", "name": "Sol\u00f8rbanen", "operator": "Bane NOR", "passenger_lines": "1", "railway": "rail", "usage": "branch", "length_km": 0.217, "maxspeed_kmh": 90.0}}, {"type": "Feature", "geometry": {"type": "LineString", "coordinates": [[11.9866566, 60.6092657], [11.9860097, 60.609181], [11.9846915, 60.6090513], [11.9834723, 60.6089409], [11.9824599, 60.6088769], [11.9818598, 60.6088404]]}, "properties": {"electrified": "no", "gauge": "1435", "maxspeed": "90", "name": "Sol\u00f8rbanen", "operator": "Bane NOR", "passenger_lines": "1", "railway": "rail", "usage": "branch", "length_km": 0.267, "maxspeed_kmh": 90.0}}, {"type": "Feature", "geometry": {"type": "LineString", "coordinates": [[12.0109796, 60.6048438], [12.0107429, 60.6051295], [12.010474, 60.6054314], [12.0101776, 60.6057294], [12.0099214, 60.6059675], [12.00965, 60.6062062], [12.0093461, 60.6064546], [12.0090947, 60.6066488], [12.0087812, 60.6068786], [12.0085656, 60.6070213], [12.0083526, 60.6071534], [12.008125, 60.6072793], [12.0079254, 60.6073806], [12.0076637, 60.6074992], [12.0073445, 60.6076285], [12.0070993, 60.6077165], [12.0067685, 60.6078214], [12.0063738, 60.6079298], [12.0059786, 60.6080195], [12.005617, 60.6080901], [12.0053677, 60.6081301], [12.0051118, 60.6081642], [12.0048782, 60.6081942], [12.0045324, 60.6082273], [12.0040333, 60.6082634], [12.0036098, 60.6082846]]}, "properties": {"electrified": "no", "gauge": "1435", "maxspeed": "75", "name": "Sol\u00f8rbanen", "operator": "Bane NOR", "passenger_lines": "1", "railway": "rail", "usage": "branch", "length_km": 0.593, "maxspeed_kmh": 75.0}}, {"type": "Feature", "geometry": {"type": "LineString", "coordinates": [[11.5468448, 60.8615904], [11.5457841, 60.8625157], [11.5448315, 60.8633405], [11.5446534, 60.863494], [11.5444254, 60.8636903], [11.5440402, 60.864032], [11.5438471, 60.8642168], [11.5436918, 60.8643804], [11.5435601, 60.8645357], [11.5434267, 60.864719], [11.5433036, 60.8649093], [11.5432154, 60.8650653], [11.5431507, 60.8652103], [11.5430944, 60.8653429], [11.5430156, 60.8655967], [11.5429535, 60.8658711], [11.5429408, 60.8659873], [11.5429177, 60.8661628], [11.5428976, 60.8663708]]}, "properties": {"electrified": "no", "gauge": "1435", "name": "Sol\u00f8rbanen", "operator": "Bane NOR", "passenger_lines": "1", "railway": "rail", "usage": "branch", "length_km": 0.582}}, {"type": "Feature", "geometry": {"type": "LineString", "coordinates": [[11.5886155, 60.8430128], [11.5884183, 60.8431308], [11.5882266, 60.8432404], [11.5879905, 60.8433569], [11.5877847, 60.8434474], [11.5875782, 60.8435288], [11.5873811, 60.8435975], [11.5871664, 60.843663], [11.5869544, 60.8437205], [11.5867117, 60.8437806], [11.5864554, 60.843831], [11.5861398, 60.8438843], [11.5858146, 60.8439276], [11.5855517, 60.8439518], [11.5853052, 60.8439681], [11.5850924, 60.8439779], [11.5848423, 60.8439792], [11.5845888, 60.8439782], [11.5843052, 60.8439665], [11.5839927, 60.8439426], [11.5837366, 60.8439162], [11.5834339, 60.8438742], [11.5827782, 60.8437637], [11.5824826, 60.8437123], [11.5821667, 60.8436655], [11.5819542, 60.8436398], [11.5817436, 60.8436198], [11.5815207, 60.8436036], [11.5812864, 60.8435934], [11.5810461, 60.8435885], [11.5808444, 60.8435888], [11.5806608, 60.8435934], [11.5804797, 60.8436009], [11.5802985, 60.8436124], [11.5801283, 60.8436267], [11.5799466, 60.8436463], [11.5797119, 60.8436764], [11.5794797, 60.8437123], [11.579272, 60.8437509], [11.5790467, 60.8437953], [11.5787658, 60.8438554]]}, "properties": {"electrified": "no", "gauge": "1435", "maxspeed": "65", "name": "Sol\u00f8rbanen", "operator": "Bane NOR", "passenger_lines": "1", "railway": "rail", "usage": "branch", "length_km": 0.581, "maxspeed_kmh": 65.0}}, {"type": "Feature", "geometry": {"type": "LineString", "coordinates": [[11.6030631, 60.8372444], [11.6011639, 60.8374887], [11.6000353, 60.8376372], [11.5998083, 60.8376698], [11.5995477, 60.837709], [11.5991878, 60.8377701], [11.5987656, 60.8378503], [11.5983338, 60.8379438], [11.5978981, 60.8380493], [11.5974943, 60.8381555], [11.5970004, 60.8383027], [11.5965968, 60.8384339], [11.59619, 60.8385819], [11.5959872, 60.8386599], [11.5955383, 60.8388436], [11.5951936, 60.839005], [11.5948412, 60.8391821], [11.5944667, 60.839388], [11.594143, 60.8395809], [11.5937283, 60.8398326], [11.5931104, 60.8402165], [11.5927434, 60.8404466], [11.5923441, 60.8406905], [11.5908328, 60.8416326], [11.5902324, 60.8420064], [11.5895509, 60.842431], [11.5889978, 60.8427735], [11.5886155, 60.8430128]]}, "properties": {"electrified": "no", "gauge": "1435", "maxspeed": "100", "name": "Sol\u00f8rbanen", "operator": "Bane NOR", "passenger_lines": "1", "railway": "rail", "usage": "branch", "length_km": 1.05, "maxspeed_kmh": 100.0}}, {"type": "Feature", "geometry": {"type": "LineString", "coordinates": [[11.5472155, 60.880771], [11.5471417, 60.8809284]]}, "properties": {"electrified": "no", "gauge": "1435", "maxspeed": "40", "name": "Sol\u00f8rbanen", "operator": "Bane NOR", "passenger_lines": "1", "railway": "rail", "usage": "branch", "length_km": 0.018, "maxspeed_kmh": 40.0}}, {"type": "Feature", "geometry": {"type": "LineString", "coordinates": [[11.5598834, 60.8502632], [11.5597775, 60.8503553], [11.5572539, 60.8525484], [11.5541916, 60.8551703], [11.5524432, 60.8567289], [11.550627, 60.8583058], [11.5505886, 60.858331], [11.5496286, 60.8591737], [11.5484552, 60.8601959], [11.5477064, 60.8608471], [11.5471834, 60.8612987], [11.5468448, 60.8615904]]}, "properties": {"electrified": "no", "gauge": "1435", "name": "Sol\u00f8rbanen", "operator": "Bane NOR", "passenger_lines": "1", "railway": "rail", "usage": "branch", "length_km": 1.448}}, {"type": "Feature", "geometry": {"type": "LineString", "coordinates": [[11.7963995, 60.7209382], [11.7954948, 60.7215721]]}, "properties": {"electrified": "no", "gauge": "1435", "maxspeed": "90", "name": "Sol\u00f8rbanen", "operator": "Bane NOR", "passenger_lines": "1", "railway": "rail", "usage": "branch", "length_km": 0.086, "maxspeed_kmh": 90.0}}, {"type": "Feature", "geometry": {"type": "LineString", "coordinates": [[12.0246074, 60.5950438], [12.0240802, 60.5953445], [12.0237488, 60.5955479], [12.0234941, 60.5957139], [12.0232413, 60.5958894], [12.0229079, 60.5961275], [12.0222999, 60.5966184], [12.02186, 60.597032], [12.0214364, 60.5974621], [12.0211244, 60.5977824], [12.0207797, 60.5981346], [12.0201067, 60.5988209], [12.0194673, 60.5994753], [12.0183848, 60.6005824]]}, "properties": {"electrified": "no", "gauge": "1435", "maxspeed": "60", "name": "Sol\u00f8rbanen", "operator": "Bane NOR", "passenger_lines": "1", "railway": "rail", "usage": "branch", "length_km": 0.708, "maxspeed_kmh": 60.0}}, {"type": "Feature", "geometry": {"type": "LineString", "coordinates": [[12.0249382, 60.5948667], [12.0246074, 60.5950438]]}, "properties": {"electrified": "no", "gauge": "1435", "maxspeed": "60", "name": "Sol\u00f8rbanen", "operator": "Bane NOR", "passenger_lines": "1", "railway": "rail", "usage": "branch", "length_km": 0.027, "maxspeed_kmh": 60.0}}, {"type": "Feature", "geometry": {"type": "LineString", "coordinates": [[12.0621628, 60.4591076], [12.0622725, 60.4593317]]}, "properties": {"electrified": "no", "gauge": "1435", "maxspeed": "70", "name": "Sol\u00f8rbanen", "operator": "Bane NOR", "passenger_lines": "1", "railway": "rail", "usage": "branch", "length_km": 0.026, "maxspeed_kmh": 70.0}}]}