{"type": "FeatureCollection", "features": [{"type": "Feature", "geometry": {"type": "LineString", "coordinates": [[7.9535606, 58.1563992], [7.9538208, 58.1567049]]}, "properties": {"bridge": "yes", "electrified": "contact_line", "frequency": "16.67", "gauge": "1435", "maxspeed": "40", "name": "S\u00f8rlandsbanen nordre tilsving Dalane", "passenger_lines": "1", "railway": "rail", "usage": "main", "voltage": "15000", "length_km": 0.037, "maxspeed_kmh": 40.0}}, {"type": "Feature", "geometry": {"type": "LineString", "coordinates": [[7.9538208, 58.1567049], [7.9540058, 58.1570304], [7.9540916, 58.1572482], [7.9541525, 58.1574596], [7.954189, 58.1576429], [7.9542236, 58.1579084], [7.9542108, 58.1581166], [7.954192, 58.158301], [7.9541266, 58.1585325], [7.9540045, 58.1588027], [7.9538739, 58.1590276], [7.9534185, 58.1597586], [7.9532202, 58.1600708], [7.9527973, 58.160744], [7.9520327, 58.161963]]}, "properties": {"electrified": "contact_line", "frequency": "16.67", "gauge": "1435", "maxspeed": "40", "name": "S\u00f8rlandsbanen nordre tilsving Dalane", "passenger_lines": "1", "railway": "rail", "usage": "main", "voltage": "15000", "length_km": 0.609, "maxspeed_kmh": 40.0}}, {"type": "Feature", "geometry": {"type": "LineString", "coordinates": [[7.9533273, 58.156187], [7.9535606, 58.1563992]]}, "properties": {"electrified": "contact_line", "frequency": "16.67", "gauge": "1435", "maxspeed": "40", "name": "S\u00f8rlandsbanen nordre tilsving Dalane", "passenger_lines": "1", "railway": "rail", "usage": "main", "voltage": "15000", "length_km": 0.027, "maxspeed_kmh": 40.0}}, {"type": "Feature", "geometry": {"type": "LineString", "coordinates": [[7.9515856, 58.1552573], [7.9520452, 58.1554142], [7.9524099, 58.1555727], [7.9526245, 58.1556973], [7.9528525, 58.155843], [7.9530483, 58.155986], [7.9533273, 58.156187]]}, "properties": {"electrified": "contact_line", "frequency": "16.67", "gauge": "1435", "maxspeed": "40", "name": "S\u00f8rlandsbanen nordre tilsving Dalane", "passenger_lines": "1", "railway": "rail", "tunnel": "yes", "usage": "main", "voltage": "15000", "length_km": 0.148, "maxspeed_kmh": 40.0}}, {"type": "Feature", "geometry": {"type": "LineString", "coordinates": [[7.9501364, 58.1655028], [7.9502261, 58.1652302], [7.9503626, 58.1649002], [7.9504355, 58.1647659], [7.9515907, 58.1627046], [7.9516715, 58.1625607], [7.9518901, 58.1621847], [7.9520327, 58.161963]]}, "properties": {"electrified": "contact_line", "frequency": "16.67", "gauge": "1435", "maxspeed": "40", "name": "S\u00f8rlandsbanen nordre tilsving Dalane", "passenger_lines": "1", "railway": "rail", "usage": "main", "voltage": "15000", "length_km": 0.411, "maxspeed_kmh": 40.0}}, {"type": "Feature", "geometry": {"type": "LineString", "coordinates": [[7.948358, 58.1549528], [7.9486765, 58.1549316], [7.9488236, 58.1549235], [7.949027, 58.1549164], [7.9494414, 58.1549101], [7.9498048, 58.1549246], [7.9505636, 58.1550107], [7.9507686, 58.1550436], [7.9511847, 58.1551377], [7.9515856, 58.1552573]]}, "properties": {"electrified": "contact_line", "frequency": "16.67", "gauge": "1435", "maxspeed": "40", "name": "S\u00f8rlandsbanen nordre tilsving Dalane", "passenger_lines": "1", "railway": "rail", "usage": "main", "voltage": "15000", "length_km": 0.198, "maxspeed_kmh": 40.0}}, {"type": "Feature", "geometry": {"type": "LineString", "coordinates": [[7.9499871, 58.165873], [7.9500501, 58.1657434], [7.9500984, 58.165615], [7.9501364, 58.1655028]]}, "properties": {"electrified": "contact_line", "frequency": "16.67", "gauge": "1435", "maxspeed": "40", "name": "S\u00f8rlandsbanen nordre tilsving Dalane", "passenger_lines": "1", "railway": "rail", "usage": "main", "voltage": "15000", "length_km": 0.042, "maxspeed_kmh": 40.0}}]}