{"type": "FeatureCollection", "features": [{"type": "Feature", "geometry": {"type": "LineString", "coordinates": [[10.4322354, 59.8274939], [10.4321864, 59.8272374], [10.4320885, 59.8266965], [10.4319945, 59.8261907], [10.4319725, 59.826071], [10.431949, 59.8259508], [10.4319238, 59.8258311], [10.4318924, 59.8257126], [10.4318745, 59.8256257], [10.4318503, 59.8255389], [10.4318205, 59.8254528], [10.4317876, 59.8253676], [10.4317392, 59.8252429], [10.4316813, 59.8251174], [10.4316209, 59.8249939], [10.4315543, 59.8248712], [10.4313798, 59.824566], [10.4312946, 59.8244134], [10.4312134, 59.8242619], [10.4311486, 59.8241296], [10.431092, 59.8239962], [10.431065, 59.8239059], [10.4310461, 59.8238145], [10.4310294, 59.8237287], [10.4310206, 59.8236429], [10.431016, 59.8235575], [10.4310193, 59.823472], [10.4310257, 59.8233856], [10.4310381, 59.8232991], [10.4310567, 59.8232166], [10.4310814, 59.823133], [10.4311091, 59.8230475], [10.4311408, 59.8229629], [10.4311811, 59.8228829], [10.4312253, 59.822803], [10.4312715, 59.822723], [10.4313218, 59.822644], [10.4314456, 59.8224731], [10.4315795, 59.8223033], [10.4322759, 59.8214265], [10.4325382, 59.8211055], [10.432743, 59.8208508], [10.432908, 59.8206293], [10.4330047, 59.8204859], [10.4330974, 59.8203426], [10.4331962, 59.8201751], [10.4332849, 59.8200066], [10.4333747, 59.8198213], [10.4334513, 59.8196484], [10.4335159, 59.8194724], [10.4335802, 59.8192818], [10.4336162, 59.8191492], [10.4336481, 59.8190145], [10.433676, 59.8188799], [10.4336978, 59.8187453], [10.4337345, 59.8184769], [10.4337692, 59.8182085], [10.4337854, 59.8180973], [10.4338096, 59.8179851], [10.4338378, 59.8178749], [10.433872, 59.8177648], [10.4339129, 59.8176603], [10.4339579, 59.8175558], [10.4340108, 59.8174519], [10.4340698, 59.8173489], [10.4341367, 59.8172446], [10.4342097, 59.8171413], [10.4342836, 59.8170385], [10.4343616, 59.8169367], [10.4347253, 59.8164798], [10.434791, 59.8163875], [10.4348547, 59.8162943], [10.4349124, 59.816201], [10.434966, 59.8161068], [10.435015, 59.8160088], [10.4350559, 59.8159108], [10.4350928, 59.8158093], [10.4351196, 59.8157098], [10.4351405, 59.8156134], [10.4351594, 59.8155159], [10.4351723, 59.8154194], [10.4351792, 59.8153229], [10.4352036, 59.8147898], [10.435213, 59.8146839], [10.4352265, 59.8145791], [10.435244, 59.8144743], [10.4352695, 59.8143704], [10.4353006, 59.8142629], [10.4353398, 59.8141544], [10.4353806, 59.8140464], [10.4354263, 59.8139393], [10.4356652, 59.8134163], [10.4357213, 59.8132851], [10.4357756, 59.8131539], [10.4358252, 59.8130209], [10.435873, 59.8128906], [10.4359173, 59.8127667], [10.4359579, 59.8126428], [10.4359957, 59.8125194], [10.4360259, 59.812396], [10.436044, 59.8122947], [10.4360575, 59.8121852], [10.4360667, 59.8120794], [10.4360703, 59.8119745], [10.4360629, 59.811871], [10.4360518, 59.8117714], [10.4360369, 59.8116689], [10.4360164, 59.8115674], [10.435991, 59.811466], [10.4359618, 59.8113656], [10.435896, 59.8111647], [10.4358521, 59.8110382], [10.4358121, 59.8109118], [10.4357711, 59.8107853], [10.4357357, 59.8106597], [10.4357101, 59.8105365], [10.4356882, 59.8104133], [10.4356686, 59.8102901], [10.4356557, 59.8101677], [10.4356488, 59.8100426], [10.4356474, 59.8099176], [10.4356488, 59.8097932], [10.4356558, 59.8096688], [10.4357036, 59.8091416], [10.4357706, 59.8086032], [10.4358152, 59.8083321], [10.4358647, 59.8080585], [10.4359227, 59.8077944], [10.4359905, 59.8075303], [10.436035, 59.8073906], [10.436083, 59.8072508], [10.4361347, 59.8071288], [10.4361899, 59.8070068], [10.4362352, 59.806917], [10.4363266, 59.8067431], [10.436423, 59.80657], [10.4364965, 59.8064455], [10.4365588, 59.8063347], [10.4366241, 59.8062166], [10.4366861, 59.8060985], [10.4367387, 59.8060008], [10.4367862, 59.8059022], [10.4368321, 59.8058032], [10.4368729, 59.8057042], [10.436926, 59.8055705], [10.4369757, 59.805436], [10.4370178, 59.8053011], [10.4370549, 59.8051661], [10.4371161, 59.8049098], [10.4371706, 59.8046535], [10.4372857, 59.8040964], [10.4374808, 59.8030242], [10.4375769, 59.8024843], [10.4376288, 59.8022506], [10.4376891, 59.8020128], [10.4377675, 59.8017465], [10.4378571, 59.8014829], [10.4379595, 59.8012197], [10.4380785, 59.8009552], [10.4383458, 59.8004245], [10.4384518, 59.8001979]]}, "properties": {"electrified": "contact_line", "frequency": "16.67", "gauge": "1435", "maxspeed": "80", "name": "Spikkestadbanen", "operator": "Bane NOR", "passenger_lines": "1", "railway": "rail", "usage": "branch", "voltage": "15000", "length_km": 3.105, "maxspeed_kmh": 80.0}}, {"type": "Feature", "geometry": {"type": "LineString", "coordinates": [[10.3636899, 59.7417483], [10.3633975, 59.7418196], [10.36316, 59.7418792], [10.3629169, 59.7419375], [10.3626752, 59.7419929], [10.3624334, 59.7420441], [10.3622159, 59.74209], [10.36199, 59.742133], [10.3617696, 59.7421725], [10.3615465, 59.7422112], [10.3613172, 59.7422476], [10.3610809, 59.7422826], [10.3608405, 59.7423134], [10.3606056, 59.7423427], [10.3603648, 59.7423684], [10.3601209, 59.7423909], [10.3598817, 59.742411], [10.3596425, 59.7424279], [10.359386, 59.7424415], [10.3591231, 59.7424535], [10.3588657, 59.7424629], [10.3586227, 59.7424695], [10.3580853, 59.7424845], [10.3578144, 59.7424928], [10.3575537, 59.7425038], [10.3573593, 59.7425136], [10.3571682, 59.7425251], [10.3569772, 59.74254], [10.356796, 59.7425565], [10.3566039, 59.7425778], [10.356415, 59.7426024], [10.3562262, 59.7426287], [10.3560439, 59.7426566], [10.3549971, 59.7428398], [10.3523577, 59.7433123], [10.3488607, 59.7439382], [10.3482506, 59.7440476]]}, "properties": {"electrified": "contact_line", "frequency": "16.67", "gauge": "1435", "maxspeed": "80", "name": "Spikkestadbanen", "operator": "Bane NOR", "railway": "rail", "usage": "branch", "voltage": "15000", "length_km": 0.911, "maxspeed_kmh": 80.0}}, {"type": "Feature", "geometry": {"type": "LineString", "coordinates": [[10.3643419, 59.7415883], [10.3636899, 59.7417483]]}, "properties": {"bridge": "yes", "electrified": "contact_line", "frequency": "16.67", "gauge": "1435", "maxspeed": "80", "name": "Spikkestadbanen", "operator": "Bane NOR", "railway": "rail", "usage": "branch", "voltage": "15000", "length_km": 0.041, "maxspeed_kmh": 80.0}}, {"type": "Feature", "geometry": {"type": "LineString", "coordinates": [[10.3881579, 59.7459743], [10.3879424, 59.7458602]]}, "properties": {"electrified": "contact_line", "frequency": "16.67", "gauge": "1435", "name": "Spikkestadbanen", "operator": "Bane NOR", "railway": "rail", "tunnel": "yes", "usage": "branch", "voltage": "15000", "length_km": 0.018}}, {"type": "Feature", "geometry": {"type": "LineString", "coordinates": [[10.3836041, 59.743711], [10.383312, 59.743569], [10.3831648, 59.7435014], [10.3830154, 59.7434349], [10.3828848, 59.74338], [10.3827475, 59.7433273], [10.3826113, 59.7432781], [10.3824751, 59.7432333], [10.3823474, 59.7431924], [10.3822175, 59.743155], [10.3820853, 59.7431186], [10.3819509, 59.7430868], [10.3817971, 59.74305], [10.3816316, 59.7430155], [10.3815002, 59.7429904], [10.3813351, 59.7429603], [10.381183, 59.7429357], [10.3810371, 59.7429143], [10.380865, 59.7428909], [10.3806954, 59.7428712], [10.3805184, 59.7428533], [10.3803463, 59.7428405], [10.3801696, 59.7428275], [10.3799928, 59.7428183], [10.37981, 59.7428121], [10.3796369, 59.7428085], [10.3794548, 59.7428059], [10.3792498, 59.7428061], [10.3790801, 59.7428097]]}, "properties": {"electrified": "contact_line", "frequency": "16.67", "gauge": "1435", "maxspeed": "70", "name": "Spikkestadbanen", "operator": "Bane NOR", "railway": "rail", "usage": "branch", "voltage": "15000", "length_km": 0.283, "maxspeed_kmh": 70.0}}, {"type": "Feature", "geometry": {"type": "LineString", "coordinates": [[10.4277876, 59.7835869], [10.4276506, 59.7834499], [10.4272289, 59.7830453], [10.4267461, 59.7825793], [10.4262531, 59.7821062], [10.4257451, 59.7816149], [10.4252524, 59.7811424], [10.4247574, 59.7806647], [10.4242575, 59.7801843], [10.4238451, 59.7797874], [10.4232633, 59.7792267], [10.4227712, 59.778754], [10.4223686, 59.7783676], [10.421782, 59.7777988], [10.4215177, 59.7775276], [10.4213183, 59.7773127], [10.4211205, 59.7770863], [10.4210216, 59.7769714], [10.4209295, 59.7768577], [10.4208206, 59.7767226], [10.4207142, 59.7765875], [10.4206116, 59.7764517], [10.4205116, 59.7763173], [10.4204022, 59.7761612], [10.4202929, 59.7760052], [10.4201667, 59.7758059], [10.4200543, 59.7756264], [10.4199486, 59.7754447], [10.4198096, 59.7751892], [10.4196779, 59.7749299], [10.4195364, 59.7746384], [10.4194008, 59.7743489], [10.4186839, 59.7728031]]}, "properties": {"electrified": "contact_line", "frequency": "16.67", "gauge": "1435", "maxspeed": "110", "name": "Spikkestadbanen", "operator": "Bane NOR", "railway": "rail", "usage": "branch", "voltage": "15000", "length_km": 1.313, "maxspeed_kmh": 110.0}}, {"type": "Feature", "geometry": {"type": "LineString", "coordinates": [[10.4366911, 59.7954008], [10.4366058, 59.7953117], [10.4365255, 59.7952176], [10.4364632, 59.7951379], [10.4364058, 59.795057], [10.4363534, 59.7949749], [10.4363082, 59.7948927], [10.436268, 59.7948089], [10.4362349, 59.794725], [10.4362079, 59.7946412], [10.4361858, 59.7945586], [10.4361689, 59.7944702], [10.4361568, 59.7943806], [10.4361513, 59.7943015], [10.4361507, 59.7942261], [10.4361563, 59.7941434], [10.4361691, 59.7940608], [10.4361831, 59.7939781], [10.436202, 59.7938967], [10.4362475, 59.7937569], [10.4362977, 59.7936171], [10.4363522, 59.7934877], [10.4363994, 59.7933583], [10.4364308, 59.7932719], [10.4364574, 59.7931856], [10.4364804, 59.7930992], [10.4364961, 59.7930129], [10.4365074, 59.7929284], [10.4365139, 59.7928439], [10.4365167, 59.7927594], [10.4365099, 59.7926749], [10.4364958, 59.7925887], [10.4364769, 59.7925038], [10.4364567, 59.7924177], [10.4364269, 59.7923327], [10.4363912, 59.7922494], [10.4363506, 59.7921672], [10.4363088, 59.792085], [10.4362598, 59.7920029], [10.4362014, 59.7919209], [10.4361407, 59.7918414], [10.436074, 59.7917618], [10.4360024, 59.7916841], [10.4359429, 59.7916215], [10.4357653, 59.7914577], [10.435578, 59.7912939], [10.4350404, 59.7908348], [10.4344944, 59.7903695], [10.4340782, 59.7900091], [10.4339828, 59.7899238], [10.4338914, 59.7898385], [10.433801, 59.7897507], [10.4337146, 59.7896628], [10.433637, 59.789581], [10.4335654, 59.7894991], [10.4334879, 59.7894123], [10.4334143, 59.7893254]]}, "properties": {"electrified": "contact_line", "frequency": "16.67", "gauge": "1435", "maxspeed": "70", "name": "Spikkestadbanen", "operator": "Bane NOR", "railway": "rail", "usage": "branch", "voltage": "15000", "length_km": 0.726, "maxspeed_kmh": 70.0}}, {"type": "Feature", "geometry": {"type": "LineString", "coordinates": [[10.4366911, 59.7954008], [10.4367835, 59.795489]]}, "properties": {"bridge": "yes", "electrified": "contact_line", "frequency": "16.67", "gauge": "1435", "maxspeed": "70", "name": "Spikkestadbanen", "operator": "Bane NOR", "railway": "rail", "usage": "branch", "voltage": "15000", "length_km": 0.011, "maxspeed_kmh": 70.0}}, {"type": "Feature", "geometry": {"type": "LineString", "coordinates": [[10.4332176, 59.789084], [10.4331755, 59.7890309], [10.4331349, 59.7889775], [10.4330643, 59.7888819], [10.4329808, 59.7887583], [10.4328389, 59.7885322], [10.4327786, 59.7884403], [10.4327136, 59.7883484], [10.4326448, 59.7882585], [10.4325729, 59.7881693], [10.4324484, 59.7880223], [10.4323178, 59.7878768], [10.4321695, 59.7877208], [10.4320127, 59.7875622], [10.4316862, 59.7872513], [10.4312354, 59.7868135], [10.4306609, 59.786262], [10.429774, 59.7854089], [10.4293033, 59.784954], [10.4288721, 59.7845388], [10.4285595, 59.7842396], [10.428491, 59.7841793], [10.4284195, 59.7841189], [10.4283465, 59.7840582], [10.4282703, 59.783999], [10.4280784, 59.7838443], [10.4279728, 59.7837549], [10.427878, 59.7836713], [10.4277876, 59.7835869]]}, "properties": {"electrified": "contact_line", "frequency": "16.67", "gauge": "1435", "maxspeed": "60", "name": "Spikkestadbanen", "operator": "Bane NOR", "railway": "rail", "voltage": "15000", "length_km": 0.686, "maxspeed_kmh": 60.0}}, {"type": "Feature", "geometry": {"type": "LineString", "coordinates": [[10.3482506, 59.7440476], [10.3481434, 59.7440681], [10.3480428, 59.7440889], [10.3478303, 59.7441336], [10.34764, 59.7441795], [10.3475335, 59.7442059], [10.3474208, 59.7442331], [10.3473102, 59.7442577], [10.3472019, 59.7442815], [10.347106, 59.7443022], [10.3470132, 59.7443197], [10.3468287, 59.7443526], [10.3467358, 59.7443692], [10.3466474, 59.7443866], [10.3462191, 59.7444761], [10.3439939, 59.7449529], [10.3427987, 59.7452096], [10.3421805, 59.7453419], [10.342005, 59.7453801]]}, "properties": {"electrified": "contact_line", "frequency": "16.67", "gauge": "1435", "maxspeed": "40", "name": "Spikkestadbanen", "railway": "rail", "service": "siding", "voltage": "15000", "length_km": 0.382, "maxspeed_kmh": 40.0}}, {"type": "Feature", "geometry": {"type": "LineString", "coordinates": [[10.3419617, 59.7453435], [10.3421473, 59.745302], [10.3439644, 59.7449139], [10.3461871, 59.7444369], [10.3466166, 59.7443469], [10.3467967, 59.7443108], [10.3469828, 59.7442752], [10.3473614, 59.7442059], [10.3482506, 59.7440476]]}, "properties": {"electrified": "contact_line", "frequency": "16.67", "gauge": "1435", "name": "Spikkestadbanen", "operator": "Bane NOR", "railway": "rail", "usage": "branch", "voltage": "15000", "length_km": 0.382}}, {"type": "Feature", "geometry": {"type": "LineString", "coordinates": [[10.4332176, 59.789084], [10.4329554, 59.7887631], [10.432778, 59.7885473], [10.4324829, 59.7881877], [10.4323602, 59.7880421], [10.432236, 59.7878981], [10.4320896, 59.7877394], [10.4319356, 59.7875822], [10.4316156, 59.7872711], [10.4311615, 59.7868336], [10.4305884, 59.7862823], [10.4297038, 59.7854304], [10.4293672, 59.7851097], [10.4287955, 59.7845575]]}, "properties": {"electrified": "contact_line", "frequency": "16.67", "gauge": "1435", "maxspeed": "110", "name": "Spikkestadbanen", "operator": "Bane NOR", "railway": "rail", "usage": "branch", "voltage": "15000", "length_km": 0.563, "maxspeed_kmh": 110.0}}, {"type": "Feature", "geometry": {"type": "LineString", "coordinates": [[10.3959002, 59.7500981], [10.3955939, 59.7496868], [10.3955194, 59.7495906], [10.3954373, 59.7494944], [10.3953527, 59.7494032], [10.395263, 59.7493121], [10.3951682, 59.7492223], [10.3950658, 59.7491338], [10.3949596, 59.7490453], [10.3948534, 59.7489632], [10.394733, 59.7488778], [10.3946127, 59.7487957], [10.394489, 59.748717], [10.3943608, 59.7486395], [10.3942289, 59.7485641], [10.3940903, 59.7484898], [10.3939472, 59.7484189], [10.3938018, 59.7483492], [10.393656, 59.7482833], [10.3935079, 59.7482185], [10.3933531, 59.7481566], [10.3932173, 59.7481053], [10.3930141, 59.7480316], [10.3928043, 59.7479601], [10.3925944, 59.7478903], [10.3923868, 59.7478239], [10.3918123, 59.7476368], [10.3914863, 59.747529], [10.3911649, 59.7474212], [10.3909138, 59.7473322], [10.3906739, 59.7472375], [10.3904484, 59.7471405], [10.3902319, 59.7470402], [10.3900285, 59.7469379], [10.3898523, 59.7468501], [10.3895444, 59.7466904], [10.3888758, 59.7463461], [10.3881579, 59.7459743]]}, "properties": {"electrified": "contact_line", "frequency": "16.67", "gauge": "1435", "name": "Spikkestadbanen", "operator": "Bane NOR", "railway": "rail", "usage": "branch", "voltage": "15000", "length_km": 0.646}}, {"type": "Feature", "geometry": {"type": "LineString", "coordinates": [[10.3960057, 59.7502431], [10.3959644, 59.7501871]]}, "properties": {"bridge": "yes", "electrified": "contact_line", "frequency": "16.67", "gauge": "1435", "maxspeed": "95", "name": "Spikkestadbanen", "operator": "Bane NOR", "railway": "rail", "usage": "branch", "voltage": "15000", "length_km": 0.007, "maxspeed_kmh": 95.0}}, {"type": "Feature", "geometry": {"type": "LineString", "coordinates": [[10.3969354, 59.7513968], [10.396629, 59.7510471]]}, "properties": {"bridge": "yes", "electrified": "contact_line", "frequency": "16.67", "gauge": "1435", "maxspeed": "95", "name": "Spikkestadbanen", "operator": "Bane NOR", "railway": "rail", "usage": "branch", "voltage": "15000", "length_km": 0.043, "maxspeed_kmh": 95.0}}, {"type": "Feature", "geometry": {"type": "LineString", "coordinates": [[10.396629, 59.7510471], [10.3963367, 59.7506837], [10.3961298, 59.7504117], [10.3960057, 59.7502431]]}, "properties": {"electrified": "contact_line", "frequency": "16.67", "gauge": "1435", "maxspeed": "95", "name": "Spikkestadbanen", "operator": "Bane NOR", "railway": "rail", "usage": "branch", "voltage": "15000", "length_km": 0.096, "maxspeed_kmh": 95.0}}, {"type": "Feature", "geometry": {"type": "LineString", "coordinates": [[10.3790801, 59.7428097], [10.3786553, 59.7428198]]}, "properties": {"bridge": "yes", "electrified": "contact_line", "frequency": "16.67", "gauge": "1435", "maxspeed": "70", "name": "Spikkestadbanen", "operator": "Bane NOR", "railway": "rail", "usage": "branch", "voltage": "15000", "length_km": 0.024, "maxspeed_kmh": 70.0}}, {"type": "Feature", "geometry": {"type": "LineString", "coordinates": [[10.3786553, 59.7428198], [10.3775867, 59.7428509], [10.3773811, 59.7428547], [10.3771755, 59.7428598], [10.3769755, 59.7428615], [10.3767727, 59.7428603], [10.3765756, 59.7428571], [10.3763841, 59.7428496], [10.3761899, 59.7428401], [10.3760012, 59.7428278], [10.3758289, 59.7428143], [10.3756427, 59.7427967], [10.375482, 59.7427783], [10.3753121, 59.7427572], [10.3751395, 59.7427334], [10.3749624, 59.742706], [10.3747971, 59.7426787], [10.3746277, 59.742648], [10.3744666, 59.742616], [10.3743, 59.7425804], [10.3741417, 59.7425435], [10.3738174, 59.7424604], [10.3734986, 59.7423744], [10.3700049, 59.7414223], [10.3698485, 59.7413825], [10.3696921, 59.7413454], [10.3695371, 59.7413076], [10.3693765, 59.741274], [10.3692012, 59.7412379], [10.3690231, 59.7412075], [10.3688437, 59.7411791], [10.368667, 59.741155], [10.3684709, 59.7411338], [10.3682372, 59.7411146], [10.3680387, 59.7411009], [10.3678345, 59.7410918], [10.3675792, 59.7410872], [10.3673462, 59.7410883], [10.3671164, 59.741095], [10.3668803, 59.7411089], [10.3666637, 59.741127], [10.3664268, 59.7411521], [10.3661956, 59.7411828], [10.3659866, 59.741215], [10.3657897, 59.7412509], [10.3655984, 59.7412896], [10.365373, 59.7413382]]}, "properties": {"electrified": "contact_line", "frequency": "16.67", "gauge": "1435", "maxspeed": "70", "name": "Spikkestadbanen", "operator": "Bane NOR", "railway": "rail", "usage": "branch", "voltage": "15000", "length_km": 0.795, "maxspeed_kmh": 70.0}}, {"type": "Feature", "geometry": {"type": "LineString", "coordinates": [[10.432112, 59.8310548], [10.432012, 59.8309286], [10.4319174, 59.8307996], [10.4318769, 59.8307361], [10.4318399, 59.8306717], [10.4318075, 59.8306068], [10.4317786, 59.8305419], [10.4317508, 59.8304644], [10.4317303, 59.8303851], [10.4317169, 59.8303066], [10.4317088, 59.8302282], [10.4317064, 59.8301448], [10.4317111, 59.8300622], [10.4317194, 59.8299788], [10.4317312, 59.8298962], [10.4317458, 59.829817], [10.4317639, 59.8297378], [10.4317874, 59.8296581], [10.4318145, 59.8295793], [10.4318569, 59.8294788], [10.4319118, 59.8293648], [10.4320346, 59.8291421], [10.4321502, 59.8289203], [10.4321883, 59.8288471], [10.432221, 59.828773], [10.4322529, 59.8286998], [10.4322775, 59.8286248], [10.4323003, 59.828548], [10.4323176, 59.8284711], [10.4323305, 59.8283925], [10.432338, 59.8283156], [10.4323447, 59.8282034], [10.4323386, 59.8281008], [10.4323331, 59.8280368], [10.4323249, 59.8279729]]}, "properties": {"electrified": "contact_line", "frequency": "16.67", "gauge": "1435", "maxspeed": "40", "name": "Spikkestadbanen", "operator": "Bane NOR", "passenger_lines": "1", "railway": "rail", "usage": "branch", "voltage": "15000", "length_km": 0.351, "maxspeed_kmh": 40.0}}, {"type": "Feature", "geometry": {"type": "LineString", "coordinates": [[10.4150521, 59.7662105], [10.4149061, 59.7660819]]}, "properties": {"bridge": "yes", "electrified": "contact_line", "frequency": "16.67", "gauge": "1435", "maxspeed": "110", "name": "Spikkestadbanen", "operator": "Bane NOR", "railway": "rail", "usage": "branch", "voltage": "15000", "length_km": 0.017, "maxspeed_kmh": 110.0}}, {"type": "Feature", "geometry": {"type": "LineString", "coordinates": [[10.4149061, 59.7660819], [10.4143283, 59.7656086], [10.4137529, 59.765151], [10.413183, 59.7646956], [10.412611, 59.7642433], [10.4120365, 59.7637846], [10.4103226, 59.7624216], [10.4097586, 59.7619622], [10.4094886, 59.7617321], [10.4092185, 59.7614968], [10.4089934, 59.7612899], [10.4087341, 59.7610501], [10.4084828, 59.7608084], [10.4083821, 59.7607113], [10.4081605, 59.760493], [10.4079298, 59.7602573], [10.4076563, 59.7599722], [10.4073514, 59.7596382], [10.4067332, 59.7589465], [10.4061943, 59.7583386], [10.4058364, 59.7579378], [10.4055639, 59.7576321], [10.4053952, 59.7574508], [10.4051052, 59.757157], [10.4048842, 59.7569489], [10.4046486, 59.7567349], [10.4044712, 59.7565761], [10.4041182, 59.756278], [10.4036539, 59.7558992], [10.4033001, 59.7556256], [10.4029316, 59.7553541], [10.4024224, 59.7549982], [10.4019979, 59.7547231], [10.4015817, 59.7544596], [10.401269, 59.7542719], [10.4009535, 59.7540869], [10.4006693, 59.7539283], [10.4003851, 59.7537738], [10.399847, 59.7534993]]}, "properties": {"electrified": "contact_line", "frequency": "16.67", "gauge": "1435", "maxspeed": "110", "name": "Spikkestadbanen", "operator": "Bane NOR", "railway": "rail", "usage": "branch", "voltage": "15000", "length_km": 1.645, "maxspeed_kmh": 110.0}}, {"type": "Feature", "geometry": {"type": "LineString", "coordinates": [[10.4186348, 59.7726966], [10.4180864, 59.7715139], [10.4179365, 59.7711894], [10.4172037, 59.7696047], [10.416724, 59.7685635], [10.416602, 59.7683007], [10.416474, 59.7680369], [10.4164069, 59.7679065], [10.4163347, 59.7677761], [10.4162599, 59.7676457], [10.4161801, 59.7675178], [10.4160955, 59.7673879], [10.4160024, 59.767258], [10.4159063, 59.7671296], [10.4158103, 59.7670069], [10.4157156, 59.7668932], [10.4156181, 59.7667823], [10.4155134, 59.7666677], [10.4154115, 59.766559], [10.4152404, 59.7663877], [10.4150521, 59.7662105]]}, "properties": {"electrified": "contact_line", "frequency": "16.67", "gauge": "1435", "maxspeed": "110", "name": "Spikkestadbanen", "operator": "Bane NOR", "railway": "rail", "usage": "branch", "voltage": "15000", "length_km": 0.753, "maxspeed_kmh": 110.0}}, {"type": "Feature", "geometry": {"type": "LineString", "coordinates": [[10.4186839, 59.7728031], [10.4186348, 59.7726966]]}, "properties": {"bridge": "yes", "electrified": "contact_line", "frequency": "16.67", "gauge": "1435", "maxspeed": "110", "name": "Spikkestadbanen", "operator": "Bane NOR", "railway": "rail", "usage": "branch", "voltage": "15000", "length_km": 0.012, "maxspeed_kmh": 110.0}}, {"type": "Feature", "geometry": {"type": "LineString", "coordinates": [[10.4322832, 59.8277308], [10.4322354, 59.8274939]]}, "properties": {"electrified": "contact_line", "frequency": "16.67", "gauge": "1435", "maxspeed": "40", "name": "Spikkestadbanen", "operator": "Bane NOR", "passenger_lines": "1", "railway": "rail", "usage": "branch", "voltage": "15000", "length_km": 0.027, "maxspeed_kmh": 40.0}}, {"type": "Feature", "geometry": {"type": "LineString", "coordinates": [[10.4384518, 59.8001979], [10.4385059, 59.8000614], [10.4385582, 59.7998932], [10.4385972, 59.799712], [10.4386212, 59.7995323], [10.4386256, 59.7993497], [10.4386092, 59.7991679], [10.4385788, 59.7989888], [10.4385247, 59.7987688], [10.4384594, 59.7985501], [10.4384037, 59.7983723], [10.4383536, 59.7981945], [10.4383063, 59.7979957], [10.4382674, 59.7977927], [10.4381924, 59.7972564], [10.4381801, 59.7971716], [10.4381622, 59.7970868], [10.4381416, 59.7970006], [10.4381154, 59.7969172], [10.4380832, 59.7968322], [10.4380454, 59.7967487], [10.4380035, 59.7966644], [10.4379532, 59.7965815], [10.4378971, 59.7965015], [10.4378382, 59.796423], [10.4377752, 59.7963444], [10.4377066, 59.7962687], [10.4376146, 59.7961768], [10.4375198, 59.7960905], [10.4374208, 59.7960056], [10.4373191, 59.7959222], [10.4371937, 59.7958286], [10.4370739, 59.795735], [10.4369569, 59.7956408], [10.4368455, 59.7955465], [10.4367835, 59.795489]]}, "properties": {"electrified": "contact_line", "frequency": "16.67", "gauge": "1435", "maxspeed": "70", "name": "Spikkestadbanen", "operator": "Bane NOR", "passenger_lines": "1", "railway": "rail", "usage": "branch", "voltage": "15000", "length_km": 0.545, "maxspeed_kmh": 70.0}}, {"type": "Feature", "geometry": {"type": "LineString", "coordinates": [[10.4334143, 59.7893254], [10.4332176, 59.789084]]}, "properties": {"electrified": "contact_line", "frequency": "16.67", "gauge": "1435", "maxspeed": "110", "name": "Spikkestadbanen", "operator": "Bane NOR", "railway": "rail", "usage": "branch", "voltage": "15000", "length_km": 0.029, "maxspeed_kmh": 110.0}}, {"type": "Feature", "geometry": {"type": "LineString", "coordinates": [[10.4287955, 59.7845575], [10.4284814, 59.7842577], [10.4282307, 59.7840141], [10.4277876, 59.7835869]]}, "properties": {"electrified": "contact_line", "frequency": "16.67", "gauge": "1435", "maxspeed": "110", "name": "Spikkestadbanen", "operator": "Bane NOR", "railway": "rail", "usage": "branch", "voltage": "15000", "length_km": 0.122, "maxspeed_kmh": 110.0}}, {"type": "Feature", "geometry": {"type": "LineString", "coordinates": [[10.399847, 59.7534993], [10.3993874, 59.7532676], [10.3989834, 59.7530539], [10.3987299, 59.7529086], [10.3983969, 59.7526976], [10.398239, 59.7525892], [10.3980568, 59.7524549], [10.3977615, 59.752213], [10.3974133, 59.7518896], [10.3971709, 59.7516477], [10.3969354, 59.7513968]]}, "properties": {"electrified": "contact_line", "frequency": "16.67", "gauge": "1435", "maxspeed": "95", "name": "Spikkestadbanen", "operator": "Bane NOR", "railway": "rail", "usage": "branch", "voltage": "15000", "length_km": 0.288, "maxspeed_kmh": 95.0}}, {"type": "Feature", "geometry": {"type": "LineString", "coordinates": [[10.3959644, 59.7501871], [10.3959002, 59.7500981]]}, "properties": {"electrified": "contact_line", "frequency": "16.67", "gauge": "1435", "maxspeed": "95", "name": "Spikkestadbanen", "operator": "Bane NOR", "railway": "rail", "usage": "branch", "voltage": "15000", "length_km": 0.011, "maxspeed_kmh": 95.0}}, {"type": "Feature", "geometry": {"type": "LineString", "coordinates": [[10.3879424, 59.7458602], [10.3871562, 59.7454621], [10.3856428, 59.7447145], [10.3841774, 59.7439948], [10.3836041, 59.743711]]}, "properties": {"electrified": "contact_line", "frequency": "16.67", "gauge": "1435", "name": "Spikkestadbanen", "operator": "Bane NOR", "railway": "rail", "usage": "branch", "voltage": "15000", "length_km": 0.342}}, {"type": "Feature", "geometry": {"type": "LineString", "coordinates": [[10.365373, 59.7413382], [10.3649833, 59.7414307], [10.3643419, 59.7415883]]}, "properties": {"electrified": "contact_line", "frequency": "16.67", "gauge": "1435", "maxspeed": "80", "name": "Spikkestadbanen", "operator": "Bane NOR", "railway": "rail", "usage": "branch", "voltage": "15000", "length_km": 0.064, "maxspeed_kmh": 80.0}}, {"type": "Feature", "geometry": {"type": "LineString", "coordinates": [[10.4323249, 59.8279729], [10.4323024, 59.8278497]]}, "properties": {"electrified": "contact_line", "frequency": "16.67", "gauge": "1435", "maxspeed": "40", "name": "Spikkestadbanen", "operator": "Bane NOR", "passenger_lines": "1", "railway": "rail", "usage": "branch", "voltage": "15000", "length_km": 0.014, "maxspeed_kmh": 40.0}}, {"type": "Feature", "geometry": {"type": "LineString", "coordinates": [[10.4323024, 59.8278497], [10.4322832, 59.8277308]]}, "properties": {"bridge": "yes", "electrified": "contact_line", "frequency": "16.67", "gauge": "1435", "maxspeed": "40", "name": "Spikkestadbanen", "operator": "Bane NOR", "passenger_lines": "1", "railway": "rail", "usage": "branch", "voltage": "15000", "length_km": 0.013, "maxspeed_kmh": 40.0}}]}