{"type": "FeatureCollection", "features": [{"type": "Feature", "geometry": {"type": "LineString", "coordinates": [[10.7536281, 59.9102265], [10.7538299, 59.9101785], [10.7556583, 59.9097462], [10.7569706, 59.9094342], [10.7573373, 59.9093435], [10.7577754, 59.9092363], [10.7579831, 59.9091863], [10.7581793, 59.9091437], [10.7584273, 59.9090918], [10.7586389, 59.9090541], [10.7588239, 59.9090251], [10.7590193, 59.908995], [10.7592275, 59.9089656], [10.7595777, 59.9089238], [10.7601789, 59.9088561]]}, "properties": {"electrified": "contact_line", "frequency": "16.67", "gauge": "1435", "maxspeed": "40", "name": "Spor 17", "operator": "Bane NOR", "railway": "rail", "usage": "main", "voltage": "15000", "length_km": 0.398, "maxspeed_kmh": 40.0}}]}