{"type": "FeatureCollection", "features": [{"type": "Feature", "geometry": {"type": "LineString", "coordinates": [[10.7534015, 59.9106566], [10.7536147, 59.9105925], [10.7538324, 59.9105324], [10.7540723, 59.9104687], [10.7559291, 59.9100239], [10.7572436, 59.9097068], [10.7581769, 59.9094822], [10.7585419, 59.9093962], [10.7586812, 59.9093635], [10.7588861, 59.9093172], [10.7590186, 59.9092883]]}, "properties": {"electrified": "contact_line", "frequency": "16.67", "gauge": "1435", "name": "Spor 13", "operator": "Bane NOR", "railway": "rail", "usage": "main", "voltage": "15000", "length_km": 0.35}}]}