{"type": "FeatureCollection", "features": [{"type": "Feature", "geometry": {"type": "LineString", "coordinates": [[10.7537993, 59.910408], [10.7539953, 59.910361], [10.7558282, 59.9099206], [10.7571425, 59.9096065], [10.7578869, 59.9094283], [10.7581644, 59.9093607], [10.7584633, 59.9092924], [10.7588452, 59.909218], [10.7592245, 59.9091552], [10.75956, 59.909104], [10.7598105, 59.9090654], [10.7601365, 59.9090192], [10.7603111, 59.9089952], [10.7604243, 59.9089806], [10.7605399, 59.9089669]]}, "properties": {"electrified": "contact_line", "frequency": "16.67", "gauge": "1435", "maxspeed": "40", "name": "Spor 14", "operator": "Bane NOR", "railway": "rail", "voltage": "15000", "length_km": 0.411, "maxspeed_kmh": 40.0}}]}