{"type": "FeatureCollection", "features": [{"type": "Feature", "geometry": {"type": "LineString", "coordinates": [[10.7535375, 59.9101276], [10.7537237, 59.9100836], [10.7555593, 59.9096422], [10.7568645, 59.9093298], [10.7574195, 59.9091961], [10.7577419, 59.9091229], [10.7580031, 59.909069], [10.758271, 59.909017], [10.7585265, 59.9089721], [10.7587811, 59.9089328], [10.7590282, 59.9088988], [10.7593853, 59.9088539], [10.7596499, 59.9088227]]}, "properties": {"electrified": "contact_line", "frequency": "16.67", "gauge": "1435", "maxspeed": "40", "name": "Spor 18", "operator": "Bane NOR", "railway": "rail", "voltage": "15000", "length_km": 0.373, "maxspeed_kmh": 40.0}}]}