{"type": "FeatureCollection", "features": [{"type": "Feature", "geometry": {"type": "LineString", "coordinates": [[10.7566268, 59.9107569], [10.7547615, 59.9112055], [10.7545133, 59.9112637], [10.7543045, 59.9113098], [10.7540696, 59.9113578]]}, "properties": {"electrified": "contact_line", "frequency": "16.67", "gauge": "1435", "name": "Spor 2", "operator": "Bane NOR", "railway": "rail", "voltage": "15000", "length_km": 0.158}}, {"type": "Feature", "geometry": {"type": "LineString", "coordinates": [[10.7600777, 59.9099282], [10.7592886, 59.9101159], [10.7579546, 59.9104373], [10.7566268, 59.9107569]]}, "properties": {"electrified": "contact_line", "frequency": "16.67", "gauge": "1435", "name": "Spor 2", "operator": "Bane NOR", "railway": "rail", "voltage": "15000", "length_km": 0.214}}]}