{"type": "FeatureCollection", "features": [{"type": "Feature", "geometry": {"type": "LineString", "coordinates": [[10.7537673, 59.9103724], [10.7539663, 59.9103252], [10.7557939, 59.9098828], [10.7570983, 59.9095727], [10.757847, 59.9093919], [10.7581257, 59.9093229], [10.7584648, 59.9092434], [10.7588086, 59.909175], [10.7590783, 59.9091263], [10.759264, 59.9090999], [10.7594712, 59.9090728], [10.7596385, 59.9090547], [10.7598954, 59.9090315], [10.7601307, 59.9090106], [10.7605399, 59.9089669]]}, "properties": {"electrified": "contact_line", "frequency": "16.67", "gauge": "1435", "maxspeed": "40", "name": "Spor 15", "operator": "Bane NOR", "railway": "rail", "voltage": "15000", "length_km": 0.412, "maxspeed_kmh": 40.0}}]}