{"type": "FeatureCollection", "features": [{"type": "Feature", "geometry": {"type": "LineString", "coordinates": [[10.7560602, 59.9101623], [10.7573935, 59.9098426], [10.7583199, 59.9096207], [10.7590993, 59.9094323], [10.7600819, 59.9091954]]}, "properties": {"electrified": "contact_line", "frequency": "16.67", "gauge": "1435", "name": "Spor 11", "operator": "Bane NOR", "railway": "rail", "voltage": "15000", "length_km": 0.25}}, {"type": "Feature", "geometry": {"type": "LineString", "coordinates": [[10.7535222, 59.9107713], [10.7542117, 59.9106057], [10.7560602, 59.9101623]]}, "properties": {"electrified": "contact_line", "frequency": "16.67", "gauge": "1435", "name": "Spor 11", "operator": "Bane NOR", "railway": "rail", "voltage": "15000", "length_km": 0.157}}]}