{"type": "FeatureCollection", "features": [{"type": "Feature", "geometry": {"type": "LineString", "coordinates": [[10.7559633, 59.9100593], [10.7572732, 59.9097457], [10.7582033, 59.9095215], [10.7585626, 59.9094359], [10.7587141, 59.9094009], [10.7589241, 59.9093557], [10.759161, 59.9093094], [10.759401, 59.9092647], [10.7597565, 59.9092014], [10.7598977, 59.9091758], [10.7600283, 59.9091499], [10.7602856, 59.9090969], [10.7604685, 59.9090609], [10.7608018, 59.9089993]]}, "properties": {"electrified": "contact_line", "frequency": "16.67", "gauge": "1435", "name": "Spor 12", "operator": "Bane NOR", "railway": "rail", "voltage": "15000", "length_km": 0.296}}, {"type": "Feature", "geometry": {"type": "LineString", "coordinates": [[10.7534438, 59.9106949], [10.7536644, 59.9106298], [10.7538833, 59.9105683], [10.754116, 59.9105064], [10.7559633, 59.9100593]]}, "properties": {"electrified": "contact_line", "frequency": "16.67", "gauge": "1435", "name": "Spor 12", "operator": "Bane NOR", "railway": "rail", "voltage": "15000", "length_km": 0.158}}]}