{"type": "FeatureCollection", "features": [{"type": "Feature", "geometry": {"type": "LineString", "coordinates": [[10.670467, 59.9227065], [10.6703853, 59.9226909], [10.6701785, 59.9226449], [10.6699758, 59.9225968], [10.6697802, 59.9225446], [10.6695886, 59.9224915], [10.669399, 59.9224352], [10.6692138, 59.9223756], [10.669033, 59.9223125], [10.6688565, 59.9222477], [10.6686597, 59.9221705], [10.6684678, 59.9220918], [10.6682814, 59.9220107], [10.6680965, 59.9219296], [10.6673013, 59.9215743], [10.6657, 59.9208584], [10.663814, 59.9200159]]}, "properties": {"electrified": "contact_line", "frequency": "16.67", "gauge": "1435", "name": "Spor 5", "railway": "rail", "service": "yard", "voltage": "15000", "length_km": 0.48}}, {"type": "Feature", "geometry": {"type": "LineString", "coordinates": [[10.7604244, 59.909627], [10.7586404, 59.9100563], [10.7577821, 59.910262], [10.7564553, 59.9105794]]}, "properties": {"electrified": "contact_line", "frequency": "16.67", "gauge": "1435", "name": "Spor 5", "operator": "Bane NOR", "railway": "rail", "voltage": "15000", "length_km": 0.246}}, {"type": "Feature", "geometry": {"type": "LineString", "coordinates": [[10.7564553, 59.9105794], [10.7547068, 59.9110024], [10.7539175, 59.9111959]]}, "properties": {"electrified": "contact_line", "frequency": "16.67", "gauge": "1435", "name": "Spor 5", "operator": "Bane NOR", "railway": "rail", "voltage": "15000", "length_km": 0.158}}]}