{"type": "FeatureCollection", "features": [{"type": "Feature", "geometry": {"type": "LineString", "coordinates": [[10.7565907, 59.9107188], [10.7547242, 59.9111691], [10.7544545, 59.9112285], [10.7542693, 59.9112706], [10.7540373, 59.9113179]]}, "properties": {"electrified": "contact_line", "frequency": "16.67", "gauge": "1435", "name": "Spor 3", "operator": "Bane NOR", "railway": "rail", "usage": "main", "voltage": "15000", "length_km": 0.158}}, {"type": "Feature", "geometry": {"type": "LineString", "coordinates": [[10.7630377, 59.909169], [10.7614421, 59.9095537], [10.760945, 59.9096725], [10.7602856, 59.9098306], [10.7591251, 59.9101116]]}, "properties": {"electrified": "contact_line", "frequency": "16.67", "gauge": "1435", "name": "Spor 3", "operator": "Bane NOR", "railway": "rail", "usage": "main", "voltage": "15000", "length_km": 0.243}}, {"type": "Feature", "geometry": {"type": "LineString", "coordinates": [[10.7591251, 59.9101116], [10.7579136, 59.9104018], [10.7565907, 59.9107188]]}, "properties": {"electrified": "contact_line", "frequency": "16.67", "gauge": "1435", "name": "Spor 3", "operator": "Bane NOR", "railway": "rail", "usage": "main", "voltage": "15000", "length_km": 0.157}}]}