{"type": "FeatureCollection", "features": [{"type": "Feature", "geometry": {"type": "LineString", "coordinates": [[10.7535075, 59.9100927], [10.7536948, 59.9100487], [10.7555249, 59.9096077], [10.756806, 59.909298], [10.7573922, 59.9091593], [10.7577136, 59.9090865], [10.7579588, 59.9090345], [10.758238, 59.9089796], [10.7584954, 59.9089347], [10.7587604, 59.9088955], [10.7590244, 59.9088586], [10.7593664, 59.9088132], [10.7596347, 59.9087834]]}, "properties": {"electrified": "contact_line", "frequency": "16.67", "gauge": "1435", "maxspeed": "40", "name": "Spor 19", "operator": "Bane NOR", "railway": "rail", "voltage": "15000", "length_km": 0.374, "maxspeed_kmh": 40.0}}]}