{"type": "FeatureCollection", "features": [{"type": "Feature", "geometry": {"type": "LineString", "coordinates": [[10.6698913, 59.9225239], [10.669826, 59.9225029], [10.669763, 59.9224815], [10.6696547, 59.9224436], [10.6695063, 59.9223881], [10.6689685, 59.9221797], [10.668774, 59.9221019], [10.6685842, 59.9220232], [10.6684, 59.9219426], [10.6682189, 59.921862], [10.6674208, 59.9215053], [10.6658313, 59.9207945], [10.6654094, 59.9206101], [10.6652474, 59.9205438], [10.6650916, 59.9204829], [10.6649345, 59.9204255], [10.6647644, 59.9203636], [10.6644692, 59.9202591]]}, "properties": {"electrified": "contact_line", "frequency": "16.67", "gauge": "1435", "name": "Spor 7", "railway": "rail", "service": "yard", "voltage": "15000", "length_km": 0.395}}, {"type": "Feature", "geometry": {"type": "LineString", "coordinates": [[10.7583754, 59.9099476], [10.7578433, 59.9100772], [10.7563266, 59.9104432], [10.7544441, 59.9108937], [10.7537919, 59.9110506]]}, "properties": {"electrified": "contact_line", "frequency": "16.67", "gauge": "1435", "name": "Spor 7", "operator": "Bane NOR", "railway": "rail", "usage": "main", "voltage": "15000", "length_km": 0.284}}]}