{"type": "FeatureCollection", "features": [{"type": "Feature", "geometry": {"type": "LineString", "coordinates": [[10.7535533, 59.9108191], [10.7542334, 59.9106478], [10.7560957, 59.9101984]]}, "properties": {"electrified": "contact_line", "frequency": "16.67", "gauge": "1435", "name": "Spor 10", "operator": "Bane NOR", "railway": "rail", "usage": "main", "voltage": "15000", "length_km": 0.158}}, {"type": "Feature", "geometry": {"type": "LineString", "coordinates": [[10.7560957, 59.9101984], [10.7574263, 59.9098813], [10.7582706, 59.9096755]]}, "properties": {"electrified": "contact_line", "frequency": "16.67", "gauge": "1435", "name": "Spor 10", "operator": "Bane NOR", "railway": "rail", "usage": "main", "voltage": "15000", "length_km": 0.135}}]}