{"type": "FeatureCollection", "features": [{"type": "Feature", "geometry": {"type": "LineString", "coordinates": [[10.6698913, 59.9225239], [10.6696477, 59.9224505], [10.6694611, 59.9223929], [10.6692754, 59.9223348], [10.6690931, 59.9222743], [10.6689146, 59.9222119], [10.6687167, 59.9221356], [10.6685236, 59.922057], [10.66834, 59.921976], [10.6681564, 59.9218942], [10.667363, 59.9215406], [10.6657659, 59.9208269], [10.6649031, 59.9204427], [10.664759, 59.9203781], [10.6646682, 59.9203379], [10.6645715, 59.9202989], [10.6645202, 59.9202783], [10.6644692, 59.9202591]]}, "properties": {"electrified": "contact_line", "frequency": "16.67", "gauge": "1435", "name": "Spor 6", "railway": "rail", "service": "yard", "voltage": "15000", "length_km": 0.395}}, {"type": "Feature", "geometry": {"type": "LineString", "coordinates": [[10.7588999, 59.9098678], [10.7586914, 59.9099177], [10.7578885, 59.910112], [10.7563628, 59.9104771], [10.7544841, 59.9109313], [10.7538265, 59.9110933]]}, "properties": {"electrified": "contact_line", "frequency": "16.67", "gauge": "1435", "name": "Spor 6", "operator": "Bane NOR", "railway": "rail", "voltage": "15000", "length_km": 0.315}}]}