{"type": "FeatureCollection", "features": [{"type": "Feature", "geometry": {"type": "LineString", "coordinates": [[10.7536686, 59.9102677], [10.7538682, 59.9102199], [10.7556931, 59.909782], [10.7570077, 59.9094661], [10.7573766, 59.909378], [10.75781, 59.9092723], [10.7580204, 59.9092249], [10.7582068, 59.9091853], [10.7584648, 59.9091353], [10.7586675, 59.9091013], [10.7590538, 59.9090437]]}, "properties": {"electrified": "contact_line", "frequency": "16.67", "gauge": "1435", "maxspeed": "40", "name": "Spor 16", "operator": "Bane NOR", "railway": "rail", "usage": "main", "voltage": "15000", "length_km": 0.331, "maxspeed_kmh": 40.0}}]}