{"type": "FeatureCollection", "features": [{"type": "Feature", "geometry": {"type": "LineString", "coordinates": [[10.7582755, 59.9098461], [10.7575461, 59.9100229], [10.7562283, 59.9103386]]}, "properties": {"electrified": "contact_line", "frequency": "16.67", "gauge": "1435", "name": "Spor 8", "operator": "Bane NOR", "railway": "rail", "usage": "main", "voltage": "15000", "length_km": 0.127}}, {"type": "Feature", "geometry": {"type": "LineString", "coordinates": [[10.7562283, 59.9103386], [10.7543644, 59.9107866], [10.753691, 59.9109497]]}, "properties": {"electrified": "contact_line", "frequency": "16.67", "gauge": "1435", "name": "Spor 8", "operator": "Bane NOR", "railway": "rail", "usage": "main", "voltage": "15000", "length_km": 0.157}}]}