{"type": "FeatureCollection", "features": [{"type": "Feature", "geometry": {"type": "LineString", "coordinates": [[10.7564891, 59.9106179], [10.7578195, 59.9102987], [10.7586677, 59.9100948], [10.7604799, 59.9096604], [10.761112, 59.9095068]]}, "properties": {"electrified": "contact_line", "frequency": "16.67", "gauge": "1435", "name": "Spor 4", "operator": "Bane NOR", "railway": "rail", "voltage": "15000", "length_km": 0.287}}, {"type": "Feature", "geometry": {"type": "LineString", "coordinates": [[10.7539513, 59.9112286], [10.754749, 59.9110372], [10.7564891, 59.9106179]]}, "properties": {"electrified": "contact_line", "frequency": "16.67", "gauge": "1435", "name": "Spor 4", "operator": "Bane NOR", "railway": "rail", "voltage": "15000", "length_km": 0.157}}]}