{"type": "FeatureCollection", "features": [{"type": "Feature", "geometry": {"type": "LineString", "coordinates": [[10.7567188, 59.9108577], [10.7571961, 59.9107447], [10.7577474, 59.9106137], [10.7588739, 59.9103424], [10.7595087, 59.9101889], [10.7603739, 59.9099824], [10.7611895, 59.9097861]]}, "properties": {"electrified": "contact_line", "frequency": "16.67", "gauge": "1435", "name": "Spor 1", "operator": "Bane NOR", "railway": "rail", "usage": "main", "voltage": "15000", "length_km": 0.277}}, {"type": "Feature", "geometry": {"type": "LineString", "coordinates": [[10.7611895, 59.9097861], [10.7621664, 59.9095515]]}, "properties": {"electrified": "contact_line", "frequency": "16.67", "gauge": "1435", "name": "Spor 1", "railway": "rail", "usage": "main", "voltage": "15000", "length_km": 0.061}}, {"type": "Feature", "geometry": {"type": "LineString", "coordinates": [[10.7547737, 59.9113252], [10.7548729, 59.9113018], [10.7567188, 59.9108577]]}, "properties": {"electrified": "contact_line", "frequency": "16.67", "gauge": "1435", "name": "Spor 1", "operator": "Bane NOR", "railway": "rail", "usage": "main", "voltage": "15000", "length_km": 0.121}}]}