{"type": "FeatureCollection", "features": [{"type": "Feature", "geometry": {"type": "LineString", "coordinates": [[10.4405067, 63.4362509], [10.4411213, 63.4368486]]}, "properties": {"electrified": "contact_line", "frequency": "16.67", "gauge": "1435", "maxspeed": "40", "name": "Stavne - Leangenbanen", "operator": "Bane NOR", "passenger_lines": "1", "railway": "rail", "usage": "branch", "voltage": "15000", "length_km": 0.073, "maxspeed_kmh": 40.0}}, {"type": "Feature", "geometry": {"type": "LineString", "coordinates": [[10.4423487, 63.4380288], [10.4427481, 63.4384166], [10.4428516, 63.4385171], [10.4432388, 63.4388365], [10.4435444, 63.4390395], [10.4437317, 63.4391459], [10.4439297, 63.4392486], [10.4441354, 63.4393456], [10.4443647, 63.4394436], [10.4445942, 63.4395314], [10.4448088, 63.439605]]}, "properties": {"electrified": "contact_line", "frequency": "16.67", "gauge": "1435", "maxspeed": "40", "name": "Stavne - Leangenbanen", "operator": "Bane NOR", "passenger_lines": "1", "railway": "rail", "usage": "branch", "voltage": "15000", "length_km": 0.217, "maxspeed_kmh": 40.0}}, {"type": "Feature", "geometry": {"type": "LineString", "coordinates": [[10.4448088, 63.439605], [10.445303, 63.4397538]]}, "properties": {"bridge": "yes", "electrified": "contact_line", "frequency": "16.67", "gauge": "1435", "maxspeed": "40", "name": "Stavne - Leangenbanen", "operator": "Bane NOR", "passenger_lines": "1", "railway": "rail", "usage": "branch", "voltage": "15000", "length_km": 0.03, "maxspeed_kmh": 40.0}}, {"type": "Feature", "geometry": {"type": "LineString", "coordinates": [[10.445303, 63.4397538], [10.4458323, 63.4398814], [10.4462722, 63.4399616], [10.4466398, 63.4400168], [10.4469543, 63.4400572], [10.4473398, 63.4400924], [10.4475778, 63.4401105], [10.4478298, 63.4401218]]}, "properties": {"electrified": "contact_line", "frequency": "16.67", "gauge": "1435", "maxspeed": "40", "name": "Stavne - Leangenbanen", "operator": "Bane NOR", "passenger_lines": "1", "railway": "rail", "usage": "branch", "voltage": "15000", "length_km": 0.134, "maxspeed_kmh": 40.0}}, {"type": "Feature", "geometry": {"type": "LineString", "coordinates": [[10.4419238, 63.4376263], [10.4423487, 63.4380288]]}, "properties": {"bridge": "yes", "electrified": "contact_line", "frequency": "16.67", "gauge": "1435", "maxspeed": "40", "name": "Stavne - Leangenbanen", "operator": "Bane NOR", "passenger_lines": "1", "railway": "rail", "usage": "branch", "voltage": "15000", "length_km": 0.05, "maxspeed_kmh": 40.0}}, {"type": "Feature", "geometry": {"type": "LineString", "coordinates": [[10.4137538, 63.4145271], [10.414128, 63.4146237], [10.4143828, 63.4146948], [10.4147155, 63.4147949], [10.415039, 63.4149006], [10.4153529, 63.415012], [10.415582, 63.4150991], [10.4158052, 63.4151892], [10.4160934, 63.4153138], [10.4163704, 63.4154434], [10.416636, 63.4155778], [10.4169511, 63.4157521], [10.4172467, 63.4159332], [10.4175225, 63.4161203], [10.4178834, 63.4163896], [10.4278008, 63.4241866], [10.4282409, 63.424539], [10.4286178, 63.4248558], [10.4290248, 63.4252161], [10.4294564, 63.425621], [10.4405067, 63.4362509]]}, "properties": {"electrified": "contact_line", "frequency": "16.67", "gauge": "1435", "maxspeed": "40", "name": "Stavne - Leangenbanen", "operator": "Bane NOR", "passenger_lines": "1", "railway": "rail", "tunnel": "yes", "usage": "branch", "voltage": "15000", "length_km": 2.785, "maxspeed_kmh": 40.0}}, {"type": "Feature", "geometry": {"type": "LineString", "coordinates": [[10.4411213, 63.4368486], [10.441177, 63.4369023]]}, "properties": {"bridge": "yes", "electrified": "contact_line", "frequency": "16.67", "gauge": "1435", "maxspeed": "40", "name": "Stavne - Leangenbanen", "operator": "Bane NOR", "passenger_lines": "1", "railway": "rail", "usage": "branch", "voltage": "15000", "length_km": 0.007, "maxspeed_kmh": 40.0}}, {"type": "Feature", "geometry": {"type": "LineString", "coordinates": [[10.441177, 63.4369023], [10.4419238, 63.4376263]]}, "properties": {"electrified": "contact_line", "frequency": "16.67", "gauge": "1435", "maxspeed": "40", "name": "Stavne - Leangenbanen", "operator": "Bane NOR", "passenger_lines": "1", "railway": "rail", "usage": "branch", "voltage": "15000", "length_km": 0.089, "maxspeed_kmh": 40.0}}, {"type": "Feature", "geometry": {"type": "LineString", "coordinates": [[10.3831067, 63.4095217], [10.3831188, 63.4095992], [10.3831363, 63.4096759]]}, "properties": {"electrified": "no", "gauge": "1435", "maxspeed": "40", "name": "Stavne - Leangenbanen", "railway": "rail", "usage": "branch", "length_km": 0.017, "maxspeed_kmh": 40.0}}, {"type": "Feature", "geometry": {"type": "LineString", "coordinates": [[10.3936375, 63.4124319], [10.3973291, 63.4127026]]}, "properties": {"bridge": "yes", "electrified": "contact_line", "frequency": "16.67", "gauge": "1435", "maxspeed": "40", "name": "Stavne - Leangenbanen", "operator": "Bane NOR", "passenger_lines": "1", "railway": "rail", "usage": "branch", "voltage": "15000", "length_km": 0.187, "maxspeed_kmh": 40.0}}, {"type": "Feature", "geometry": {"type": "LineString", "coordinates": [[10.3973291, 63.4127026], [10.3978079, 63.412741], [10.3988191, 63.4128136]]}, "properties": {"electrified": "contact_line", "frequency": "16.67", "gauge": "1435", "maxspeed": "40", "name": "Stavne - Leangenbanen", "operator": "Bane NOR", "passenger_lines": "1", "railway": "rail", "usage": "branch", "voltage": "15000", "length_km": 0.075, "maxspeed_kmh": 40.0}}, {"type": "Feature", "geometry": {"type": "LineString", "coordinates": [[10.3993335, 63.4128517], [10.4007171, 63.4129547]]}, "properties": {"electrified": "contact_line", "frequency": "16.67", "gauge": "1435", "maxspeed": "40", "name": "Stavne - Leangenbanen", "operator": "Bane NOR", "passenger_lines": "1", "railway": "rail", "usage": "branch", "voltage": "15000", "length_km": 0.07, "maxspeed_kmh": 40.0}}, {"type": "Feature", "geometry": {"type": "LineString", "coordinates": [[10.4007171, 63.4129547], [10.4010201, 63.412978]]}, "properties": {"bridge": "yes", "electrified": "contact_line", "frequency": "16.67", "gauge": "1435", "maxspeed": "40", "name": "Stavne - Leangenbanen", "operator": "Bane NOR", "passenger_lines": "1", "railway": "rail", "usage": "branch", "voltage": "15000", "length_km": 0.015, "maxspeed_kmh": 40.0}}, {"type": "Feature", "geometry": {"type": "LineString", "coordinates": [[10.4010201, 63.412978], [10.4016527, 63.4130259], [10.4023605, 63.4130794], [10.4032709, 63.4131548], [10.4041806, 63.4132421], [10.4051565, 63.4133508], [10.4060981, 63.4134646], [10.4075963, 63.4136463]]}, "properties": {"electrified": "contact_line", "frequency": "16.67", "gauge": "1435", "maxspeed": "40", "name": "Stavne - Leangenbanen", "operator": "Bane NOR", "passenger_lines": "1", "railway": "rail", "usage": "branch", "voltage": "15000", "length_km": 0.337, "maxspeed_kmh": 40.0}}, {"type": "Feature", "geometry": {"type": "LineString", "coordinates": [[10.3822312, 63.4191716], [10.3821426, 63.419296], [10.3820497, 63.4194172], [10.3819319, 63.4195517], [10.3817877, 63.4196898]]}, "properties": {"electrified": "contact_line", "frequency": "16.67", "gauge": "1435", "maxspeed": "40", "name": "Stavne - Leangenbanen", "operator": "Bane NOR", "passenger_lines": "1", "railway": "rail", "usage": "branch", "voltage": "15000", "length_km": 0.062, "maxspeed_kmh": 40.0}}, {"type": "Feature", "geometry": {"type": "LineString", "coordinates": [[10.3988191, 63.4128136], [10.3993335, 63.4128517]]}, "properties": {"bridge": "yes", "electrified": "contact_line", "frequency": "16.67", "gauge": "1435", "maxspeed": "40", "name": "Stavne - Leangenbanen", "operator": "Bane NOR", "passenger_lines": "1", "railway": "rail", "usage": "branch", "voltage": "15000", "length_km": 0.026, "maxspeed_kmh": 40.0}}, {"type": "Feature", "geometry": {"type": "LineString", "coordinates": [[10.3935767, 63.4124266], [10.3932656, 63.4124087], [10.3929712, 63.4123964], [10.3926434, 63.4123931], [10.3923556, 63.4123982], [10.3921241, 63.4124087], [10.3917803, 63.4124318], [10.3914597, 63.4124644], [10.3911312, 63.4125081], [10.3908188, 63.4125596], [10.3905371, 63.4126155], [10.390272, 63.4126765], [10.3899188, 63.412771], [10.3894911, 63.4128992], [10.3890381, 63.4130533], [10.3880762, 63.4133982], [10.3871579, 63.4137294], [10.3870098, 63.4137835], [10.3863513, 63.4140242], [10.3856556, 63.4142927], [10.3850357, 63.4145696], [10.3845437, 63.414826], [10.3841038, 63.4150922], [10.3839593, 63.4151882]]}, "properties": {"electrified": "contact_line", "frequency": "16.67", "gauge": "1435", "maxspeed": "40", "name": "Stavne - Leangenbanen", "operator": "Bane NOR", "passenger_lines": "1", "railway": "rail", "usage": "branch", "voltage": "15000", "length_km": 0.595, "maxspeed_kmh": 40.0}}, {"type": "Feature", "geometry": {"type": "LineString", "coordinates": [[10.3834403, 63.4156428], [10.3833581, 63.4157491], [10.3832888, 63.4158542], [10.3832312, 63.4159662], [10.3831857, 63.4160862], [10.3831485, 63.4162202], [10.3831215, 63.4163537], [10.3830963, 63.4165166], [10.382974, 63.4174913], [10.3829496, 63.4176606], [10.3829283, 63.4178005], [10.3829103, 63.4178811], [10.3828888, 63.4179624], [10.3828342, 63.4181418]]}, "properties": {"electrified": "contact_line", "frequency": "16.67", "gauge": "1435", "maxspeed": "40", "name": "Stavne - Leangenbanen", "operator": "Bane NOR", "passenger_lines": "1", "railway": "rail", "usage": "branch", "voltage": "15000", "length_km": 0.281, "maxspeed_kmh": 40.0}}, {"type": "Feature", "geometry": {"type": "LineString", "coordinates": [[10.3839593, 63.4151882], [10.3838472, 63.4152655], [10.3836688, 63.4154177], [10.3835092, 63.4155683], [10.3834403, 63.4156428]]}, "properties": {"electrified": "contact_line", "frequency": "16.67", "gauge": "1435", "maxspeed": "40", "name": "Stavne - Leangenbanen", "operator": "Bane NOR", "passenger_lines": "1", "railway": "rail", "tunnel": "yes", "usage": "branch", "voltage": "15000", "length_km": 0.057, "maxspeed_kmh": 40.0}}, {"type": "Feature", "geometry": {"type": "LineString", "coordinates": [[10.3831363, 63.4096759], [10.383161, 63.4097769], [10.3831858, 63.4098531], [10.3832293, 63.4099633]]}, "properties": {"bridge": "yes", "electrified": "contact_line", "frequency": "16.67", "gauge": "1435", "maxspeed": "40", "name": "Stavne - Leangenbanen", "operator": "Bane NOR", "railway": "rail", "usage": "branch", "voltage": "15000", "length_km": 0.032, "maxspeed_kmh": 40.0}}, {"type": "Feature", "geometry": {"type": "LineString", "coordinates": [[10.4079483, 63.4136882], [10.4087739, 63.413788], [10.4114414, 63.4141133], [10.4119043, 63.4141742], [10.4124346, 63.4142547], [10.4128242, 63.4143255], [10.4131148, 63.4143823], [10.4134287, 63.4144512], [10.4137538, 63.4145271]]}, "properties": {"electrified": "contact_line", "frequency": "16.67", "gauge": "1435", "maxspeed": "40", "name": "Stavne - Leangenbanen", "operator": "Bane NOR", "passenger_lines": "1", "railway": "rail", "usage": "branch", "voltage": "15000", "length_km": 0.306, "maxspeed_kmh": 40.0}}, {"type": "Feature", "geometry": {"type": "LineString", "coordinates": [[10.3832293, 63.4099633], [10.3832468, 63.4100117], [10.3833186, 63.4101512], [10.3834607, 63.4103374], [10.383568, 63.4104463], [10.3836217, 63.4104963], [10.3838249, 63.4106518], [10.3839916, 63.4107645], [10.3842815, 63.4109372], [10.3845505, 63.4110819]]}, "properties": {"electrified": "contact_line", "frequency": "16.67", "gauge": "1435", "maxspeed": "40", "name": "Stavne - Leangenbanen", "operator": "Bane NOR", "railway": "rail", "usage": "branch", "voltage": "15000", "length_km": 0.143, "maxspeed_kmh": 40.0}}, {"type": "Feature", "geometry": {"type": "LineString", "coordinates": [[10.4075963, 63.4136463], [10.4079483, 63.4136882]]}, "properties": {"bridge": "yes", "electrified": "contact_line", "frequency": "16.67", "gauge": "1435", "maxspeed": "40", "name": "Stavne - Leangenbanen", "operator": "Bane NOR", "passenger_lines": "1", "railway": "rail", "usage": "branch", "voltage": "15000", "length_km": 0.018, "maxspeed_kmh": 40.0}}, {"type": "Feature", "geometry": {"type": "LineString", "coordinates": [[10.4502072, 63.4400155], [10.4513313, 63.4398719], [10.4523545, 63.439716], [10.4529182, 63.439626], [10.4535751, 63.4395134], [10.4542796, 63.4393796], [10.4544853, 63.4393405], [10.456116, 63.4390069], [10.4577114, 63.4386838], [10.4578922, 63.4386444], [10.4580501, 63.4386069], [10.458355, 63.4385286]]}, "properties": {"electrified": "contact_line", "frequency": "16.67", "gauge": "1435", "maxspeed": "40", "name": "Stavne - Leangenbanen", "operator": "Bane NOR", "passenger_lines": "1", "railway": "rail", "usage": "branch", "voltage": "15000", "length_km": 0.44, "maxspeed_kmh": 40.0}}, {"type": "Feature", "geometry": {"type": "LineString", "coordinates": [[10.4478298, 63.4401218], [10.4479577, 63.4401264]]}, "properties": {"bridge": "yes", "electrified": "contact_line", "frequency": "16.67", "gauge": "1435", "maxspeed": "40", "name": "Stavne - Leangenbanen", "operator": "Bane NOR", "passenger_lines": "1", "railway": "rail", "usage": "branch", "voltage": "15000", "length_km": 0.006, "maxspeed_kmh": 40.0}}, {"type": "Feature", "geometry": {"type": "LineString", "coordinates": [[10.3845505, 63.4110819], [10.3849393, 63.4112584], [10.3851579, 63.4113508], [10.3854372, 63.4114552]]}, "properties": {"bridge": "yes", "electrified": "contact_line", "frequency": "16.67", "gauge": "1435", "maxspeed": "40", "name": "Stavne - Leangenbanen", "operator": "Bane NOR", "railway": "rail", "usage": "branch", "voltage": "15000", "length_km": 0.061, "maxspeed_kmh": 40.0}}, {"type": "Feature", "geometry": {"type": "LineString", "coordinates": [[10.3854372, 63.4114552], [10.3856766, 63.4115317], [10.3860516, 63.411647], [10.3861531, 63.4116727], [10.3864617, 63.411751], [10.3871943, 63.4118935], [10.3878328, 63.4119839], [10.3886702, 63.4120645], [10.3925321, 63.4123491], [10.392998, 63.4123853], [10.3935767, 63.4124266]]}, "properties": {"electrified": "contact_line", "frequency": "16.67", "gauge": "1435", "maxspeed": "40", "name": "Stavne - Leangenbanen", "operator": "Bane NOR", "railway": "rail", "usage": "branch", "voltage": "15000", "length_km": 0.426, "maxspeed_kmh": 40.0}}, {"type": "Feature", "geometry": {"type": "LineString", "coordinates": [[10.3817877, 63.4196898], [10.381705, 63.4197646]]}, "properties": {"electrified": "contact_line", "frequency": "16.67", "gauge": "1435", "maxspeed": "40", "name": "Stavne - Leangenbanen", "operator": "Bane NOR", "passenger_lines": "1", "railway": "rail", "usage": "branch", "voltage": "15000", "length_km": 0.009, "maxspeed_kmh": 40.0}}, {"type": "Feature", "geometry": {"type": "LineString", "coordinates": [[10.381705, 63.4197646], [10.3810091, 63.4203621]]}, "properties": {"electrified": "contact_line", "frequency": "16.67", "gauge": "1435", "maxspeed": "40", "name": "Stavne - Leangenbanen", "operator": "Bane NOR", "passenger_lines": "3", "railway": "rail", "usage": "branch", "voltage": "15000", "length_km": 0.075, "maxspeed_kmh": 40.0}}, {"type": "Feature", "geometry": {"type": "LineString", "coordinates": [[10.3935767, 63.4124266], [10.3936375, 63.4124319]]}, "properties": {"electrified": "no", "gauge": "1435", "name": "Stavne - Leangenbanen", "passenger_lines": "1", "railway": "rail", "usage": "branch", "length_km": 0.003}}, {"type": "Feature", "geometry": {"type": "LineString", "coordinates": [[10.3826164, 63.4185893], [10.3825685, 63.4186741], [10.3824759, 63.4188194], [10.382373, 63.4189666], [10.3822312, 63.4191716]]}, "properties": {"electrified": "contact_line", "frequency": "16.67", "gauge": "1435", "maxspeed": "40", "name": "Stavne - Leangenbanen", "operator": "Bane NOR", "passenger_lines": "1", "railway": "rail", "usage": "branch", "voltage": "15000", "length_km": 0.068, "maxspeed_kmh": 40.0}}, {"type": "Feature", "geometry": {"type": "LineString", "coordinates": [[10.3827291, 63.4183744], [10.3826164, 63.4185893]]}, "properties": {"bridge": "yes", "electrified": "contact_line", "frequency": "16.67", "gauge": "1435", "maxspeed": "40", "name": "Stavne - Leangenbanen", "operator": "Bane NOR", "passenger_lines": "1", "railway": "rail", "usage": "branch", "voltage": "15000", "length_km": 0.025, "maxspeed_kmh": 40.0}}, {"type": "Feature", "geometry": {"type": "LineString", "coordinates": [[10.3828342, 63.4181418], [10.3827815, 63.4182609], [10.3827291, 63.4183744]]}, "properties": {"electrified": "contact_line", "frequency": "16.67", "gauge": "1435", "maxspeed": "40", "name": "Stavne - Leangenbanen", "passenger_lines": "1", "railway": "rail", "usage": "branch", "voltage": "15000", "length_km": 0.026, "maxspeed_kmh": 40.0}}, {"type": "Feature", "geometry": {"type": "LineString", "coordinates": [[10.4479577, 63.4401264], [10.4482552, 63.4401305], [10.4486222, 63.4401266], [10.4490726, 63.4401133], [10.4494725, 63.4400858], [10.4498523, 63.4400523]]}, "properties": {"electrified": "contact_line", "frequency": "16.67", "gauge": "1435", "maxspeed": "40", "name": "Stavne - Leangenbanen", "operator": "Bane NOR", "passenger_lines": "1", "railway": "rail", "usage": "branch", "voltage": "15000", "length_km": 0.095, "maxspeed_kmh": 40.0}}, {"type": "Feature", "geometry": {"type": "LineString", "coordinates": [[10.4498523, 63.4400523], [10.4502072, 63.4400155]]}, "properties": {"bridge": "yes", "electrified": "contact_line", "frequency": "16.67", "gauge": "1435", "maxspeed": "40", "name": "Stavne - Leangenbanen", "operator": "Bane NOR", "passenger_lines": "1", "railway": "rail", "usage": "branch", "voltage": "15000", "length_km": 0.018, "maxspeed_kmh": 40.0}}]}