{"type": "FeatureCollection", "features": [{"type": "Feature", "geometry": {"type": "LineString", "coordinates": [[9.5776443, 59.7734682], [9.5777207, 59.7736111], [9.5778086, 59.7737435], [9.5778787, 59.7738376], [9.5779484, 59.7739443], [9.5780034, 59.7740185], [9.5781576, 59.7742568], [9.5783405, 59.7745039], [9.5784743, 59.7746719], [9.5787102, 59.7749077], [9.5788778, 59.7750886], [9.5790334, 59.7752385], [9.5792118, 59.775418], [9.5794813, 59.77568], [9.5795886, 59.7758062], [9.579655, 59.7758919], [9.5797243, 59.7759763], [9.5798094, 59.7760917], [9.5798682, 59.7761714]]}, "properties": {"name": "Svene Pukkverk sidespor", "railway": "rail", "service": "spur", "length_km": 0.327}}]}