{"type": "FeatureCollection", "features": [{"type": "Feature", "geometry": {"type": "LineString", "coordinates": [[9.6885021, 59.0730734], [9.6884789, 59.0729126], [9.6884773, 59.0728382], [9.6884835, 59.0727596], [9.688495, 59.0726686], [9.6885332, 59.0725146], [9.688626, 59.0722999], [9.6887748, 59.0721043], [9.6890045, 59.0718916], [9.6897231, 59.0713516], [9.6899748, 59.0710807], [9.6900902, 59.0709261], [9.6901781, 59.070769], [9.6902802, 59.0705904], [9.6904928, 59.0699015], [9.6906125, 59.0696672]]}, "properties": {"electrified": "contact_line", "frequency": "16.67", "maxspeed": "40", "name": "Tangenkai sidespor", "railway": "rail", "service": "spur", "usage": "industrial", "voltage": "15000", "length_km": 0.406, "maxspeed_kmh": 40.0}}, {"type": "Feature", "geometry": {"type": "LineString", "coordinates": [[9.6906125, 59.0696672], [9.6908011, 59.069401], [9.6910404, 59.0691496], [9.6914347, 59.0688545], [9.6920269, 59.0685162], [9.6927184, 59.0682165], [9.6934597, 59.0679672], [9.6941239, 59.0677794], [9.6951975, 59.0675218]]}, "properties": {"electrified": "contact_line", "frequency": "16.67", "maxspeed": "40", "name": "Tangenkai sidespor", "railway": "rail", "service": "spur", "tunnel": "yes", "usage": "industrial", "voltage": "15000", "length_km": 0.368, "maxspeed_kmh": 40.0}}, {"type": "Feature", "geometry": {"type": "LineString", "coordinates": [[9.6951975, 59.0675218], [9.6961014, 59.0672335], [9.6961473, 59.0672183]]}, "properties": {"electrified": "contact_line", "frequency": "16.67", "maxspeed": "40", "name": "Tangenkai sidespor", "railway": "rail", "service": "spur", "voltage": "15000", "length_km": 0.064, "maxspeed_kmh": 40.0}}, {"type": "Feature", "geometry": {"type": "LineString", "coordinates": [[9.6980664, 59.066398], [9.6981376, 59.0662588], [9.6981796, 59.0661622], [9.6982315, 59.0660317], [9.69824, 59.0660102], [9.6982782, 59.0659264], [9.6983065, 59.0658752], [9.6985095, 59.0655697], [9.6987778, 59.065156], [9.6990889, 59.0646621], [9.6992357, 59.0644297], [9.6994215, 59.064136], [9.6995281, 59.063973]]}, "properties": {"electrified": "no", "name": "Tangenkai sidespor", "railway": "rail", "service": "spur", "usage": "industrial", "length_km": 0.283}}, {"type": "Feature", "geometry": {"type": "LineString", "coordinates": [[9.6951975, 59.0675218], [9.6955395, 59.0674404]]}, "properties": {"electrified": "no", "maxspeed": "40", "name": "Tangenkai sidespor", "railway": "rail", "service": "spur", "usage": "industrial", "length_km": 0.022, "maxspeed_kmh": 40.0}}, {"type": "Feature", "geometry": {"type": "LineString", "coordinates": [[9.6955395, 59.0674404], [9.6957897, 59.0673809], [9.6962298, 59.0672795], [9.6968058, 59.067153], [9.6970731, 59.0670761], [9.6971961, 59.0670339], [9.6973451, 59.0669691], [9.6975713, 59.0668596], [9.6977127, 59.0667676], [9.6978143, 59.0666892], [9.6978826, 59.0666304], [9.6979546, 59.0665579], [9.6979996, 59.066501], [9.6980522, 59.0664222], [9.6980664, 59.066398], [9.6982105, 59.0661591], [9.6982802, 59.0660419], [9.6983097, 59.0659923], [9.6985913, 59.0655566], [9.6988515, 59.0651595], [9.6991734, 59.06467], [9.6991922, 59.0646341], [9.6992347, 59.0645473], [9.6992753, 59.0644618], [9.6993075, 59.064378], [9.6993381, 59.064309], [9.6993681, 59.0642389], [9.6994215, 59.064136]]}, "properties": {"electrified": "no", "name": "Tangenkai sidespor", "railway": "rail", "service": "spur", "usage": "industrial", "length_km": 0.458}}]}