{"type": "FeatureCollection", "features": [{"type": "Feature", "geometry": {"type": "LineString", "coordinates": [[12.0484894, 60.1578021], [12.048483, 60.1577684], [12.0484755, 60.1577348], [12.0484591, 60.1576679], [12.0484408, 60.1576006], [12.0484185, 60.1575337], [12.0483628, 60.1573916], [12.0483365, 60.1573208], [12.0483129, 60.1572501], [12.0482831, 60.1571646], [12.0482464, 60.1570531], [12.0482107, 60.1569416], [12.0481845, 60.156853], [12.0481602, 60.1567643], [12.0480038, 60.1562187], [12.0478526, 60.1556807], [12.04778, 60.1554159], [12.0477294, 60.1552364], [12.0476733, 60.1550573], [12.0475598, 60.1547119], [12.0475436, 60.1546607], [12.0475291, 60.1546095], [12.0475152, 60.1545586], [12.0475022, 60.1545076], [12.0474915, 60.1544572], [12.0474819, 60.1544072], [12.0474736, 60.1543574], [12.0474667, 60.1543015], [12.0474628, 60.1542463], [12.0474622, 60.154192], [12.0474644, 60.154138], [12.0474736, 60.1540848], [12.0474865, 60.1540326], [12.0475035, 60.1539804], [12.0475369, 60.1538757], [12.047665, 60.1534806], [12.0479094, 60.1527331]]}, "properties": {"electrified": "no", "gauge": "1435", "name": "Tarven grustak", "railway": "rail", "service": "spur", "length_km": 0.571}}]}