{"type": "FeatureCollection", "features": [{"type": "Feature", "geometry": {"type": "LineString", "coordinates": [[11.0952325, 63.654879], [11.0949441, 63.6547887], [11.0946957, 63.6547294], [11.094418, 63.6546792], [11.0938458, 63.6545515], [11.0932496, 63.6543996], [11.0871993, 63.6524434], [11.0868381, 63.6523148], [11.0864532, 63.6521452], [11.0862001, 63.6519894], [11.086035, 63.6519012], [11.0857923, 63.6517842]]}, "properties": {"electrified": "contact_line", "name": "Temporary track", "operator": "Bane NOR", "railway": "rail", "usage": "main", "length_km": 0.584}}]}