{"type": "FeatureCollection", "features": [{"type": "Feature", "geometry": {"type": "LineString", "coordinates": [[9.7094334, 63.1330721], [9.7095174, 63.1332804], [9.7101455, 63.1348362], [9.7107645, 63.1363445], [9.710858, 63.1365724], [9.7114609, 63.1380366], [9.712059, 63.1395275], [9.7121125, 63.1398165], [9.7121233, 63.1401437], [9.7120944, 63.140341], [9.7120321, 63.1405533], [9.7119252, 63.1407897], [9.7116807, 63.1412489], [9.7116163, 63.1413858], [9.7116056, 63.1415361], [9.7116373, 63.1416575], [9.7116888, 63.1417651], [9.7117794, 63.1418652], [9.7118685, 63.1419517], [9.7120033, 63.1420422], [9.7128243, 63.1426324], [9.7133391, 63.1430497], [9.7137862, 63.1434918], [9.7140761, 63.1438343], [9.7143549, 63.1442443], [9.7145609, 63.1446503], [9.7149262, 63.1456026], [9.7150362, 63.1458837], [9.715122, 63.1460133], [9.7152213, 63.1461208], [9.7153231, 63.1462193], [9.7154304, 63.1462968], [9.7155845, 63.1463938], [9.7160366, 63.1466579], [9.7162887, 63.1468214], [9.7164738, 63.1469753], [9.7166278, 63.1471405], [9.716734, 63.1472964], [9.7176352, 63.1487496], [9.7177076, 63.1488834], [9.7177505, 63.1490143], [9.7177671, 63.149167], [9.7177264, 63.1493293], [9.7176608, 63.1494699], [9.7175694, 63.1496287], [9.7175065, 63.149763], [9.7174743, 63.1498974], [9.7174716, 63.150038], [9.7175108, 63.1501736], [9.7175655, 63.1503057], [9.7176513, 63.1504144], [9.7177348, 63.1505019], [9.7178498, 63.1506043], [9.7179544, 63.1506806], [9.7180791, 63.1507575], [9.7182394, 63.1508429], [9.7183862, 63.1509108], [9.718574, 63.1509792], [9.718972, 63.15112], [9.7192191, 63.1512318], [9.7194041, 63.1513281], [9.7195397, 63.1514134], [9.7196871, 63.1515322], [9.7197984, 63.1516479], [9.7198852, 63.1517647], [9.7199473, 63.1518581], [9.7201915, 63.1522756], [9.7203305, 63.1524986], [9.7204381, 63.1526667], [9.7205695, 63.1528362], [9.7206742, 63.1529513], [9.7207932, 63.1530668], [9.7210859, 63.1533438], [9.7212173, 63.153494], [9.7214212, 63.1537272], [9.7215259, 63.1538367], [9.7217993, 63.1540724], [9.7221529, 63.1543281], [9.722486, 63.1545163], [9.7228079, 63.1546798], [9.723083, 63.1547987], [9.7235508, 63.154999], [9.7242786, 63.1553051], [9.7245043, 63.1554259], [9.7246385, 63.1555034], [9.7248048, 63.1556137], [9.7249952, 63.1557748], [9.7259662, 63.1566572], [9.7260922, 63.1567909], [9.7261969, 63.1569317], [9.7262746, 63.1570768], [9.7263283, 63.1572112], [9.7263549, 63.1573992], [9.7263497, 63.1576254], [9.7263415, 63.157808]]}, "properties": {"electrified": "contact_line", "frequency": "25", "gauge": "1000", "name": "Thamshavnbanen", "railway": "narrow_gauge", "voltage": "6800", "length_km": 2.977}}, {"type": "Feature", "geometry": {"type": "LineString", "coordinates": [[9.7263415, 63.157808], [9.726395, 63.1580385], [9.7265937, 63.1583536], [9.7270698, 63.1588663], [9.7273444, 63.1590573]]}, "properties": {"electrified": "contact_line", "frequency": "25", "gauge": "1000", "name": "Thamshavnbanen", "railway": "narrow_gauge", "tunnel": "yes", "voltage": "6800", "length_km": 0.15}}, {"type": "Feature", "geometry": {"type": "LineString", "coordinates": [[9.7273444, 63.1590573], [9.7274981, 63.1591352], [9.7275983, 63.1591823], [9.7278088, 63.1592646], [9.7284609, 63.1595218], [9.7287463, 63.1596612], [9.7289152, 63.1597581], [9.7291109, 63.1598836], [9.7294074, 63.1600948], [9.7296086, 63.1602134], [9.7298133, 63.1603225], [9.7299694, 63.1603836], [9.7301316, 63.160432], [9.7303154, 63.1604787], [9.7308326, 63.1605899], [9.7311307, 63.16065], [9.7313292, 63.1606997], [9.7315237, 63.1607602], [9.73171, 63.1608257], [9.7318643, 63.1608983], [9.7319971, 63.1609703], [9.7321405, 63.1610648], [9.7322305, 63.1611368], [9.7323015, 63.1612065], [9.7323672, 63.1612834], [9.7324407, 63.1614012], [9.7325657, 63.161623], [9.7327428, 63.1619597], [9.7329504, 63.1623771], [9.7329801, 63.1624852], [9.7329868, 63.1625657], [9.7329801, 63.1626444], [9.7329584, 63.1627444], [9.7328742, 63.1630126], [9.7328541, 63.1631185], [9.73285, 63.1632087], [9.732873, 63.1633173], [9.7329238, 63.1634539], [9.7330048, 63.1635772], [9.7331169, 63.1637022], [9.7332484, 63.1638087], [9.733475, 63.1639563], [9.7338197, 63.1641635], [9.734112, 63.1643584], [9.7343531, 63.1645493], [9.7344902, 63.1646841], [9.7346292, 63.1648315], [9.7347745, 63.1650365], [9.7350668, 63.1654534], [9.7351795, 63.1655789], [9.7352868, 63.1656685], [9.7354211, 63.1657553], [9.735606, 63.1658574], [9.7357991, 63.1659397], [9.7360392, 63.1660179], [9.7362819, 63.1660802], [9.7364992, 63.1661177], [9.7367603, 63.1661511], [9.7370249, 63.1661783], [9.7372851, 63.1661843], [9.7375954, 63.166174], [9.7378966, 63.1661528], [9.7384217, 63.1660719], [9.7388354, 63.1660088], [9.7390527, 63.1659894], [9.7392685, 63.1659847], [9.739455, 63.1659894], [9.7396186, 63.1660051], [9.7398198, 63.166039], [9.7400134, 63.1660842], [9.7416336, 63.1665004], [9.7420245, 63.1666299], [9.7422418, 63.1667146], [9.742577, 63.1668584], [9.7428319, 63.1669495], [9.7431099, 63.1670269], [9.7433898, 63.1670863], [9.7436714, 63.1671311], [9.7441352, 63.1672066], [9.7446424, 63.1673139], [9.7450386, 63.1674185], [9.7453234, 63.1675152]]}, "properties": {"electrified": "contact_line", "frequency": "25", "gauge": "1000", "name": "Thamshavnbanen", "railway": "narrow_gauge", "voltage": "6800", "length_km": 1.462}}, {"type": "Feature", "geometry": {"type": "LineString", "coordinates": [[9.7901434, 63.2465171], [9.7889847, 63.246174], [9.7878312, 63.2458033], [9.7869703, 63.2455063], [9.7861143, 63.2451914], [9.7855434, 63.2449835], [9.7850214, 63.2447789], [9.7823562, 63.2437296], [9.7797225, 63.242684], [9.7792214, 63.2424585], [9.7787424, 63.2421953], [9.7783604, 63.2419332], [9.7780189, 63.2416408], [9.7777998, 63.2414212], [9.7775558, 63.2411398], [9.7774351, 63.240937], [9.7773278, 63.2407099], [9.7772393, 63.2404032], [9.7771097, 63.2398473], [9.7769165, 63.238894], [9.776845, 63.2386182], [9.7767618, 63.2383646], [9.776661, 63.2380746], [9.7753792, 63.235472], [9.7748789, 63.2344488], [9.774726, 63.2341239], [9.774595, 63.2338038], [9.7745517, 63.2335586], [9.7745436, 63.2333218], [9.7745758, 63.2330971], [9.7746654, 63.2328571], [9.7747689, 63.232649], [9.7749057, 63.2324412], [9.775064, 63.2322419], [9.7752539, 63.2320511], [9.7761154, 63.2312465], [9.7765633, 63.2308024], [9.7768611, 63.2304576], [9.77703, 63.2302546], [9.7772103, 63.2300131], [9.7778374, 63.2290634], [9.778001, 63.228823], [9.7781901, 63.2285868], [9.7783859, 63.2283482], [9.77859, 63.2281207], [9.7788754, 63.2278263], [9.7791919, 63.2275218], [9.779495, 63.2272536], [9.7798158, 63.2269962], [9.78012, 63.2267957], [9.7804472, 63.2266102], [9.7808549, 63.2264284], [9.7813039, 63.2262541], [9.7849217, 63.2250702], [9.7855219, 63.2248637], [9.7860932, 63.2246413], [9.7867316, 63.224361], [9.7870401, 63.2242124], [9.7873378, 63.2240493], [9.7878952, 63.2237176], [9.7884053, 63.223346], [9.7888881, 63.2229244], [9.7891188, 63.2226693], [9.7893655, 63.2223769], [9.7895479, 63.2221013], [9.7896753, 63.2218748], [9.7898462, 63.2214621], [9.7899322, 63.2211], [9.7899674, 63.2208322], [9.7899785, 63.2206027], [9.7899521, 63.2203031], [9.7899119, 63.2200982], [9.7896988, 63.2194378], [9.7894662, 63.2187863], [9.7888479, 63.2170739], [9.7887191, 63.2166569], [9.7886226, 63.2162351], [9.7885917, 63.2159145], [9.7885636, 63.2155969], [9.7885244, 63.2149813], [9.788475, 63.2144679], [9.7883262, 63.2137562], [9.788129, 63.2128065]]}, "properties": {"electrified": "contact_line", "frequency": "25", "gauge": "1000", "name": "Thamshavnbanen", "railway": "narrow_gauge", "voltage": "6800", "length_km": 4.321}}, {"type": "Feature", "geometry": {"type": "LineString", "coordinates": [[9.7453234, 63.1675152], [9.7455564, 63.167606]]}, "properties": {"bridge": "yes", "electrified": "contact_line", "frequency": "25", "gauge": "1000", "name": "Thamshavnbanen", "railway": "narrow_gauge", "voltage": "6800", "length_km": 0.016}}, {"type": "Feature", "geometry": {"type": "LineString", "coordinates": [[9.7487046, 63.171657], [9.748663, 63.1719094], [9.7486447, 63.1721111], [9.7486576, 63.1723573], [9.7487032, 63.172568], [9.7487837, 63.1727943], [9.7489035, 63.17302], [9.749127, 63.1733378], [9.7494195, 63.1736502], [9.7498754, 63.1740423], [9.7503536, 63.1744298], [9.750672, 63.174656], [9.751026, 63.1748872], [9.7513908, 63.1751063], [9.7517836, 63.1753315], [9.752174, 63.1755541], [9.7525763, 63.1757611], [9.7530216, 63.1759741], [9.7535368, 63.1761963], [9.7539221, 63.1763618], [9.7541213, 63.1764473], [9.7547623, 63.1766894], [9.7561749, 63.1771869], [9.7621413, 63.1793091], [9.7660867, 63.1807116], [9.7666553, 63.1809095], [9.7671882, 63.1811093], [9.767594, 63.181281], [9.7679698, 63.1814732], [9.7683451, 63.1816949], [9.7687119, 63.1819474], [9.76903, 63.1822204], [9.770544, 63.1835261], [9.7709388, 63.183873], [9.7713813, 63.1842118], [9.7718373, 63.1845457], [9.7723297, 63.1848715], [9.7726902, 63.1850914], [9.773047, 63.1852875], [9.7732991, 63.1854072], [9.7735861, 63.1855258], [9.7738704, 63.1856318], [9.7740515, 63.1856946]]}, "properties": {"electrified": "contact_line", "frequency": "25", "gauge": "1000", "name": "Thamshavnbanen", "railway": "narrow_gauge", "voltage": "6800", "length_km": 2.084}}, {"type": "Feature", "geometry": {"type": "LineString", "coordinates": [[9.8435971, 63.2903191], [9.8435687, 63.2902282], [9.8433296, 63.28945], [9.8430863, 63.288666], [9.8429222, 63.2881214], [9.8428233, 63.2878309], [9.8427209, 63.2875834], [9.842639, 63.2873994], [9.842461, 63.2871102], [9.8423123, 63.2869017], [9.8421535, 63.2867065], [9.841969, 63.2865086], [9.841792, 63.2863155], [9.8415881, 63.2861288], [9.8413484, 63.2859408], [9.8411134, 63.2857671], [9.8409179, 63.2856344], [9.8408783, 63.2856076], [9.8406802, 63.2854783], [9.8404764, 63.2853583], [9.8400484, 63.2851194], [9.8391657, 63.284655], [9.8390643, 63.2846017], [9.8387358, 63.2844299], [9.8385046, 63.2843091]]}, "properties": {"electrified": "contact_line", "frequency": "25", "gauge": "1000", "name": "Thamshavnbanen", "railway": "narrow_gauge", "voltage": "6800", "length_km": 0.736}}, {"type": "Feature", "geometry": {"type": "LineString", "coordinates": [[9.8439357, 63.2914244], [9.8439095, 63.2913343]]}, "properties": {"bridge": "yes", "electrified": "contact_line", "frequency": "25", "gauge": "1000", "name": "Thamshavnbanen", "railway": "narrow_gauge", "voltage": "6800", "length_km": 0.01}}, {"type": "Feature", "geometry": {"type": "LineString", "coordinates": [[9.8385046, 63.2843091], [9.8383792, 63.2842418]]}, "properties": {"bridge": "yes", "electrified": "contact_line", "frequency": "25", "gauge": "1000", "name": "Thamshavnbanen", "railway": "narrow_gauge", "voltage": "6800", "length_km": 0.01}}, {"type": "Feature", "geometry": {"type": "LineString", "coordinates": [[9.8095089, 63.2626608], [9.809338, 63.2621822], [9.8093016, 63.2620645], [9.8084189, 63.2596848], [9.8075616, 63.257303], [9.8072042, 63.2563233], [9.8071057, 63.2560997], [9.8070011, 63.2559054], [9.8068696, 63.255711], [9.8067195, 63.2555071], [9.8064914, 63.2552524], [9.8062462, 63.2550282], [9.805727, 63.2546283], [9.8051584, 63.2542759], [9.8039728, 63.2535757], [9.8020217, 63.2524225], [9.798096, 63.2501083], [9.7945609, 63.2480241], [9.7941613, 63.24781], [9.7937509, 63.2476144], [9.7933003, 63.2474224], [9.7928309, 63.2472619], [9.7925466, 63.2471665], [9.7922194, 63.2470735], [9.7901434, 63.2465171]]}, "properties": {"electrified": "contact_line", "frequency": "25", "gauge": "1000", "name": "Thamshavnbanen", "railway": "narrow_gauge", "voltage": "6800", "length_km": 2.127}}, {"type": "Feature", "geometry": {"type": "LineString", "coordinates": [[9.8476685, 63.2960598], [9.8472901, 63.2956245], [9.8469823, 63.2952764], [9.8465, 63.2947208]]}, "properties": {"gauge": "1000", "name": "Thamshavnbanen", "railway": "narrow_gauge", "voltage": "6800", "length_km": 0.16}}, {"type": "Feature", "geometry": {"type": "LineString", "coordinates": [[9.7063174, 63.1275655], [9.7063397, 63.12769]]}, "properties": {"bridge": "yes", "electrified": "contact_line", "frequency": "25", "gauge": "1000", "name": "Thamshavnbanen", "railway": "narrow_gauge", "voltage": "6800", "length_km": 0.014}}, {"type": "Feature", "geometry": {"type": "LineString", "coordinates": [[9.7056125, 63.1252516], [9.7056981, 63.1254515], [9.7058844, 63.125855], [9.7060283, 63.1261591], [9.7061077, 63.1264009], [9.7061863, 63.1267831], [9.7063174, 63.1275655]]}, "properties": {"electrified": "contact_line", "frequency": "25", "gauge": "1000", "name": "Thamshavnbanen", "railway": "narrow_gauge", "voltage": "6800", "length_km": 0.261}}, {"type": "Feature", "geometry": {"type": "LineString", "coordinates": [[9.7881116, 63.2127279], [9.787979, 63.2120914], [9.7877924, 63.2112029]]}, "properties": {"electrified": "contact_line", "frequency": "25", "gauge": "1000", "name": "Thamshavnbanen", "railway": "narrow_gauge", "voltage": "6800", "length_km": 0.171}}, {"type": "Feature", "geometry": {"type": "LineString", "coordinates": [[9.788129, 63.2128065], [9.7881116, 63.2127279]]}, "properties": {"bridge": "yes", "electrified": "contact_line", "frequency": "25", "gauge": "1000", "name": "Thamshavnbanen", "railway": "narrow_gauge", "voltage": "6800", "length_km": 0.009}}, {"type": "Feature", "geometry": {"type": "LineString", "coordinates": [[9.7093658, 63.1329052], [9.7094334, 63.1330721]]}, "properties": {"bridge": "yes", "electrified": "contact_line", "frequency": "25", "gauge": "1000", "name": "Thamshavnbanen", "railway": "narrow_gauge", "voltage": "6800", "length_km": 0.019}}, {"type": "Feature", "geometry": {"type": "LineString", "coordinates": [[9.7063397, 63.12769], [9.7065664, 63.1290124], [9.7066858, 63.1293849], [9.7068318, 63.1297099], [9.7070653, 63.1300889], [9.7073579, 63.1304141], [9.7078686, 63.130896], [9.7084493, 63.1314406], [9.7087042, 63.1317266], [9.70891, 63.1319995], [9.7091676, 63.132433], [9.7093658, 63.1329052]]}, "properties": {"electrified": "contact_line", "frequency": "25", "gauge": "1000", "name": "Thamshavnbanen", "railway": "narrow_gauge", "voltage": "6800", "length_km": 0.607}}, {"type": "Feature", "geometry": {"type": "LineString", "coordinates": [[9.7487435, 63.1714809], [9.7487046, 63.171657]]}, "properties": {"bridge": "yes", "electrified": "contact_line", "frequency": "25", "gauge": "1000", "name": "Thamshavnbanen", "railway": "narrow_gauge", "voltage": "6800", "length_km": 0.02}}, {"type": "Feature", "geometry": {"type": "LineString", "coordinates": [[9.7455564, 63.167606], [9.7458279, 63.167728], [9.7460854, 63.167866], [9.7463117, 63.1680179], [9.7468526, 63.1684082], [9.7476748, 63.169019], [9.7479206, 63.1691956], [9.7481737, 63.1693894], [9.7483152, 63.1694929], [9.7484136, 63.1695779], [9.7485526, 63.169703], [9.7486817, 63.1698745], [9.7487969, 63.1700537], [9.748891, 63.1703599], [9.748932, 63.1705753], [9.7489232, 63.170722], [9.7488937, 63.1708672], [9.7487435, 63.1714809]]}, "properties": {"electrified": "contact_line", "frequency": "25", "gauge": "1000", "name": "Thamshavnbanen", "railway": "narrow_gauge", "voltage": "6800", "length_km": 0.48}}, {"type": "Feature", "geometry": {"type": "LineString", "coordinates": [[9.8436145, 63.2903709], [9.8435971, 63.2903191]]}, "properties": {"bridge": "yes", "electrified": "contact_line", "frequency": "25", "gauge": "1000", "name": "Thamshavnbanen", "railway": "narrow_gauge", "voltage": "6800", "length_km": 0.006}}, {"type": "Feature", "geometry": {"type": "LineString", "coordinates": [[9.8439095, 63.2913343], [9.8438131, 63.2910139], [9.8436145, 63.2903709]]}, "properties": {"electrified": "contact_line", "frequency": "25", "gauge": "1000", "name": "Thamshavnbanen", "railway": "narrow_gauge", "voltage": "6800", "length_km": 0.108}}, {"type": "Feature", "geometry": {"type": "LineString", "coordinates": [[9.8095357, 63.2627447], [9.8095089, 63.2626608]]}, "properties": {"bridge": "yes", "electrified": "contact_line", "frequency": "25", "gauge": "1000", "name": "Thamshavnbanen", "railway": "narrow_gauge", "voltage": "6800", "length_km": 0.009}}, {"type": "Feature", "geometry": {"type": "LineString", "coordinates": [[9.8383792, 63.2842418], [9.8358088, 63.282869], [9.8336837, 63.2817335], [9.8321286, 63.2809124], [9.8298085, 63.2796882], [9.8279646, 63.2787026], [9.8270184, 63.2781931], [9.8265088, 63.277908], [9.8260321, 63.2776066], [9.8255727, 63.2773062], [9.8251935, 63.2770511], [9.8249991, 63.2768999], [9.8244594, 63.2764899], [9.8241457, 63.2762267], [9.82384, 63.2759432], [9.8235422, 63.2756598], [9.8232757, 63.275373], [9.8229656, 63.2750374], [9.8226031, 63.2746016], [9.8203724, 63.2719402], [9.8197913, 63.271256], [9.8192346, 63.2707236], [9.8189248, 63.2704486], [9.8186273, 63.2702058], [9.8182194, 63.2699003], [9.8178036, 63.2696113], [9.8167087, 63.2689471], [9.8146433, 63.2677194], [9.8137703, 63.2672006], [9.8129165, 63.2666872], [9.8122662, 63.2663006], [9.8118474, 63.266052], [9.8116458, 63.265936], [9.8115669, 63.2658853], [9.8112443, 63.2656684], [9.8109272, 63.2654276], [9.8106814, 63.2651923], [9.8104715, 63.2649439], [9.810335, 63.2647635], [9.8102331, 63.264603], [9.8100699, 63.2642407], [9.8095357, 63.2627447]]}, "properties": {"electrified": "contact_line", "frequency": "25", "gauge": "1000", "name": "Thamshavnbanen", "railway": "narrow_gauge", "voltage": "6800", "length_km": 2.841}}, {"type": "Feature", "geometry": {"type": "LineString", "coordinates": [[9.7877736, 63.2111092], [9.7876918, 63.2107278], [9.7875738, 63.2103313], [9.7874346, 63.2099331], [9.7872922, 63.2096716], [9.7871554, 63.2094391], [9.786796, 63.2088528], [9.7856959, 63.2071962], [9.7853083, 63.2066091], [9.7849933, 63.2061352], [9.7826748, 63.202647]]}, "properties": {"electrified": "contact_line", "frequency": "25", "gauge": "1000", "name": "Thamshavnbanen", "railway": "narrow_gauge", "voltage": "6800", "length_km": 0.979}}, {"type": "Feature", "geometry": {"type": "LineString", "coordinates": [[9.7877924, 63.2112029], [9.7877736, 63.2111092]]}, "properties": {"bridge": "yes", "electrified": "contact_line", "frequency": "25", "gauge": "1000", "name": "Thamshavnbanen", "railway": "narrow_gauge", "voltage": "6800", "length_km": 0.01}}, {"type": "Feature", "geometry": {"type": "LineString", "coordinates": [[9.782593, 63.2025267], [9.7826748, 63.202647]]}, "properties": {"bridge": "yes", "electrified": "contact_line", "frequency": "25", "gauge": "1000", "name": "Thamshavnbanen", "railway": "narrow_gauge", "voltage": "6800", "length_km": 0.014}}, {"type": "Feature", "geometry": {"type": "LineString", "coordinates": [[9.7825634, 63.202482], [9.782593, 63.2025267]]}, "properties": {"electrified": "contact_line", "frequency": "25", "gauge": "1000", "name": "Thamshavnbanen", "railway": "narrow_gauge", "voltage": "6800", "length_km": 0.005}}, {"type": "Feature", "geometry": {"type": "LineString", "coordinates": [[9.7825219, 63.2024149], [9.7825634, 63.202482]]}, "properties": {"bridge": "yes", "electrified": "contact_line", "frequency": "25", "gauge": "1000", "name": "Thamshavnbanen", "railway": "narrow_gauge", "voltage": "6800", "length_km": 0.008}}, {"type": "Feature", "geometry": {"type": "LineString", "coordinates": [[9.7741909, 63.1857454], [9.7743881, 63.1858247], [9.774534, 63.1859029], [9.774714, 63.1860406], [9.7750921, 63.1863578], [9.7753429, 63.1865276], [9.7755964, 63.1866807], [9.7767296, 63.1873262], [9.7771752, 63.1876263], [9.7780184, 63.1882947], [9.7851259, 63.1940473], [9.7860121, 63.1947681], [9.7861952, 63.1949365], [9.7863454, 63.195101], [9.7864892, 63.1952768], [9.7866458, 63.1955135], [9.7867818, 63.1957642], [9.786863, 63.1960348], [9.7869059, 63.1962355], [9.7869306, 63.196448], [9.7868872, 63.1967496], [9.786821, 63.1970221], [9.7866887, 63.1973096], [9.7864811, 63.1976163], [9.7861925, 63.1979349], [9.7858488, 63.1982363], [9.7854173, 63.1985287], [9.7849986, 63.198805], [9.7832828, 63.199912], [9.783124, 63.2000174], [9.7829926, 63.2001166], [9.7828585, 63.2002242], [9.7827391, 63.2003329], [9.7825956, 63.2004782], [9.7824749, 63.2006318], [9.7823703, 63.2007878], [9.782277, 63.2009548], [9.7822255, 63.2011203], [9.7821906, 63.2012715], [9.7821772, 63.201442], [9.7821855, 63.2015873], [9.7822013, 63.2017552], [9.7822496, 63.20191], [9.782399, 63.2022335], [9.7825219, 63.2024149]]}, "properties": {"electrified": "contact_line", "frequency": "25", "gauge": "1000", "name": "Thamshavnbanen", "railway": "narrow_gauge", "voltage": "6800", "length_km": 2.095}}, {"type": "Feature", "geometry": {"type": "LineString", "coordinates": [[9.7740515, 63.1856946], [9.7741909, 63.1857454]]}, "properties": {"bridge": "yes", "electrified": "contact_line", "frequency": "25", "gauge": "1000", "name": "Thamshavnbanen", "railway": "narrow_gauge", "voltage": "6800", "length_km": 0.009}}]}