{"type": "FeatureCollection", "features": [{"type": "Feature", "geometry": {"type": "LineString", "coordinates": [[9.0881429, 59.6938956], [9.0882174, 59.6938888], [9.0885405, 59.6938491], [9.0888114, 59.6938002], [9.0890568, 59.6937486], [9.0895629, 59.6935929], [9.090285, 59.6933469], [9.0907294, 59.6932067], [9.0912417, 59.6930821], [9.0916984, 59.6929887], [9.0922971, 59.6929264], [9.0929575, 59.6928859], [9.0940464, 59.6928813], [9.0943359, 59.692879], [9.0947103, 59.6928703], [9.0953769, 59.6928454], [9.0962472, 59.6927644], [9.0970804, 59.6926803], [9.0999178, 59.6923773], [9.1003762, 59.6923284], [9.1009441, 59.6922349], [9.1014193, 59.6921228], [9.1017526, 59.6920138], [9.1020427, 59.6918768], [9.1021118, 59.6918463]]}, "properties": {"electrified": "contact_line", "frequency": "16.67", "gauge": "1435", "name": "Tinnosbanen", "railway": "rail", "usage": "tourism", "voltage": "15000", "length_km": 0.835}}, {"type": "Feature", "geometry": {"type": "LineString", "coordinates": [[9.0200181, 59.699935], [9.0200571, 59.699909], [9.0202901, 59.6997803], [9.0206285, 59.6996185], [9.0210724, 59.6994743], [9.0214196, 59.6993945], [9.0218767, 59.6993169], [9.022347, 59.6992637], [9.0228964, 59.6992459], [9.025674, 59.6992748], [9.0262542, 59.6992748], [9.0269486, 59.6992082], [9.0275184, 59.6990862], [9.0278973, 59.6989712], [9.0282587, 59.6988366], [9.028606, 59.6986543], [9.0295304, 59.6980305], [9.030097, 59.6976276], [9.0305987, 59.6972683], [9.0310689, 59.6969762], [9.0313846, 59.6968133], [9.0317039, 59.6966735], [9.0321003, 59.6965248], [9.0332012, 59.6962011], [9.0335282, 59.696084], [9.0339036, 59.6959211], [9.0341246, 59.6957936], [9.0344158, 59.6955723], [9.0346228, 59.6953369], [9.0348053, 59.6950483], [9.0349526, 59.6947261], [9.0350438, 59.6944482], [9.0353245, 59.6930779], [9.0354298, 59.692846], [9.0355666, 59.6926406], [9.0357981, 59.6924104], [9.0361174, 59.6921874], [9.0364752, 59.6920068], [9.0368857, 59.6918492], [9.037412, 59.6916969], [9.03804, 59.6915695], [9.0385101, 59.6914756], [9.0391065, 59.6913906], [9.0397746, 59.6913191], [9.0403796, 59.6912722], [9.0407308, 59.6912639], [9.0410879, 59.6912709], [9.0416619, 59.6913068], [9.0421804, 59.6913924], [9.0428099, 59.6915341], [9.0435004, 59.691715], [9.0447912, 59.6920341], [9.0449233, 59.6920674], [9.0503151, 59.6934278], [9.0560057, 59.6948263], [9.056987, 59.6950661]]}, "properties": {"electrified": "contact_line", "frequency": "16.67", "gauge": "1435", "name": "Tinnosbanen", "railway": "rail", "usage": "tourism", "voltage": "15000", "length_km": 2.703}}, {"type": "Feature", "geometry": {"type": "LineString", "coordinates": [[9.3007983, 59.5312609], [9.2997338, 59.5315507], [9.2990881, 59.5317247], [9.2986184, 59.5318545], [9.2980163, 59.5320175], [9.2977314, 59.5321026], [9.2974446, 59.5321975], [9.2972083, 59.5322842], [9.2968932, 59.5324138], [9.2965573, 59.5325713], [9.2963017, 59.5327077], [9.2958409, 59.5329496], [9.2956373, 59.5330513], [9.2954441, 59.533138], [9.2952872, 59.5332061], [9.2951341, 59.5332649], [9.2948934, 59.5333486], [9.2946764, 59.5334141], [9.2944861, 59.5334646], [9.294235, 59.5335204], [9.294018, 59.5335603], [9.2937371, 59.5336071], [9.2934799, 59.5336395], [9.2930549, 59.5336847], [9.292658, 59.5337224], [9.2920858, 59.5337759], [9.2917157, 59.5338135], [9.2914066, 59.5338542], [9.2911272, 59.5338979], [9.2909235, 59.5339341], [9.2907184, 59.5339771], [9.2905267, 59.5340253], [9.2903261, 59.5340796], [9.2901626, 59.53413], [9.2899337, 59.5342099], [9.2897301, 59.5342875], [9.2895532, 59.5343652], [9.2893794, 59.5344518], [9.289253, 59.5345234], [9.2891133, 59.5346048], [9.2889721, 59.5346915], [9.2888502, 59.5347713], [9.2886555, 59.5349107], [9.2884772, 59.5350411], [9.2882186, 59.5352309], [9.2876479, 59.5356566], [9.2873248, 59.535906], [9.2871339, 59.5360685], [9.2870284, 59.5361642], [9.2868946, 59.5362938], [9.2867668, 59.5364347], [9.2866613, 59.5365598], [9.2865721, 59.5366833], [9.2864918, 59.5368047], [9.2864086, 59.5369554], [9.2863464, 59.5370815], [9.2862914, 59.5372164], [9.2862393, 59.5373716], [9.2862052, 59.5375012], [9.2861826, 59.5376505], [9.2861722, 59.5378001], [9.2861737, 59.5379681], [9.2861885, 59.5381173], [9.2862123, 59.5382559], [9.2862495, 59.5384044], [9.2862896, 59.5385355], [9.2863595, 59.5387201], [9.2865259, 59.5391074], [9.2866508, 59.5393937], [9.2867295, 59.5396107], [9.2867712, 59.5397772], [9.286786, 59.5398917], [9.286792, 59.5400213], [9.2867787, 59.5401387], [9.286749, 59.5402856], [9.2867178, 59.5404039], [9.2866821, 59.5404853], [9.2866286, 59.540593], [9.2865573, 59.5407038], [9.2864815, 59.5408107], [9.2863819, 59.5409351], [9.2862452, 59.5410677], [9.286052, 59.5412289], [9.2858513, 59.5413683], [9.2857071, 59.5414557], [9.2855511, 59.5415423], [9.2853396, 59.5416441], [9.2850227, 59.5417832]]}, "properties": {"electrified": "contact_line", "frequency": "16.67", "gauge": "1435", "maxspeed": "70", "name": "Tinnosbanen", "railway": "rail", "usage": "branch", "voltage": "15000", "length_km": 1.654, "maxspeed_kmh": 70.0}}, {"type": "Feature", "geometry": {"type": "LineString", "coordinates": [[9.3253009, 59.5157762], [9.3251346, 59.5157789], [9.3248973, 59.5157726], [9.3246435, 59.5157569], [9.3232729, 59.5156249]]}, "properties": {"electrified": "contact_line", "frequency": "16.67", "gauge": "1435", "maxspeed": "70", "name": "Tinnosbanen", "passenger_lines": "1", "railway": "rail", "tunnel": "yes", "usage": "branch", "voltage": "15000", "length_km": 0.116, "maxspeed_kmh": 70.0}}, {"type": "Feature", "geometry": {"type": "LineString", "coordinates": [[9.3294216, 59.514956], [9.3267944, 59.5156045]]}, "properties": {"bridge": "yes", "electrified": "contact_line", "frequency": "16.67", "gauge": "1435", "maxspeed": "60", "name": "Tinnosbanen", "passenger_lines": "1", "railway": "rail", "usage": "branch", "voltage": "15000", "length_km": 0.165, "maxspeed_kmh": 60.0}}, {"type": "Feature", "geometry": {"type": "LineString", "coordinates": [[9.3326153, 59.5136819], [9.331256, 59.5142584]]}, "properties": {"electrified": "contact_line", "frequency": "16.67", "gauge": "1435", "maxspeed": "70", "name": "Tinnosbanen", "passenger_lines": "1", "railway": "rail", "tunnel": "yes", "usage": "branch", "voltage": "15000", "length_km": 0.1, "maxspeed_kmh": 70.0}}, {"type": "Feature", "geometry": {"type": "LineString", "coordinates": [[9.3358686, 59.5122719], [9.3354342, 59.5124651], [9.333921, 59.5131196], [9.3333119, 59.5133821], [9.3328936, 59.513553], [9.3326153, 59.5136819]]}, "properties": {"electrified": "contact_line", "frequency": "16.67", "gauge": "1435", "maxspeed": "70", "name": "Tinnosbanen", "passenger_lines": "1", "railway": "rail", "usage": "branch", "voltage": "15000", "length_km": 0.242, "maxspeed_kmh": 70.0}}, {"type": "Feature", "geometry": {"type": "LineString", "coordinates": [[9.2826831, 59.6081575], [9.2825523, 59.6078271], [9.2824196, 59.607543], [9.2821912, 59.607212], [9.2817407, 59.6066452], [9.2810371, 59.6058552], [9.2807038, 59.6054805], [9.2805419, 59.6053163], [9.2802223, 59.6050839], [9.2799869, 59.6049676], [9.2798224, 59.6048918], [9.279668, 59.604825], [9.2795071, 59.6047619], [9.2791697, 59.604634], [9.2787366, 59.6044844], [9.2783765, 59.6043646], [9.2780031, 59.6042458], [9.2776342, 59.6041274], [9.2774358, 59.6040582], [9.2772828, 59.6039998], [9.2772011, 59.603967], [9.2770609, 59.6039042], [9.2768702, 59.6038075]]}, "properties": {"electrified": "contact_line", "frequency": "16.67", "gauge": "1435", "name": "Tinnosbanen", "railway": "rail", "usage": "tourism", "voltage": "15000", "length_km": 0.61}}, {"type": "Feature", "geometry": {"type": "LineString", "coordinates": [[9.2827111, 59.6082653], [9.2826831, 59.6081575]]}, "properties": {"bridge": "yes", "electrified": "contact_line", "frequency": "16.67", "gauge": "1435", "name": "Tinnosbanen", "railway": "rail", "usage": "tourism", "voltage": "15000", "length_km": 0.012}}, {"type": "Feature", "geometry": {"type": "LineString", "coordinates": [[9.2712356, 59.5571472], [9.2710023, 59.5572606], [9.2708213, 59.557355], [9.2705774, 59.5574753], [9.2703855, 59.5575756], [9.2700361, 59.5577673], [9.2697248, 59.5579328], [9.2695808, 59.558011], [9.2693142, 59.5581545], [9.2687652, 59.5584514], [9.2683027, 59.5586995], [9.267961, 59.5588896], [9.2676272, 59.5590719], [9.2674796, 59.5591551], [9.2673136, 59.5592496]]}, "properties": {"electrified": "contact_line", "frequency": "16.67", "gauge": "1435", "maxspeed": "40", "name": "Tinnosbanen", "railway": "rail", "service": "siding", "voltage": "15000", "length_km": 0.323, "maxspeed_kmh": 40.0}}, {"type": "Feature", "geometry": {"type": "LineString", "coordinates": [[9.2744012, 59.5562143], [9.2742024, 59.5562893]]}, "properties": {"bridge": "yes", "electrified": "contact_line", "frequency": "16.67", "gauge": "1435", "maxspeed": "70", "name": "Tinnosbanen", "railway": "rail", "usage": "branch", "voltage": "15000", "length_km": 0.014, "maxspeed_kmh": 70.0}}, {"type": "Feature", "geometry": {"type": "LineString", "coordinates": [[9.2661739, 59.5601758], [9.2662731, 59.5600362]]}, "properties": {"electrified": "contact_line", "frequency": "16.67", "gauge": "1435", "maxspeed": "40", "name": "Tinnosbanen", "railway": "rail", "usage": "branch", "voltage": "15000", "length_km": 0.017, "maxspeed_kmh": 40.0}}, {"type": "Feature", "geometry": {"type": "LineString", "coordinates": [[9.2639228, 59.5636307], [9.2641884, 59.5640318], [9.2642961, 59.5642239], [9.2644119, 59.5644621], [9.2644961, 59.5647109], [9.2647416, 59.5656466], [9.2648697, 59.5659513], [9.2650235, 59.5662585], [9.2650513, 59.5663023], [9.2651705, 59.5665023], [9.2654565, 59.5670096], [9.2657126, 59.5675072], [9.2658529, 59.5678786], [9.2659827, 59.568298], [9.2661546, 59.5688702], [9.2663476, 59.5695721], [9.2664002, 59.5699364], [9.2664107, 59.5702082], [9.2663722, 59.5706294], [9.2662248, 59.571216], [9.2660124, 59.5718028], [9.2659512, 59.5721521], [9.2659231, 59.5723932], [9.2659297, 59.5725412], [9.2659512, 59.5727243], [9.2660283, 59.5730405], [9.2662459, 59.5738916], [9.2662915, 59.5743482], [9.2662844, 59.5748404], [9.2662213, 59.5753094], [9.2660038, 59.5762101], [9.265919, 59.5764633]]}, "properties": {"electrified": "contact_line", "frequency": "16.67", "gauge": "1435", "maxspeed": "80", "name": "Tinnosbanen", "railway": "rail", "usage": "tourism", "voltage": "15000", "length_km": 1.451, "maxspeed_kmh": 80.0}}, {"type": "Feature", "geometry": {"type": "LineString", "coordinates": [[9.2658914, 59.5606544], [9.265647, 59.5610013], [9.2655571, 59.561087], [9.2653855, 59.5612458], [9.2652246, 59.5613789], [9.2642323, 59.5620873], [9.2640616, 59.5622437], [9.2639526, 59.562368], [9.2638635, 59.5624945], [9.2637929, 59.5626247], [9.2637457, 59.5627452]]}, "properties": {"electrified": "contact_line", "maxspeed": "50", "name": "Tinnosbanen", "railway": "rail", "tunnel": "yes", "usage": "tourism", "length_km": 0.265, "maxspeed_kmh": 50.0}}, {"type": "Feature", "geometry": {"type": "LineString", "coordinates": [[9.3359358, 59.5122423], [9.3358686, 59.5122719]]}, "properties": {"bridge": "yes", "electrified": "contact_line", "frequency": "16.67", "gauge": "1435", "maxspeed": "70", "name": "Tinnosbanen", "passenger_lines": "1", "railway": "rail", "usage": "branch", "voltage": "15000", "length_km": 0.005, "maxspeed_kmh": 70.0}}, {"type": "Feature", "geometry": {"type": "LineString", "coordinates": [[9.3363779, 59.4941246], [9.3364612, 59.4942012]]}, "properties": {"bridge": "yes", "electrified": "contact_line", "frequency": "16.67", "gauge": "1435", "maxspeed": "65", "name": "Tinnosbanen", "passenger_lines": "1", "railway": "rail", "usage": "branch", "voltage": "15000", "length_km": 0.01, "maxspeed_kmh": 65.0}}, {"type": "Feature", "geometry": {"type": "LineString", "coordinates": [[9.331256, 59.5142584], [9.3309139, 59.5144185], [9.3307009, 59.5145097], [9.3304187, 59.5146279], [9.3301995, 59.514714], [9.3299277, 59.5148062], [9.3298459, 59.5148328]]}, "properties": {"electrified": "contact_line", "frequency": "16.67", "gauge": "1435", "maxspeed": "70", "name": "Tinnosbanen", "passenger_lines": "1", "railway": "rail", "usage": "branch", "voltage": "15000", "length_km": 0.103, "maxspeed_kmh": 70.0}}, {"type": "Feature", "geometry": {"type": "LineString", "coordinates": [[9.3267944, 59.5156045], [9.3264184, 59.5156768], [9.3260672, 59.5157239], [9.3260265, 59.5157275]]}, "properties": {"electrified": "contact_line", "frequency": "16.67", "gauge": "1435", "maxspeed": "60", "name": "Tinnosbanen", "passenger_lines": "1", "railway": "rail", "usage": "branch", "voltage": "15000", "length_km": 0.046, "maxspeed_kmh": 60.0}}, {"type": "Feature", "geometry": {"type": "LineString", "coordinates": [[9.2386854, 59.6246686], [9.2399165, 59.6247468]]}, "properties": {"bridge": "yes", "electrified": "contact_line", "frequency": "16.67", "gauge": "1435", "name": "Tinnosbanen", "railway": "rail", "usage": "tourism", "voltage": "15000", "length_km": 0.07}}, {"type": "Feature", "geometry": {"type": "LineString", "coordinates": [[9.1126764, 59.6871006], [9.113475, 59.6867942]]}, "properties": {"bridge": "yes", "electrified": "contact_line", "frequency": "16.67", "gauge": "1435", "name": "Tinnosbanen", "railway": "rail", "usage": "tourism", "voltage": "15000", "length_km": 0.057}}, {"type": "Feature", "geometry": {"type": "LineString", "coordinates": [[9.2399165, 59.6247468], [9.2404314, 59.6247594], [9.2408388, 59.6247422], [9.2413202, 59.6246892], [9.2417183, 59.6246158], [9.2421226, 59.6245175], [9.2435915, 59.6239713], [9.2441963, 59.6237778], [9.244974, 59.6235687], [9.2456776, 59.6233908], [9.2461035, 59.623241], [9.2465294, 59.6230288], [9.2469861, 59.6227104], [9.2474799, 59.6223421], [9.2477946, 59.6221393], [9.2483378, 59.6218334], [9.2489735, 59.6215712], [9.2496771, 59.6213371], [9.2503005, 59.6211779], [9.2510596, 59.6210312], [9.2540962, 59.6205911], [9.2581636, 59.6200105], [9.258966, 59.6199231], [9.25983, 59.6198732], [9.2626692, 59.6198701], [9.2633481, 59.6199138], [9.2638974, 59.6199887], [9.2644776, 59.6201198], [9.2655577, 59.6204663], [9.2661378, 59.6206286], [9.266576, 59.6207285], [9.2671068, 59.620794], [9.2676191, 59.6208096], [9.2681252, 59.6208065], [9.2688597, 59.6207035], [9.2694215, 59.6205896], [9.271742, 59.6201385], [9.2734023, 59.6198264], [9.2743096, 59.6196422], [9.2748157, 59.6195049], [9.2752971, 59.6193207], [9.2757476, 59.6190835], [9.276118, 59.6188182], [9.2766661, 59.6182779], [9.2770129, 59.6179316], [9.2773339, 59.6176975], [9.2778122, 59.6174384], [9.2782998, 59.6172542], [9.2786917, 59.6171241]]}, "properties": {"electrified": "contact_line", "frequency": "16.67", "gauge": "1435", "name": "Tinnosbanen", "railway": "rail", "usage": "tourism", "voltage": "15000", "length_km": 2.538}}, {"type": "Feature", "geometry": {"type": "LineString", "coordinates": [[9.1348995, 59.685609], [9.1379082, 59.6853789], [9.1392784, 59.6852667], [9.1399879, 59.6852018], [9.1406355, 59.6851228], [9.1411122, 59.6850553], [9.1415344, 59.6849851], [9.1424446, 59.684815], [9.1430655, 59.6846702], [9.1434609, 59.6845719], [9.1439129, 59.6844462], [9.1444135, 59.6842916], [9.1465176, 59.6835782], [9.1467822, 59.6834919], [9.1473637, 59.683304], [9.1483759, 59.6830018], [9.151536, 59.682226], [9.1520791, 59.6820889], [9.1526756, 59.6818894], [9.1532271, 59.6816714], [9.1540928, 59.6812446], [9.1545541, 59.6809922], [9.1553441, 59.6804625], [9.15656, 59.6796119], [9.1571525, 59.6792567], [9.1577512, 59.6789389], [9.1590535, 59.6783749], [9.1596337, 59.6780695], [9.1601028, 59.6777704], [9.1607385, 59.6772968], [9.1610903, 59.6770942], [9.1614544, 59.6769384], [9.1619482, 59.6767951], [9.1628493, 59.676605], [9.1631996, 59.6765251], [9.1635214, 59.6764424]]}, "properties": {"electrified": "contact_line", "frequency": "16.67", "gauge": "1435", "name": "Tinnosbanen", "railway": "rail", "usage": "tourism", "voltage": "15000", "length_km": 1.974}}, {"type": "Feature", "geometry": {"type": "LineString", "coordinates": [[9.2760593, 59.602826], [9.2760609, 59.602616], [9.2761195, 59.6024068], [9.2762306, 59.6020461], [9.2763411, 59.6017558], [9.2763935, 59.6014539], [9.2763972, 59.6012475], [9.2763976, 59.6011336], [9.2762162, 59.6004543], [9.2761275, 59.6000279], [9.2760952, 59.5996097], [9.2760347, 59.5985528], [9.2760267, 59.597749], [9.2760745, 59.5974375], [9.2760913, 59.5973374], [9.2761277, 59.5972033]]}, "properties": {"electrified": "contact_line", "frequency": "16.67", "gauge": "1435", "name": "Tinnosbanen", "railway": "rail", "usage": "tourism", "voltage": "15000", "length_km": 0.63}}, {"type": "Feature", "geometry": {"type": "LineString", "coordinates": [[9.2803395, 59.6164442], [9.2805904, 59.6162893], [9.2807531, 59.6161772], [9.2811143, 59.6158669], [9.2813703, 59.6155919], [9.2815432, 59.6153469], [9.2816635, 59.615133], [9.2817437, 59.6148911], [9.2818024, 59.6146476], [9.2818117, 59.6144422], [9.2816829, 59.613163], [9.2815524, 59.6121312], [9.2815709, 59.6118393], [9.2816265, 59.6115521], [9.281747, 59.6111955], [9.2820832, 59.6106264], [9.2825029, 59.6098505], [9.2826387, 59.6095335], [9.2826972, 59.6093343], [9.282756, 59.6090683], [9.2827714, 59.6087545], [9.2827652, 59.6085547], [9.2827111, 59.6082653]]}, "properties": {"electrified": "contact_line", "frequency": "16.67", "gauge": "1435", "name": "Tinnosbanen", "railway": "rail", "usage": "tourism", "voltage": "15000", "length_km": 0.941}}, {"type": "Feature", "geometry": {"type": "LineString", "coordinates": [[9.2787644, 59.6170994], [9.278981, 59.6170286]]}, "properties": {"bridge": "yes", "electrified": "contact_line", "frequency": "16.67", "gauge": "1435", "name": "Tinnosbanen", "railway": "rail", "usage": "tourism", "voltage": "15000", "length_km": 0.015}}, {"type": "Feature", "geometry": {"type": "LineString", "coordinates": [[9.278981, 59.6170286], [9.2792617, 59.6169335], [9.2794879, 59.6168484], [9.2797237, 59.616751], [9.279937, 59.6166555], [9.2801515, 59.6165476], [9.2803395, 59.6164442]]}, "properties": {"electrified": "contact_line", "frequency": "16.67", "gauge": "1435", "name": "Tinnosbanen", "railway": "rail", "usage": "tourism", "voltage": "15000", "length_km": 0.101}}, {"type": "Feature", "geometry": {"type": "LineString", "coordinates": [[9.2768702, 59.6038075], [9.2765994, 59.6036286], [9.2763864, 59.6034491], [9.2762321, 59.6032555], [9.2761118, 59.6030447], [9.2760593, 59.602826]]}, "properties": {"electrified": "contact_line", "frequency": "16.67", "gauge": "1435", "name": "Tinnosbanen", "railway": "rail", "usage": "tourism", "voltage": "15000", "length_km": 0.121}}, {"type": "Feature", "geometry": {"type": "LineString", "coordinates": [[9.3232729, 59.5156249], [9.3229472, 59.5155978], [9.3226666, 59.5155811], [9.3224474, 59.5155708], [9.3220814, 59.5155738], [9.32183, 59.5155826], [9.3214953, 59.5156073], [9.3211714, 59.5156418], [9.3208763, 59.5156889], [9.3206145, 59.5157391], [9.3204223, 59.5157821], [9.3201973, 59.5158397], [9.3199642, 59.5159109], [9.319764, 59.5159747], [9.319537, 59.5160564], [9.3193335, 59.5161376], [9.3191036, 59.5162375], [9.3187611, 59.5163914], [9.3184292, 59.516555], [9.3180223, 59.5167693], [9.317721, 59.5169399], [9.3174425, 59.5171074], [9.3172299, 59.5172414], [9.3170126, 59.5173827], [9.3168565, 59.5174945], [9.3167804, 59.5175468], [9.3166772, 59.517623], [9.316521, 59.5177432], [9.3163582, 59.517875], [9.316197, 59.5180102], [9.3159897, 59.5181917], [9.315794, 59.518376], [9.3155917, 59.5185796], [9.3154321, 59.5187565], [9.3152726, 59.5189417], [9.3151114, 59.5191553], [9.314988, 59.5193288], [9.314863, 59.5195215], [9.3147282, 59.5197518], [9.3145736, 59.5200438], [9.3144519, 59.5203049], [9.3143548, 59.5205569], [9.3142528, 59.5208597], [9.3142002, 59.5210566], [9.3141361, 59.5213294], [9.3141147, 59.5214771], [9.3140933, 59.5216564], [9.3140884, 59.5218391], [9.3140914, 59.5219922], [9.3141041, 59.5221813], [9.3141183, 59.522447], [9.3141169, 59.5225668], [9.3141069, 59.5226743], [9.3140898, 59.5227891], [9.3140656, 59.5228815], [9.3140258, 59.5229962], [9.3139532, 59.5231478], [9.3138892, 59.5232568], [9.3138052, 59.5233679], [9.3137213, 59.5234704], [9.3136017, 59.5235946], [9.3134679, 59.5237129], [9.313347, 59.5238118], [9.3132374, 59.523889], [9.3131136, 59.5239699], [9.3129286, 59.5240774], [9.3126838, 59.5241973], [9.3124302, 59.5243101], [9.312228, 59.5243872], [9.31207, 59.5244382], [9.3118839, 59.5244928], [9.3116454, 59.5245586], [9.3114099, 59.5246208], [9.3111352, 59.5246836], [9.3108303, 59.524753], [9.3104067, 59.5248525], [9.3100354, 59.5249444], [9.3098301, 59.5249995], [9.3096379, 59.5250551], [9.3094316, 59.5251235], [9.3092596, 59.5251853], [9.3090603, 59.5252664], [9.3088782, 59.5253516], [9.3087464, 59.525419], [9.3086246, 59.5254864], [9.3084551, 59.5255923], [9.3082955, 59.5257029], [9.3081562, 59.5258135], [9.3080359, 59.525925], [9.3079157, 59.5260482], [9.3078043, 59.5261904], [9.3077252, 59.5263027], [9.3076554, 59.5264356], [9.307603, 59.5265625], [9.3075638, 59.5266716], [9.3075347, 59.5267771], [9.3074745, 59.5269933], [9.3072971, 59.5276595], [9.3071627, 59.5281961], [9.3071162, 59.5283628], [9.3070682, 59.5285059], [9.30701, 59.5286372], [9.3069437, 59.5287532], [9.3068827, 59.5288505], [9.3068027, 59.5289553], [9.30673, 59.5290445], [9.3065758, 59.5291957]]}, "properties": {"electrified": "contact_line", "frequency": "16.67", "gauge": "1435", "maxspeed": "70", "name": "Tinnosbanen", "passenger_lines": "1", "railway": "rail", "usage": "branch", "voltage": "15000", "length_km": 1.958, "maxspeed_kmh": 70.0}}, {"type": "Feature", "geometry": {"type": "LineString", "coordinates": [[9.3008958, 59.5312358], [9.3007983, 59.5312609]]}, "properties": {"bridge": "yes", "electrified": "contact_line", "frequency": "16.67", "gauge": "1435", "maxspeed": "70", "name": "Tinnosbanen", "railway": "rail", "usage": "branch", "voltage": "15000", "length_km": 0.006, "maxspeed_kmh": 70.0}}, {"type": "Feature", "geometry": {"type": "LineString", "coordinates": [[9.2850227, 59.5417832], [9.2842895, 59.5420758]]}, "properties": {"electrified": "contact_line", "frequency": "16.67", "gauge": "1435", "maxspeed": "70", "name": "Tinnosbanen", "railway": "rail", "tunnel": "yes", "usage": "branch", "voltage": "15000", "length_km": 0.053, "maxspeed_kmh": 70.0}}, {"type": "Feature", "geometry": {"type": "LineString", "coordinates": [[9.3065758, 59.5291957], [9.3064406, 59.5293093]]}, "properties": {"bridge": "yes", "electrified": "contact_line", "frequency": "16.67", "gauge": "1435", "maxspeed": "70", "name": "Tinnosbanen", "railway": "rail", "usage": "branch", "voltage": "15000", "length_km": 0.015, "maxspeed_kmh": 70.0}}, {"type": "Feature", "geometry": {"type": "LineString", "coordinates": [[9.2714034, 59.5570773], [9.2712356, 59.5571472]]}, "properties": {"electrified": "contact_line", "frequency": "16.67", "gauge": "1435", "maxspeed": "40", "name": "Tinnosbanen", "railway": "rail", "usage": "branch", "voltage": "15000", "length_km": 0.012, "maxspeed_kmh": 40.0}}, {"type": "Feature", "geometry": {"type": "LineString", "coordinates": [[9.2742024, 59.5562893], [9.2740037, 59.5563487], [9.2737812, 59.5564145]]}, "properties": {"electrified": "contact_line", "frequency": "16.67", "gauge": "1435", "maxspeed": "70", "name": "Tinnosbanen", "railway": "rail", "usage": "branch", "voltage": "15000", "length_km": 0.028, "maxspeed_kmh": 70.0}}, {"type": "Feature", "geometry": {"type": "LineString", "coordinates": [[9.2708229, 59.5573213], [9.2709331, 59.5572727], [9.2712356, 59.5571472]]}, "properties": {"electrified": "contact_line", "frequency": "16.67", "gauge": "1435", "maxspeed": "40", "name": "Tinnosbanen", "railway": "rail", "usage": "branch", "voltage": "15000", "length_km": 0.03, "maxspeed_kmh": 40.0}}, {"type": "Feature", "geometry": {"type": "LineString", "coordinates": [[9.3353443, 59.4933442], [9.3360358, 59.4938526], [9.3362151, 59.4939875], [9.3363779, 59.4941246]]}, "properties": {"electrified": "contact_line", "frequency": "16.67", "gauge": "1435", "maxspeed": "65", "name": "Tinnosbanen", "passenger_lines": "1", "railway": "rail", "usage": "branch", "voltage": "15000", "length_km": 0.105, "maxspeed_kmh": 65.0}}, {"type": "Feature", "geometry": {"type": "LineString", "coordinates": [[9.2661739, 59.5601758], [9.2661427, 59.560232], [9.2660283, 59.5604201], [9.2659689, 59.5605217]]}, "properties": {"electrified": "contact_line", "frequency": "16.67", "gauge": "1435", "maxspeed": "40", "name": "Tinnosbanen", "railway": "rail", "usage": "tourism", "voltage": "15000", "length_km": 0.04, "maxspeed_kmh": 40.0}}, {"type": "Feature", "geometry": {"type": "LineString", "coordinates": [[9.3056644, 59.5297684], [9.3055036, 59.529837], [9.3053399, 59.5299012], [9.3051805, 59.5299582], [9.3049742, 59.5300296]]}, "properties": {"bridge": "yes", "electrified": "contact_line", "frequency": "16.67", "gauge": "1435", "maxspeed": "70", "name": "Tinnosbanen", "railway": "rail", "usage": "branch", "voltage": "15000", "length_km": 0.049, "maxspeed_kmh": 70.0}}, {"type": "Feature", "geometry": {"type": "LineString", "coordinates": [[9.2737812, 59.5564145], [9.2724958, 59.5567486], [9.2721024, 59.5568542], [9.2717246, 59.5569679], [9.2714034, 59.5570773]]}, "properties": {"electrified": "contact_line", "frequency": "16.67", "gauge": "1435", "maxspeed": "70", "name": "Tinnosbanen", "railway": "rail", "tunnel": "yes", "usage": "branch", "voltage": "15000", "length_km": 0.154, "maxspeed_kmh": 70.0}}, {"type": "Feature", "geometry": {"type": "LineString", "coordinates": [[9.3064406, 59.5293093], [9.3063009, 59.5294118], [9.3061366, 59.5295209], [9.3059941, 59.5296035], [9.3058399, 59.5296861], [9.3056644, 59.5297684]]}, "properties": {"electrified": "contact_line", "frequency": "16.67", "gauge": "1435", "maxspeed": "70", "name": "Tinnosbanen", "railway": "rail", "usage": "branch", "voltage": "15000", "length_km": 0.068, "maxspeed_kmh": 70.0}}, {"type": "Feature", "geometry": {"type": "LineString", "coordinates": [[9.2842895, 59.5420758], [9.2840753, 59.5421784], [9.2839229, 59.5422633], [9.2837371, 59.5423741], [9.2835528, 59.5424991], [9.2834101, 59.5426121], [9.2832823, 59.5427274], [9.2831753, 59.5428397], [9.2830682, 59.5429632], [9.2829731, 59.5431049], [9.282881, 59.5432548], [9.2827437, 59.5435008], [9.2820419, 59.5447537], [9.2813923, 59.5459143], [9.2811174, 59.5464047], [9.2807686, 59.5470261], [9.2805858, 59.547367], [9.2804669, 59.5476055], [9.280165, 59.5482195], [9.279845, 59.5488896], [9.2795432, 59.5495098], [9.2792815, 59.5500371], [9.2791608, 59.5502543], [9.2790018, 59.5505032], [9.2788529, 59.5507122], [9.2787342, 59.5508669], [9.2785876, 59.5510493], [9.2784638, 59.5511907], [9.2783226, 59.5513459], [9.2780366, 59.5516423], [9.2778587, 59.5518219], [9.2776623, 59.5520209], [9.27751, 59.5521904], [9.2773507, 59.5523772], [9.2771927, 59.5525834], [9.2770145, 59.552841], [9.2769229, 59.5529772], [9.2768233, 59.5531348], [9.2767478, 59.5532525], [9.2766734, 59.5533744], [9.2766029, 59.5535019], [9.2765305, 59.553637], [9.2764691, 59.553767], [9.2764238, 59.5538823], [9.2763906, 59.5539761], [9.2763514, 59.5541076], [9.2763192, 59.5542346], [9.2762623, 59.5544675], [9.2762145, 59.5546429], [9.2761717, 59.5547833], [9.2761191, 59.5549145], [9.2760479, 59.5550551], [9.2759583, 59.5551871], [9.27588, 59.5552823], [9.275779, 59.5553948], [9.2756563, 59.5555099], [9.2755219, 59.5556206], [9.2753511, 59.5557445], [9.2752323, 59.555821], [9.2750764, 59.555911], [9.2748854, 59.5560115], [9.274668, 59.55611], [9.2744012, 59.5562143]]}, "properties": {"electrified": "contact_line", "frequency": "16.67", "gauge": "1435", "maxspeed": "70", "name": "Tinnosbanen", "railway": "rail", "usage": "branch", "voltage": "15000", "length_km": 1.694, "maxspeed_kmh": 70.0}}, {"type": "Feature", "geometry": {"type": "LineString", "coordinates": [[9.3049742, 59.5300296], [9.304613, 59.5301496], [9.3041679, 59.5302904], [9.3037173, 59.5304297], [9.303323, 59.5305537], [9.302369, 59.5308288], [9.3017655, 59.5309969], [9.3012347, 59.5311427], [9.3008958, 59.5312358]]}, "properties": {"electrified": "contact_line", "frequency": "16.67", "gauge": "1435", "maxspeed": "70", "name": "Tinnosbanen", "railway": "rail", "usage": "branch", "voltage": "15000", "length_km": 0.267, "maxspeed_kmh": 70.0}}, {"type": "Feature", "geometry": {"type": "LineString", "coordinates": [[9.3364612, 59.4942012], [9.3365693, 59.494311], [9.3366688, 59.4944257], [9.3367558, 59.4945387], [9.3368243, 59.4946419]]}, "properties": {"electrified": "contact_line", "frequency": "16.67", "gauge": "1435", "maxspeed": "65", "name": "Tinnosbanen", "passenger_lines": "1", "railway": "rail", "usage": "branch", "voltage": "15000", "length_km": 0.053, "maxspeed_kmh": 65.0}}, {"type": "Feature", "geometry": {"type": "LineString", "coordinates": [[9.3368243, 59.4946419], [9.3368613, 59.4946976], [9.3369839, 59.4949089], [9.3371116, 59.4951366], [9.3372717, 59.4954405], [9.3374064, 59.4957112], [9.3374813, 59.4958638], [9.3375571, 59.4960209], [9.3376514, 59.4962324], [9.3377443, 59.4964429], [9.3378184, 59.4966276], [9.3379002, 59.4968352], [9.3379953, 59.4971187], [9.3380561, 59.4973443], [9.3381268, 59.497658], [9.3381556, 59.49786], [9.3381821, 59.4980901], [9.3381987, 59.4983365], [9.3382009, 59.4985868], [9.338191, 59.4988758], [9.3381854, 59.4991228], [9.3381766, 59.4993933], [9.338132, 59.5007455], [9.3380915, 59.5019627], [9.3380483, 59.5031007], [9.3380167, 59.5041259], [9.3380019, 59.504342], [9.3379864, 59.5045343], [9.3379497, 59.5047528], [9.3378824, 59.5050208], [9.3378313, 59.5051998], [9.3377528, 59.505423], [9.3376877, 59.5055869], [9.3375931, 59.5058307], [9.3375042, 59.5060746], [9.3374541, 59.5062478], [9.3374219, 59.5064168], [9.3374011, 59.506568], [9.3373888, 59.5067014], [9.3373907, 59.5068579], [9.3373992, 59.5070398], [9.33742, 59.5071992], [9.3374607, 59.5073772], [9.3375108, 59.5075553], [9.3375837, 59.5077382], [9.337665, 59.507922], [9.3377464, 59.5080804], [9.3378609, 59.5082926], [9.3379954, 59.5085494], [9.3380863, 59.5087476], [9.3381158, 59.5088168], [9.338176, 59.5089967], [9.3382188, 59.509148], [9.3382522, 59.5092933], [9.3382669, 59.5094121], [9.3382803, 59.5095628], [9.3382856, 59.5096999], [9.3382816, 59.5098451], [9.3382683, 59.5099924], [9.3382415, 59.510137], [9.3382067, 59.5102938], [9.3381586, 59.5104519], [9.3381255, 59.5105332]]}, "properties": {"electrified": "contact_line", "frequency": "16.67", "gauge": "1435", "maxspeed": "90", "name": "Tinnosbanen", "passenger_lines": "1", "railway": "rail", "usage": "branch", "voltage": "15000", "length_km": 1.789, "maxspeed_kmh": 90.0}}, {"type": "Feature", "geometry": {"type": "LineString", "coordinates": [[9.3381255, 59.5105332], [9.3381158, 59.5105571], [9.3380663, 59.5106671], [9.3380021, 59.5107892], [9.3379071, 59.5109345], [9.3378041, 59.5110682], [9.3376636, 59.5112189], [9.3375325, 59.5113431], [9.3374001, 59.5114564], [9.337277, 59.5115521], [9.3371165, 59.51166], [9.336952, 59.5117605], [9.3367152, 59.5118914], [9.3365078, 59.5119919], [9.336172, 59.51214], [9.3359358, 59.5122423]]}, "properties": {"electrified": "contact_line", "frequency": "16.67", "gauge": "1435", "maxspeed": "70", "name": "Tinnosbanen", "passenger_lines": "1", "railway": "rail", "usage": "branch", "voltage": "15000", "length_km": 0.233, "maxspeed_kmh": 70.0}}, {"type": "Feature", "geometry": {"type": "LineString", "coordinates": [[9.3298459, 59.5148328], [9.3296621, 59.5148878], [9.3294216, 59.514956]]}, "properties": {"electrified": "contact_line", "frequency": "16.67", "gauge": "1435", "maxspeed": "60", "name": "Tinnosbanen", "passenger_lines": "1", "railway": "rail", "usage": "branch", "voltage": "15000", "length_km": 0.028, "maxspeed_kmh": 60.0}}, {"type": "Feature", "geometry": {"type": "LineString", "coordinates": [[9.3260265, 59.5157275], [9.3258544, 59.5157429], [9.3255585, 59.5157664], [9.3253009, 59.5157762]]}, "properties": {"electrified": "contact_line", "frequency": "16.67", "gauge": "1435", "maxspeed": "70", "name": "Tinnosbanen", "passenger_lines": "1", "railway": "rail", "usage": "branch", "voltage": "15000", "length_km": 0.042, "maxspeed_kmh": 70.0}}, {"type": "Feature", "geometry": {"type": "LineString", "coordinates": [[9.2659689, 59.5605217], [9.2658914, 59.5606544]]}, "properties": {"electrified": "contact_line", "frequency": "16.67", "gauge": "1435", "maxspeed": "50", "name": "Tinnosbanen", "railway": "rail", "usage": "tourism", "voltage": "15000", "length_km": 0.015, "maxspeed_kmh": 50.0}}, {"type": "Feature", "geometry": {"type": "LineString", "coordinates": [[9.0252795, 59.7214274], [9.025282, 59.7214891], [9.0252793, 59.7215547], [9.0252609, 59.7216827], [9.0252126, 59.7220882], [9.025173, 59.7224201], [9.0251906, 59.7226195], [9.0252192, 59.7227813], [9.0252917, 59.72304], [9.025351, 59.7231636], [9.0254097, 59.7232681], [9.0255388, 59.7234554], [9.0255949, 59.7235219], [9.025799, 59.7237935], [9.0260303, 59.7240943], [9.0261041, 59.7241964], [9.0261661, 59.7243023]]}, "properties": {"electrified": "contact_line", "frequency": "16.67", "gauge": "1435", "name": "Tinnosbanen", "railway": "rail", "service": "siding", "voltage": "15000", "length_km": 0.33}}, {"type": "Feature", "geometry": {"type": "LineString", "coordinates": [[9.0252907, 59.7220651], [9.0252659, 59.7222593], [9.0252552, 59.7224305], [9.0252719, 59.7226228], [9.0253071, 59.7227791], [9.025384, 59.7230339], [9.0254335, 59.7231481], [9.0254913, 59.7232541], [9.0256181, 59.723443], [9.0258982, 59.7238067]]}, "properties": {"electrified": "contact_line", "frequency": "16.67", "gauge": "1435", "name": "Tinnosbanen", "railway": "rail", "service": "siding", "voltage": "15000", "length_km": 0.2}}, {"type": "Feature", "geometry": {"type": "LineString", "coordinates": [[9.0252291, 59.7213277], [9.0252142, 59.7214245], [9.0251914, 59.7215246], [9.0251137, 59.7217187], [9.025039, 59.7220555], [9.0250038, 59.7223979], [9.0250082, 59.7226273], [9.0250324, 59.7227957], [9.0251137, 59.723056], [9.0251787, 59.7231832], [9.0252552, 59.7232986], [9.0253955, 59.7234852], [9.0256521, 59.7238235], [9.0258566, 59.7240914], [9.0259418, 59.7241927], [9.0260705, 59.7243144], [9.0261631, 59.724401], [9.0261986, 59.724439]]}, "properties": {"electrified": "contact_line", "frequency": "16.67", "gauge": "1435", "name": "Tinnosbanen", "railway": "rail", "service": "siding", "voltage": "15000", "length_km": 0.36}}, {"type": "Feature", "geometry": {"type": "LineString", "coordinates": [[9.0253115, 59.7216982], [9.025357, 59.7220924], [9.0254041, 59.7224414], [9.0254697, 59.7227586], [9.0255532, 59.7230112], [9.0255985, 59.7231173], [9.0256587, 59.7232217], [9.0257751, 59.72341], [9.0260343, 59.7237465], [9.0262916, 59.7240892], [9.0264827, 59.7243119]]}, "properties": {"electrified": "contact_line", "frequency": "16.67", "gauge": "1435", "name": "Tinnosbanen", "railway": "rail", "service": "yard", "voltage": "15000", "length_km": 0.302}}, {"type": "Feature", "geometry": {"type": "LineString", "coordinates": [[9.1635214, 59.6764424], [9.1637513, 59.6763692], [9.1638744, 59.6763246]]}, "properties": {"electrified": "contact_line", "frequency": "16.67", "gauge": "1435", "name": "Tinnosbanen", "railway": "rail", "tunnel": "yes", "usage": "tourism", "voltage": "15000", "length_km": 0.024}}, {"type": "Feature", "geometry": {"type": "LineString", "coordinates": [[9.2001202, 59.6586402], [9.2010156, 59.6584416], [9.2013355, 59.6583646], [9.2017331, 59.6582636], [9.2021235, 59.6581579], [9.2024326, 59.6580697], [9.2028141, 59.6579552], [9.2031729, 59.6578392]]}, "properties": {"electrified": "contact_line", "frequency": "16.67", "gauge": "1435", "name": "Tinnosbanen", "railway": "rail", "tunnel": "yes", "usage": "tourism", "voltage": "15000", "length_km": 0.194}}, {"type": "Feature", "geometry": {"type": "LineString", "coordinates": [[9.0258566, 59.7240914], [9.0263609, 59.7247513]]}, "properties": {"electrified": "contact_line", "frequency": "16.67", "gauge": "1435", "name": "Tinnosbanen", "railway": "rail", "service": "yard", "voltage": "15000", "length_km": 0.079}}, {"type": "Feature", "geometry": {"type": "LineString", "coordinates": [[9.0258982, 59.7238067], [9.0259599, 59.7238949], [9.0260162, 59.7239865], [9.0261661, 59.7243023], [9.0262274, 59.7244331], [9.0262737, 59.7245173], [9.0263002, 59.7245604]]}, "properties": {"electrified": "contact_line", "frequency": "16.67", "gauge": "1435", "name": "Tinnosbanen", "railway": "rail", "service": "siding", "voltage": "15000", "length_km": 0.087}}, {"type": "Feature", "geometry": {"type": "LineString", "coordinates": [[9.1638744, 59.6763246], [9.1639864, 59.676283], [9.1641232, 59.6762271], [9.164275, 59.6761532], [9.1646639, 59.675935], [9.1649416, 59.6757418], [9.1651761, 59.6754894], [9.1653922, 59.6751217], [9.1662377, 59.6734015], [9.1666521, 59.672578], [9.1668611, 59.6721767], [9.1671882, 59.6716344], [9.1674783, 59.6712885], [9.1677867, 59.6710028], [9.1682683, 59.6705841], [9.1687991, 59.6702226], [9.1694719, 59.6698361], [9.1701631, 59.6695182], [9.1710272, 59.6691535], [9.172743, 59.6685146], [9.1733047, 59.6682683], [9.1736194, 59.6680564], [9.173891, 59.6678008], [9.1741811, 59.6674205], [9.1743477, 59.6671525], [9.1746317, 59.6668626], [9.1749526, 59.6666288], [9.1753476, 59.66642], [9.1758105, 59.6662579], [9.176545, 59.6660802], [9.1804841, 59.6652845], [9.1826398, 59.6648474], [9.1843742, 59.6644016], [9.1855222, 59.6640681], [9.1864048, 59.6637719], [9.1872997, 59.6634072], [9.1883181, 59.6629302], [9.1911819, 59.6615024], [9.1920583, 59.6611096], [9.1929286, 59.6607947], [9.1941506, 59.6604082], [9.1964343, 59.6597004], [9.2001202, 59.6586402]]}, "properties": {"electrified": "contact_line", "frequency": "16.67", "gauge": "1435", "name": "Tinnosbanen", "railway": "rail", "usage": "tourism", "voltage": "15000", "length_km": 2.982}}, {"type": "Feature", "geometry": {"type": "LineString", "coordinates": [[9.2077315, 59.6563428], [9.2084573, 59.6560837], [9.2090403, 59.6558361], [9.2097782, 59.6554695], [9.210383, 59.6550859], [9.2109076, 59.6546338], [9.211531, 59.6539824], [9.2115648, 59.6539464], [9.2123827, 59.653031], [9.2126433, 59.6527378], [9.2136344, 59.651629], [9.2149206, 59.6501889], [9.215765, 59.6492296], [9.2165242, 59.6481879], [9.2168328, 59.6476733], [9.2170488, 59.6471244], [9.2171846, 59.6465194], [9.2173327, 59.6457677], [9.2174314, 59.6454215], [9.2175919, 59.6450441], [9.2177925, 59.64474], [9.2180521, 59.6444062], [9.2185949, 59.6437652], [9.2193849, 59.6428326], [9.2198354, 59.6423117], [9.2202551, 59.6418999], [9.220644, 59.6415693], [9.221113, 59.6412261], [9.2216619, 59.640867], [9.2228165, 59.6402872], [9.2240941, 59.6397787], [9.2255939, 59.639186], [9.2262111, 59.638927], [9.2267604, 59.6386556], [9.2272172, 59.6383437], [9.2277233, 59.6378976], [9.2282849, 59.6373173], [9.2286552, 59.6368774], [9.2289206, 59.6364749], [9.2291181, 59.6360069], [9.2292848, 59.6355889], [9.2294391, 59.6353611], [9.2296551, 59.6351677], [9.2301118, 59.6348494], [9.2304513, 59.6345998], [9.2307105, 59.6343783], [9.2309204, 59.63411], [9.2310253, 59.6338323], [9.2310808, 59.6334329], [9.2311796, 59.633046], [9.2313092, 59.6327777], [9.2316396, 59.6323749], [9.2319634, 59.6320912], [9.2323029, 59.6317106], [9.2325868, 59.63128], [9.2329201, 59.6306871], [9.2333089, 59.6300661], [9.2336978, 59.6295294], [9.2338953, 59.6291581], [9.2339676, 59.6288035], [9.2339632, 59.6285215], [9.2339014, 59.6280066], [9.2337487, 59.6272814], [9.2337163, 59.6271265], [9.2337348, 59.626802], [9.2338745, 59.6264496], [9.2340804, 59.6261872], [9.234352, 59.6259563], [9.23471, 59.6257503], [9.2353704, 59.625382], [9.2360184, 59.625073], [9.2364566, 59.6249201], [9.2370615, 59.6247672], [9.2375244, 59.6247017], [9.2382002, 59.6246595], [9.2386854, 59.6246686]]}, "properties": {"electrified": "contact_line", "frequency": "16.67", "gauge": "1435", "name": "Tinnosbanen", "railway": "rail", "usage": "tourism", "voltage": "15000", "length_km": 4.116}}, {"type": "Feature", "geometry": {"type": "LineString", "coordinates": [[9.2761277, 59.5972033], [9.2762207, 59.5969366], [9.2763556, 59.5966308], [9.2764227, 59.596409], [9.2764451, 59.5962748], [9.2764546, 59.5961402], [9.2764534, 59.5960994], [9.2764507, 59.5960054], [9.2764413, 59.5959172], [9.2762507, 59.5949929]]}, "properties": {"electrified": "contact_line", "frequency": "16.67", "gauge": "1435", "name": "Tinnosbanen", "railway": "rail", "tunnel": "yes", "usage": "tourism", "voltage": "15000", "length_km": 0.249}}, {"type": "Feature", "geometry": {"type": "LineString", "coordinates": [[9.2762507, 59.5949929], [9.2761557, 59.5945171], [9.2760267, 59.5940355], [9.2757888, 59.5933581], [9.2751357, 59.5920317], [9.2746438, 59.5909094], [9.2743294, 59.5903666], [9.2740068, 59.5899013], [9.2726119, 59.5883666], [9.2718277, 59.5875838], [9.2707896, 59.58664]]}, "properties": {"electrified": "contact_line", "frequency": "16.67", "gauge": "1435", "name": "Tinnosbanen", "railway": "rail", "usage": "tourism", "voltage": "15000", "length_km": 0.99}}, {"type": "Feature", "geometry": {"type": "LineString", "coordinates": [[9.2786917, 59.6171241], [9.2787644, 59.6170994]]}, "properties": {"electrified": "contact_line", "frequency": "16.67", "gauge": "1435", "name": "Tinnosbanen", "railway": "rail", "usage": "tourism", "voltage": "15000", "length_km": 0.005}}, {"type": "Feature", "geometry": {"type": "LineString", "coordinates": [[9.207026, 59.6565722], [9.2077315, 59.6563428]]}, "properties": {"electrified": "contact_line", "frequency": "16.67", "gauge": "1435", "name": "Tinnosbanen", "railway": "rail", "tunnel": "yes", "usage": "tourism", "voltage": "15000", "length_km": 0.047}}, {"type": "Feature", "geometry": {"type": "LineString", "coordinates": [[9.2031729, 59.6578392], [9.207026, 59.6565722]]}, "properties": {"electrified": "contact_line", "frequency": "16.67", "gauge": "1435", "name": "Tinnosbanen", "railway": "rail", "usage": "tourism", "voltage": "15000", "length_km": 0.259}}, {"type": "Feature", "geometry": {"type": "LineString", "coordinates": [[9.1348115, 59.6856166], [9.1348995, 59.685609]]}, "properties": {"bridge": "yes", "electrified": "contact_line", "frequency": "16.67", "gauge": "1435", "name": "Tinnosbanen", "railway": "rail", "usage": "tourism", "voltage": "15000", "length_km": 0.005}}, {"type": "Feature", "geometry": {"type": "LineString", "coordinates": [[9.113475, 59.6867942], [9.1140349, 59.6865845], [9.1144916, 59.6864599], [9.1149977, 59.686382], [9.1155162, 59.6863477], [9.116047, 59.6863602], [9.1169666, 59.6864443], [9.1179603, 59.6865408], [9.1183985, 59.6865564], [9.1188799, 59.6865284], [9.1236817, 59.6860424], [9.1251692, 59.6859396], [9.1268418, 59.6858493], [9.1285268, 59.685787], [9.1330508, 59.6857215], [9.1339088, 59.6856857], [9.1348115, 59.6856166]]}, "properties": {"electrified": "contact_line", "frequency": "16.67", "gauge": "1435", "name": "Tinnosbanen", "railway": "rail", "usage": "tourism", "voltage": "15000", "length_km": 1.226}}, {"type": "Feature", "geometry": {"type": "LineString", "coordinates": [[9.1021796, 59.6918111], [9.1022217, 59.6917833], [9.1024932, 59.6916338], [9.1028018, 59.6913659], [9.1033396, 59.6906434], [9.103598, 59.6903474], [9.1039807, 59.6900328], [9.1043695, 59.6897743], [9.1048077, 59.6895749], [9.1053632, 59.6893662], [9.1089492, 59.6883757], [9.1107822, 59.6877931], [9.1126764, 59.6871006]]}, "properties": {"electrified": "contact_line", "frequency": "16.67", "gauge": "1435", "name": "Tinnosbanen", "railway": "rail", "usage": "tourism", "voltage": "15000", "length_km": 0.817}}, {"type": "Feature", "geometry": {"type": "LineString", "coordinates": [[9.1021118, 59.6918463], [9.1021796, 59.6918111]]}, "properties": {"bridge": "yes", "electrified": "contact_line", "frequency": "16.67", "gauge": "1435", "name": "Tinnosbanen", "railway": "rail", "usage": "tourism", "voltage": "15000", "length_km": 0.005}}, {"type": "Feature", "geometry": {"type": "LineString", "coordinates": [[9.088055, 59.693903], [9.0881429, 59.6938956]]}, "properties": {"bridge": "yes", "electrified": "contact_line", "frequency": "16.67", "gauge": "1435", "name": "Tinnosbanen", "railway": "rail", "usage": "tourism", "voltage": "15000", "length_km": 0.005}}, {"type": "Feature", "geometry": {"type": "LineString", "coordinates": [[9.056987, 59.6950661], [9.0575795, 59.695172], [9.0583696, 59.6952529], [9.0592645, 59.6952996], [9.0601533, 59.695281], [9.0610606, 59.695172], [9.0618876, 59.6950287], [9.06635, 59.6938857], [9.0677263, 59.6935742], [9.068936, 59.6933375], [9.0702383, 59.6931382], [9.0714048, 59.6929825], [9.0724603, 59.692861], [9.0738922, 59.6927458], [9.0751266, 59.6927395], [9.0795395, 59.6928766], [9.080669, 59.6929482], [9.0822604, 59.6931185], [9.0834526, 59.6932877], [9.0850184, 59.6935775], [9.0859696, 59.6937575], [9.0865263, 59.6938483], [9.0869803, 59.6939041], [9.0874776, 59.6939242], [9.087873, 59.6939147], [9.088055, 59.693903]]}, "properties": {"electrified": "contact_line", "frequency": "16.67", "gauge": "1435", "name": "Tinnosbanen", "railway": "rail", "usage": "tourism", "voltage": "15000", "length_km": 1.827}}, {"type": "Feature", "geometry": {"type": "LineString", "coordinates": [[9.019593, 59.7002845], [9.0197802, 59.700113], [9.0199699, 59.6999661]]}, "properties": {"electrified": "contact_line", "frequency": "16.67", "gauge": "1435", "maxspeed": "55", "name": "Tinnosbanen", "railway": "rail", "usage": "tourism", "voltage": "15000", "length_km": 0.041, "maxspeed_kmh": 55.0}}, {"type": "Feature", "geometry": {"type": "LineString", "coordinates": [[9.0199699, 59.6999661], [9.0200181, 59.699935]]}, "properties": {"bridge": "yes", "electrified": "contact_line", "frequency": "16.67", "gauge": "1435", "maxspeed": "55", "name": "Tinnosbanen", "railway": "rail", "usage": "tourism", "voltage": "15000", "length_km": 0.004, "maxspeed_kmh": 55.0}}, {"type": "Feature", "geometry": {"type": "LineString", "coordinates": [[9.0252645, 59.7210671], [9.0253027, 59.7204606], [9.0252961, 59.7201149], [9.0252257, 59.7195874], [9.0251027, 59.7190799], [9.0250148, 59.7188073], [9.0248697, 59.7185768], [9.0245533, 59.7182134], [9.0242325, 59.7178455], [9.0239732, 59.7174466], [9.0238017, 59.7170942], [9.0230106, 59.7151238], [9.0228085, 59.7146872], [9.0225404, 59.7142505], [9.0218459, 59.7134038], [9.0206461, 59.7119608], [9.0203033, 59.7115529], [9.0201362, 59.711267], [9.0200396, 59.7109877], [9.0199473, 59.7105754], [9.0198638, 59.7101209], [9.0196308, 59.7094869], [9.019477, 59.70913], [9.019244, 59.7087066], [9.0189584, 59.7083563], [9.0186419, 59.7080837], [9.0179255, 59.7075538], [9.0176223, 59.7072745], [9.017319, 59.7069419], [9.0169938, 59.7064919], [9.0167784, 59.7060396], [9.016607, 59.7055829], [9.0164664, 59.7050863], [9.0164048, 59.7045808], [9.0163697, 59.7041795], [9.0164224, 59.7037671], [9.0165411, 59.70347], [9.0167389, 59.7031574], [9.0170289, 59.7028425], [9.0180625, 59.7018102], [9.0185628, 59.7013104], [9.0193935, 59.7004766], [9.019593, 59.7002845]]}, "properties": {"electrified": "contact_line", "frequency": "16.67", "gauge": "1435", "maxspeed": "60", "name": "Tinnosbanen", "railway": "rail", "voltage": "15000", "length_km": 2.446, "maxspeed_kmh": 60.0}}, {"type": "Feature", "geometry": {"type": "LineString", "coordinates": [[9.0261986, 59.724439], [9.0257242, 59.7238074], [9.0254664, 59.7234699], [9.0253304, 59.7232834], [9.0252645, 59.7231714], [9.0252082, 59.7230433], [9.0251378, 59.7227863], [9.0250983, 59.7226267], [9.0250895, 59.7224018], [9.0251291, 59.7220517], [9.0252291, 59.7213277], [9.0252593, 59.7211009], [9.0252645, 59.7210671]]}, "properties": {"electrified": "contact_line", "frequency": "16.67", "gauge": "1435", "name": "Tinnosbanen", "railway": "rail", "voltage": "15000", "length_km": 0.387}}, {"type": "Feature", "geometry": {"type": "LineString", "coordinates": [[9.0269329, 59.7253973], [9.0267433, 59.7251457]]}, "properties": {"bridge": "yes", "electrified": "contact_line", "frequency": "16.67", "gauge": "1435", "name": "Tinnosbanen", "railway": "rail", "usage": "tourism", "voltage": "15000", "length_km": 0.03}}, {"type": "Feature", "geometry": {"type": "LineString", "coordinates": [[9.0252907, 59.7220651], [9.0252873, 59.7221629], [9.0252934, 59.722262], [9.0253225, 59.7224415], [9.025395, 59.722763], [9.0254719, 59.7230234], [9.0255173, 59.7231315], [9.025573, 59.7232372], [9.0257054, 59.7234255], [9.0262058, 59.7240947], [9.0264388, 59.7243551], [9.0267855, 59.7246581]]}, "properties": {"electrified": "contact_line", "frequency": "16.67", "gauge": "1435", "name": "Tinnosbanen", "railway": "rail", "service": "yard", "voltage": "15000", "length_km": 0.305}}, {"type": "Feature", "geometry": {"type": "LineString", "coordinates": [[9.2637457, 59.5627452], [9.2637183, 59.5628045], [9.2637051, 59.5628953], [9.2636997, 59.5630696], [9.263726, 59.5632278], [9.2637714, 59.5633619], [9.263817, 59.5634526], [9.2638805, 59.5635618], [9.2639228, 59.5636307]]}, "properties": {"electrified": "contact_line", "frequency": "16.67", "gauge": "1435", "maxspeed": "50", "name": "Tinnosbanen", "railway": "rail", "usage": "tourism", "voltage": "15000", "length_km": 0.1, "maxspeed_kmh": 50.0}}, {"type": "Feature", "geometry": {"type": "LineString", "coordinates": [[9.0267433, 59.7251457], [9.0266651, 59.725042], [9.0264761, 59.7247894], [9.0263002, 59.7245604], [9.0261986, 59.724439]]}, "properties": {"electrified": "contact_line", "frequency": "16.67", "gauge": "1435", "name": "Tinnosbanen", "railway": "rail", "usage": "tourism", "voltage": "15000", "length_km": 0.085}}, {"type": "Feature", "geometry": {"type": "LineString", "coordinates": [[9.0252593, 59.7211009], [9.0252518, 59.7211834], [9.0252572, 59.7212622], [9.0252795, 59.7214274], [9.0253115, 59.7216982]]}, "properties": {"electrified": "contact_line", "frequency": "16.67", "gauge": "1435", "name": "Tinnosbanen", "railway": "rail", "service": "siding", "voltage": "15000", "length_km": 0.067}}, {"type": "Feature", "geometry": {"type": "LineString", "coordinates": [[9.0253115, 59.7216982], [9.0252907, 59.7220651]]}, "properties": {"electrified": "contact_line", "frequency": "16.67", "gauge": "1435", "name": "Tinnosbanen", "railway": "rail", "service": "siding", "voltage": "15000", "length_km": 0.041}}, {"type": "Feature", "geometry": {"type": "LineString", "coordinates": [[9.0258982, 59.7238067], [9.0266375, 59.7247733], [9.0267926, 59.7249854]]}, "properties": {"electrified": "contact_line", "frequency": "16.67", "gauge": "1435", "name": "Tinnosbanen", "railway": "rail", "service": "yard", "voltage": "15000", "length_km": 0.141}}, {"type": "Feature", "geometry": {"type": "LineString", "coordinates": [[9.2668733, 59.5595267], [9.266793, 59.5595832], [9.2667219, 59.5596382], [9.2666334, 59.5597144], [9.2665739, 59.5597714], [9.2664182, 59.5599234], [9.2663106, 59.5600179], [9.2663081, 59.5600208]]}, "properties": {"electrified": "contact_line", "frequency": "16.67", "gauge": "1435", "maxspeed": "40", "name": "Tinnosbanen", "railway": "rail", "service": "siding", "voltage": "15000", "length_km": 0.064, "maxspeed_kmh": 40.0}}, {"type": "Feature", "geometry": {"type": "LineString", "coordinates": [[9.2663081, 59.5600208], [9.2661739, 59.5601758]]}, "properties": {"electrified": "contact_line", "frequency": "16.67", "gauge": "1435", "maxspeed": "40", "name": "Tinnosbanen", "railway": "rail", "service": "siding", "voltage": "15000", "length_km": 0.019, "maxspeed_kmh": 40.0}}, {"type": "Feature", "geometry": {"type": "LineString", "coordinates": [[9.2666816, 59.5595825], [9.2667911, 59.5594824], [9.2669374, 59.5593668], [9.2670093, 59.5593184], [9.2670413, 59.5592958], [9.2671762, 59.5592094], [9.2672885, 59.5591447], [9.2674348, 59.5590657], [9.267633, 59.5589606], [9.2678566, 59.5588451], [9.268177, 59.5586773], [9.2686881, 59.5584129], [9.269256, 59.5581161], [9.2694259, 59.5580253], [9.2696534, 59.5579072], [9.2699697, 59.557743], [9.2703883, 59.5575171], [9.2708229, 59.5573213]]}, "properties": {"electrified": "contact_line", "frequency": "16.67", "gauge": "1435", "maxspeed": "40", "name": "Tinnosbanen", "railway": "rail", "usage": "branch", "voltage": "15000", "length_km": 0.345, "maxspeed_kmh": 40.0}}, {"type": "Feature", "geometry": {"type": "LineString", "coordinates": [[9.2662731, 59.5600362], [9.2663785, 59.5599006], [9.2665087, 59.5597536], [9.2666153, 59.5596405], [9.2666816, 59.5595825]]}, "properties": {"electrified": "contact_line", "frequency": "16.67", "gauge": "1435", "maxspeed": "40", "name": "Tinnosbanen", "railway": "rail", "usage": "branch", "voltage": "15000", "length_km": 0.056, "maxspeed_kmh": 40.0}}, {"type": "Feature", "geometry": {"type": "LineString", "coordinates": [[9.2673136, 59.5592496], [9.2671663, 59.5593359], [9.2670239, 59.5594234], [9.2668926, 59.5595114], [9.2668733, 59.5595267]]}, "properties": {"electrified": "contact_line", "frequency": "16.67", "gauge": "1435", "maxspeed": "40", "name": "Tinnosbanen", "railway": "rail", "service": "siding", "voltage": "15000", "length_km": 0.04, "maxspeed_kmh": 40.0}}, {"type": "Feature", "geometry": {"type": "LineString", "coordinates": [[9.265919, 59.5764633], [9.265902, 59.5765175], [9.2657722, 59.5767627], [9.2656108, 59.5769794], [9.2652846, 59.5773898], [9.265067, 59.5776971], [9.2647127, 59.5782514], [9.2643794, 59.5787968], [9.2642285, 59.5790828], [9.2641268, 59.5793724], [9.2640952, 59.5795713], [9.2640777, 59.5798857], [9.2641303, 59.5802073], [9.2642461, 59.5804933], [9.264439, 59.5808201], [9.2646799, 59.5811258], [9.2650144, 59.5814099], [9.2653898, 59.5816639], [9.2662985, 59.5821861], [9.2677088, 59.5830281], [9.2681263, 59.5833851], [9.2682034, 59.5834574], [9.2692315, 59.5844224], [9.2694946, 59.5847368], [9.2697121, 59.5850778], [9.2699507, 59.5855343], [9.2701717, 59.5858877], [9.2704629, 59.5862713], [9.2707896, 59.58664]]}, "properties": {"electrified": "contact_line", "frequency": "16.67", "gauge": "1435", "maxspeed": "70", "name": "Tinnosbanen", "railway": "rail", "usage": "tourism", "voltage": "15000", "length_km": 1.255, "maxspeed_kmh": 70.0}}]}