{"type": "FeatureCollection", "features": [{"type": "Feature", "geometry": {"type": "LineString", "coordinates": [[9.0598047, 58.8973203], [9.0596826, 58.8972116], [9.0595928, 58.8971291], [9.059523, 58.8970439], [9.0594144, 58.8968971], [9.0593058, 58.8967107], [9.0592039, 58.8964786], [9.0591381, 58.8962825], [9.059106, 58.8961461], [9.0590778, 58.8959452], [9.0590832, 58.8957359], [9.0591261, 58.8955101], [9.0592065, 58.8953008], [9.0593085, 58.8951304], [9.0594694, 58.8949281], [9.0595968, 58.8947798]]}, "properties": {"electrified": "contact_line", "frequency": "16.67", "gauge": "1435", "maxspeed": "85", "name": "Tjennebakken (349 m)", "operator": "Bane NOR", "passenger_lines": "1", "railway": "rail", "tunnel": "yes", "usage": "main", "voltage": "15000", "length_km": 0.295, "maxspeed_kmh": 85.0}}]}