{"type": "FeatureCollection", "features": [{"type": "Feature", "geometry": {"type": "LineString", "coordinates": [[11.122887, 59.2864428], [11.1230484, 59.2864835], [11.1231811, 59.2865197], [11.1232422, 59.2865364], [11.1234201, 59.2865897], [11.1237605, 59.2866854], [11.1262147, 59.2872046], [11.1288004, 59.2877608], [11.1295514, 59.2879416], [11.1299886, 59.2880114], [11.1303588, 59.2880443], [11.130627, 59.2880443], [11.1307689, 59.2880369]]}, "properties": {"name": "T\u00f8mmerspor", "railway": "rail", "service": "spur", "length_km": 0.486}}, {"type": "Feature", "geometry": {"type": "LineString", "coordinates": [[11.1182671, 59.2865516], [11.1184381, 59.2864933], [11.1185883, 59.2864474], [11.1190166, 59.2863246], [11.1192456, 59.286261], [11.1194905, 59.2862004], [11.1197067, 59.2861607], [11.1199525, 59.2861305], [11.1201865, 59.2861168], [11.1204239, 59.2861128], [11.1207449, 59.2861269], [11.1209508, 59.2861464], [11.1211567, 59.2861711], [11.1224194, 59.2863599], [11.1225845, 59.2863875], [11.1227036, 59.2864085], [11.1228544, 59.2864366], [11.122887, 59.2864428]]}, "properties": {"electrified": "contact_line", "frequency": "16.67", "gauge": "1435", "name": "T\u00f8mmerspor", "railway": "rail", "service": "spur", "voltage": "15000", "length_km": 0.28}}, {"type": "Feature", "geometry": {"type": "LineString", "coordinates": [[11.122887, 59.2864428], [11.1231919, 59.2865055], [11.1232578, 59.2865204], [11.1238678, 59.2866594], [11.1277838, 59.2874936], [11.1289318, 59.2877347], [11.1297069, 59.2879038], [11.1300145, 59.2879476], [11.1302921, 59.2879796], [11.1306027, 59.2879987], [11.1309433, 59.2880078], [11.1311357, 59.288004]]}, "properties": {"electrified": "contact_line", "frequency": "16.67", "gauge": "1435", "name": "T\u00f8mmerspor", "railway": "rail", "service": "spur", "voltage": "15000", "length_km": 0.504}}]}