{"type": "FeatureCollection", "features": [{"type": "Feature", "geometry": {"type": "LineString", "coordinates": [[8.6273455, 58.6585711], [8.6281642, 58.6582994]]}, "properties": {"electrified": "contact_line", "frequency": "16.67", "gauge": "1435", "maxspeed": "40", "name": "Treungenbanen", "railway": "rail", "service": "crossover", "voltage": "15000", "length_km": 0.056, "maxspeed_kmh": 40.0}}, {"type": "Feature", "geometry": {"type": "LineString", "coordinates": [[8.6188297, 58.7050475], [8.6184433, 58.7051082], [8.6180972, 58.7051367], [8.6177753, 58.7051553], [8.6174253, 58.7051534], [8.6170902, 58.705147], [8.6167172, 58.7051165], [8.6163433, 58.7050698], [8.6159702, 58.7050029], [8.6155976, 58.7049182], [8.614505, 58.7046136], [8.6142723, 58.7045606], [8.6140464, 58.7045166], [8.6137238, 58.7044679], [8.6134216, 58.704434], [8.6131351, 58.7044108], [8.6128548, 58.7043979], [8.6125074, 58.7043996], [8.6121812, 58.7044101], [8.6119375, 58.7044289], [8.6117132, 58.7044498], [8.6114158, 58.7044923], [8.6111583, 58.7045358], [8.6108445, 58.7046045], [8.6105621, 58.7046816], [8.6103322, 58.7047535], [8.6101195, 58.7048263], [8.6098225, 58.7049528], [8.6095515, 58.7050837], [8.6093102, 58.7052272], [8.6090934, 58.705372], [8.6087953, 58.7056348], [8.6086491, 58.7058089], [8.6085095, 58.7059933], [8.6083915, 58.7061786], [8.6082602, 58.7063528], [8.6081032, 58.7065324], [8.6079223, 58.7066944], [8.6076027, 58.706926], [8.6073253, 58.7070869], [8.6070449, 58.7072181], [8.6067514, 58.7073373], [8.6064614, 58.7074315], [8.606215, 58.7075044], [8.6059718, 58.7075644], [8.6054598, 58.7076649], [8.6046062, 58.7078028], [8.6037979, 58.7078977], [8.6028895, 58.7080047], [8.6024696, 58.7080491], [8.602251, 58.7080805], [8.6020367, 58.7081122], [8.6015571, 58.7081892], [8.6011086, 58.7082486], [8.6006762, 58.7082923], [8.600316, 58.7083171], [8.6000035, 58.7083339], [8.5995896, 58.7083777], [8.5990908, 58.7084536]]}, "properties": {"electrified": "no", "gauge": "1435", "maxspeed": "30", "name": "Treungenbanen", "railway": "rail", "length_km": 1.345, "maxspeed_kmh": 30.0}}, {"type": "Feature", "geometry": {"type": "LineString", "coordinates": [[8.6194813, 58.6702579], [8.6192455, 58.6702443]]}, "properties": {"bridge": "yes", "electrified": "no", "gauge": "1435", "maxspeed": "30", "name": "Treungenbanen", "railway": "rail", "length_km": 0.014, "maxspeed_kmh": 30.0}}, {"type": "Feature", "geometry": {"type": "LineString", "coordinates": [[8.6215511, 58.7037158], [8.6214457, 58.7038411]]}, "properties": {"bridge": "yes", "electrified": "no", "gauge": "1435", "maxspeed": "30", "name": "Treungenbanen", "railway": "rail", "length_km": 0.015, "maxspeed_kmh": 30.0}}, {"type": "Feature", "geometry": {"type": "LineString", "coordinates": [[8.624495, 58.6684942], [8.6243855, 58.66869], [8.6242575, 58.6688664], [8.6240703, 58.6690674], [8.6238465, 58.6692584], [8.6236331, 58.6694118], [8.623415, 58.6695423], [8.6231785, 58.6696643], [8.6229014, 58.6697801], [8.6226314, 58.6698797], [8.6223361, 58.6699706], [8.6220025, 58.6700599], [8.6216778, 58.6701275], [8.6212541, 58.6701945], [8.6208468, 58.6702388], [8.6205219, 58.6702642], [8.6201972, 58.6702771], [8.6198299, 58.6702768], [8.6194813, 58.6702579]]}, "properties": {"electrified": "no", "gauge": "1435", "maxspeed": "30", "name": "Treungenbanen", "railway": "rail", "length_km": 0.385, "maxspeed_kmh": 30.0}}, {"type": "Feature", "geometry": {"type": "LineString", "coordinates": [[8.6050501, 58.682438], [8.6044239, 58.6829188], [8.6041738, 58.6831212], [8.6039548, 58.6833281], [8.6036604, 58.6836752], [8.6034908, 58.6839565], [8.6033933, 58.6842037], [8.6033267, 58.6844532], [8.6033101, 58.6847175], [8.6033207, 58.6849641], [8.6033624, 58.685158], [8.6034127, 58.6853411], [8.6035167, 58.6855741], [8.6036515, 58.6857906], [8.6038131, 58.6860181], [8.6039849, 58.686232], [8.6044715, 58.6868301], [8.6049743, 58.6874214], [8.6056966, 58.6882346], [8.6059052, 58.6884436], [8.6061208, 58.6886375], [8.6063544, 58.6888241], [8.6065959, 58.6889949], [8.6072449, 58.6893946], [8.6079034, 58.6897746], [8.6082454, 58.6899713], [8.6085803, 58.6901783], [8.6088382, 58.6903785], [8.6090031, 58.6905198], [8.6091565, 58.6906679], [8.6093277, 58.6908606], [8.6094811, 58.6910604], [8.6096106, 58.6912759], [8.6097096, 58.6914947], [8.6099063, 58.6920357], [8.6099875, 58.6922042], [8.6100857, 58.6923653], [8.6102235, 58.692554], [8.6103726, 58.6927348], [8.6107425, 58.6930924], [8.6111266, 58.6934482], [8.6113045, 58.6936502], [8.6114678, 58.6938573], [8.6116116, 58.694083], [8.6117309, 58.6943169], [8.6119327, 58.6947853], [8.6120287, 58.6949638], [8.6121321, 58.6951274], [8.6122848, 58.6953303], [8.6124554, 58.6955209], [8.6128455, 58.6958812], [8.613127, 58.6960919], [8.6134367, 58.6962886], [8.6137721, 58.6964786], [8.614133, 58.6966537], [8.6146183, 58.6968521], [8.6151348, 58.6970526], [8.6158709, 58.6973461], [8.6165964, 58.6976531]]}, "properties": {"electrified": "no", "gauge": "1435", "maxspeed": "30", "name": "Treungenbanen", "railway": "rail", "length_km": 1.957, "maxspeed_kmh": 30.0}}, {"type": "Feature", "geometry": {"type": "LineString", "coordinates": [[8.6266411, 58.6587899], [8.6255897, 58.6590609], [8.6253467, 58.6591309], [8.6251951, 58.6591802], [8.6250393, 58.6592366], [8.6247709, 58.6593501], [8.6245524, 58.6594597], [8.6243362, 58.6595886], [8.6241895, 58.659692], [8.6240188, 58.6598237], [8.6237474, 58.6600439], [8.6233995, 58.6603372], [8.6226356, 58.6610028], [8.6225184, 58.661105], [8.6219008, 58.6616679], [8.6215485, 58.6620321], [8.6213708, 58.6622985], [8.6212224, 58.6625696], [8.6211265, 58.6628863], [8.6210817, 58.6631878], [8.6210771, 58.663357], [8.6211044, 58.6635189], [8.62114, 58.6636959], [8.6212031, 58.663869], [8.6213332, 58.6641452], [8.6215874, 58.664532], [8.6224682, 58.6656815], [8.6228539, 58.6660493], [8.6232167, 58.6663259]]}, "properties": {"electrified": "no", "gauge": "1435", "maxspeed": "30", "name": "Treungenbanen", "railway": "rail", "length_km": 0.988, "maxspeed_kmh": 30.0}}, {"type": "Feature", "geometry": {"type": "LineString", "coordinates": [[8.6245249, 58.6684134], [8.624495, 58.6684942]]}, "properties": {"bridge": "yes", "electrified": "no", "gauge": "1435", "maxspeed": "30", "name": "Treungenbanen", "railway": "rail", "length_km": 0.009, "maxspeed_kmh": 30.0}}, {"type": "Feature", "geometry": {"type": "LineString", "coordinates": [[8.6241977, 58.6670546], [8.6243098, 58.6671967], [8.624395, 58.667333], [8.6244898, 58.6675034], [8.6245552, 58.6676867], [8.624587, 58.6678594], [8.6245961, 58.6680396], [8.6245684, 58.6682491], [8.6245249, 58.6684134]]}, "properties": {"electrified": "no", "gauge": "1435", "maxspeed": "30", "name": "Treungenbanen", "railway": "rail", "service": "spur", "length_km": 0.155, "maxspeed_kmh": 30.0}}, {"type": "Feature", "geometry": {"type": "LineString", "coordinates": [[8.6221487, 58.7021345], [8.6221042, 58.7023749], [8.6219856, 58.7027604], [8.6217914, 58.7032775], [8.6216859, 58.7035038], [8.6215511, 58.7037158]]}, "properties": {"electrified": "no", "gauge": "1435", "maxspeed": "30", "name": "Treungenbanen", "railway": "rail", "length_km": 0.18, "maxspeed_kmh": 30.0}}, {"type": "Feature", "geometry": {"type": "LineString", "coordinates": [[8.6165964, 58.6976531], [8.6171663, 58.6979138], [8.6176022, 58.6981283], [8.6180022, 58.6983367]]}, "properties": {"electrified": "no", "gauge": "1435", "maxspeed": "30", "name": "Treungenbanen", "railway": "rail", "length_km": 0.112, "maxspeed_kmh": 30.0}}, {"type": "Feature", "geometry": {"type": "LineString", "coordinates": [[8.6232167, 58.6663259], [8.6233665, 58.6664217], [8.6236379, 58.6665953], [8.6239292, 58.6668046], [8.6240651, 58.666923], [8.6241977, 58.6670546]]}, "properties": {"electrified": "no", "gauge": "1435", "maxspeed": "30", "name": "Treungenbanen", "railway": "rail", "length_km": 0.1, "maxspeed_kmh": 30.0}}, {"type": "Feature", "geometry": {"type": "LineString", "coordinates": [[8.6192455, 58.6702443], [8.618883, 58.670204], [8.6184957, 58.6701499], [8.6176545, 58.6699927], [8.6168323, 58.6698614], [8.6165629, 58.6698263], [8.6163102, 58.6698], [8.6160479, 58.6697821], [8.6158239, 58.669773], [8.6154521, 58.6697664], [8.6150407, 58.6697744], [8.614629, 58.6698083], [8.6141502, 58.6698644], [8.6137023, 58.6699369], [8.6133027, 58.6700234], [8.6129114, 58.6701278], [8.6125583, 58.6702444], [8.6122318, 58.6703629], [8.6111527, 58.6707593], [8.6106178, 58.6709497], [8.6100802, 58.6711266], [8.6088739, 58.6714909], [8.6077442, 58.6717936], [8.6068077, 58.6720145], [8.6058725, 58.6722178], [8.6049449, 58.672407], [8.6040315, 58.6726046], [8.6035381, 58.6727417], [8.6030868, 58.6728831], [8.6026731, 58.6730388], [8.6022881, 58.6731937], [8.6016585, 58.6734999], [8.6012809, 58.6737169], [8.6009629, 58.6739179], [8.6004175, 58.6743734], [8.6001946, 58.6745892], [8.6000342, 58.6747961], [8.5997151, 58.6752576], [8.5996154, 58.6754826], [8.599541, 58.6757032], [8.5995127, 58.6759847], [8.5995282, 58.6761554], [8.5995601, 58.6763069], [8.5996234, 58.6764754], [8.5997011, 58.6766333], [8.5998005, 58.6767815], [8.5999135, 58.6769141], [8.6001438, 58.677138], [8.6004565, 58.6773744], [8.6008401, 58.6775923], [8.6011054, 58.6777074], [8.6013645, 58.677805], [8.6024018, 58.6781795], [8.6029437, 58.6783923], [8.6035216, 58.6786829], [8.6038966, 58.6789011], [8.6041269, 58.6790564], [8.6043594, 58.6792215], [8.6045292, 58.679361], [8.6046805, 58.6795046], [8.6048631, 58.6796782], [8.6050254, 58.6798611], [8.6052011, 58.6800937], [8.6053607, 58.6803358], [8.6054733, 58.6805594], [8.6055668, 58.6807907], [8.6056235, 58.6810397], [8.6056465, 58.6812491]]}, "properties": {"electrified": "no", "gauge": "1435", "maxspeed": "30", "name": "Treungenbanen", "railway": "rail", "length_km": 2.169, "maxspeed_kmh": 30.0}}, {"type": "Feature", "geometry": {"type": "LineString", "coordinates": [[8.6056465, 58.6812491], [8.6056299, 58.6814944], [8.605588, 58.6816545], [8.6055037, 58.6818715], [8.6054183, 58.6820224], [8.6052889, 58.6821937], [8.6050501, 58.682438]]}, "properties": {"electrified": "no", "gauge": "1435", "maxspeed": "30", "name": "Treungenbanen", "railway": "rail", "service": "spur", "length_km": 0.139, "maxspeed_kmh": 30.0}}, {"type": "Feature", "geometry": {"type": "LineString", "coordinates": [[8.6214457, 58.7038411], [8.6212353, 58.7040506], [8.621062, 58.7041901], [8.6208853, 58.7043147], [8.6207025, 58.7044183], [8.6205326, 58.7045181], [8.620329, 58.7046151], [8.6200592, 58.704725], [8.6197951, 58.7048227], [8.6194745, 58.7049124], [8.6191867, 58.7049823], [8.6188297, 58.7050475]]}, "properties": {"electrified": "no", "gauge": "1435", "maxspeed": "30", "name": "Treungenbanen", "railway": "rail", "length_km": 0.209, "maxspeed_kmh": 30.0}}, {"type": "Feature", "geometry": {"type": "LineString", "coordinates": [[8.6192508, 58.699062], [8.6197226, 58.6993779], [8.6201934, 58.6997119], [8.6205004, 58.6999478], [8.620781, 58.7001815], [8.6210543, 58.7004139], [8.6211847, 58.7005278], [8.6216877, 58.7010144], [8.6218321, 58.7011775], [8.6219402, 58.7013407]]}, "properties": {"electrified": "no", "gauge": "1435", "maxspeed": "30", "name": "Treungenbanen", "railway": "rail", "length_km": 0.299, "maxspeed_kmh": 30.0}}, {"type": "Feature", "geometry": {"type": "LineString", "coordinates": [[8.6219402, 58.7013407], [8.6220373, 58.7015342], [8.6221068, 58.7017302], [8.62215, 58.7019321], [8.6221487, 58.7021345]]}, "properties": {"electrified": "no", "gauge": "1435", "maxspeed": "30", "name": "Treungenbanen", "railway": "rail", "length_km": 0.09, "maxspeed_kmh": 30.0}}, {"type": "Feature", "geometry": {"type": "LineString", "coordinates": [[8.6266411, 58.6587899], [8.6268253, 58.6587426]]}, "properties": {"electrified": "contact_line", "frequency": "16.67", "gauge": "1435", "name": "Treungenbanen", "railway": "rail", "service": "spur", "voltage": "15000", "length_km": 0.012}}, {"type": "Feature", "geometry": {"type": "LineString", "coordinates": [[8.6273455, 58.6585711], [8.6276982, 58.658431], [8.6280661, 58.6582848]]}, "properties": {"electrified": "contact_line", "frequency": "16.67", "gauge": "1435", "maxspeed": "40", "name": "Treungenbanen", "railway": "rail", "service": "crossover", "voltage": "15000", "length_km": 0.053, "maxspeed_kmh": 40.0}}, {"type": "Feature", "geometry": {"type": "LineString", "coordinates": [[8.6268253, 58.6587426], [8.6273455, 58.6585711]]}, "properties": {"electrified": "contact_line", "frequency": "16.67", "gauge": "1435", "maxspeed": "40", "name": "Treungenbanen", "railway": "rail", "service": "crossover", "voltage": "15000", "length_km": 0.036, "maxspeed_kmh": 40.0}}, {"type": "Feature", "geometry": {"type": "LineString", "coordinates": [[8.6184217, 58.6985718], [8.6188251, 58.6988217], [8.6192508, 58.699062]]}, "properties": {"electrified": "no", "gauge": "1435", "maxspeed": "30", "name": "Treungenbanen", "railway": "rail", "tunnel": "yes", "length_km": 0.073, "maxspeed_kmh": 30.0}}, {"type": "Feature", "geometry": {"type": "LineString", "coordinates": [[8.6180022, 58.6983367], [8.6180747, 58.6983794]]}, "properties": {"bridge": "yes", "electrified": "no", "gauge": "1435", "maxspeed": "30", "name": "Treungenbanen", "railway": "rail", "length_km": 0.006, "maxspeed_kmh": 30.0}}, {"type": "Feature", "geometry": {"type": "LineString", "coordinates": [[8.6180747, 58.6983794], [8.6184217, 58.6985718]]}, "properties": {"electrified": "no", "gauge": "1435", "maxspeed": "30", "name": "Treungenbanen", "railway": "rail", "length_km": 0.029, "maxspeed_kmh": 30.0}}]}