{"type": "FeatureCollection", "features": [{"type": "Feature", "geometry": {"type": "LineString", "coordinates": [[9.6138548, 59.6574917], [9.6135692, 59.6583873], [9.6134656, 59.658712], [9.6132304, 59.6590182], [9.6127572, 59.6596344], [9.6114868, 59.6612885], [9.610278, 59.6625587], [9.6084919, 59.6659218], [9.6082443, 59.6663881], [9.6081888, 59.6665054], [9.6077926, 59.6673435], [9.6071591, 59.6681262], [9.6071265, 59.6681664], [9.6071059, 59.6681919], [9.6070961, 59.668204], [9.6070333, 59.6682816], [9.6067107, 59.6686801], [9.6062392, 59.6696878], [9.605593, 59.670271], [9.6049514, 59.6709988], [9.6011177, 59.6753473]]}, "properties": {"name": "Underbergstollen", "railway": "narrow_gauge", "tunnel": "yes", "length_km": 2.125}}, {"type": "Feature", "geometry": {"type": "LineString", "coordinates": [[9.6011177, 59.6753473], [9.6074512, 59.6758104], [9.6130811, 59.6762649], [9.6190121, 59.6765377], [9.6240319, 59.6774583]]}, "properties": {"name": "Underbergstollen", "railway": "narrow_gauge", "tunnel": "yes", "length_km": 1.319}}, {"type": "Feature", "geometry": {"type": "LineString", "coordinates": [[9.6011177, 59.6753473], [9.6003802, 59.6766388], [9.5997866, 59.6776086], [9.597601, 59.679816], [9.5969012, 59.6804947], [9.5960309, 59.6820436], [9.5920492, 59.6875774]]}, "properties": {"name": "Underbergstollen", "railway": "narrow_gauge", "tunnel": "yes", "length_km": 1.46}}]}