{"type": "FeatureCollection", "features": [{"type": "Feature", "geometry": {"type": "LineString", "coordinates": [[11.2451866, 59.9866165], [11.2452882, 59.9866294], [11.2455197, 59.9866581], [11.2457066, 59.9866804], [11.2461246, 59.9867329], [11.2463865, 59.9867658], [11.2465803, 59.9867849], [11.246736, 59.9867944], [11.2469579, 59.9867965], [11.2475083, 59.9867985], [11.2477614, 59.9867975], [11.2479733, 59.9867889], [11.2481611, 59.9867759], [11.2483781, 59.9867533], [11.2486864, 59.9867075], [11.2489053, 59.9866694], [11.2491394, 59.9866176], [11.2493603, 59.9865618], [11.2495883, 59.9864925], [11.2498936, 59.9863855], [11.2501437, 59.9863011], [11.2503064, 59.9862408], [11.2504784, 59.9861669], [11.250599, 59.9861066], [11.2507316, 59.9860255], [11.2509532, 59.9858661], [11.2511287, 59.9857255], [11.2513208, 59.9855521], [11.2514412, 59.9854249], [11.2515678, 59.9852768], [11.2516562, 59.985155], [11.2518139, 59.984916], [11.252019, 59.9845994], [11.2521227, 59.9844335], [11.2521804, 59.9843529], [11.2522271, 59.9842994], [11.252279, 59.984246], [11.2523514, 59.9841899], [11.25243, 59.9841383], [11.2525097, 59.9840918], [11.2526156, 59.9840387], [11.2527146, 59.9839913], [11.2528329, 59.9839401], [11.2529498, 59.9838962], [11.2530771, 59.9838506], [11.2531752, 59.9838224], [11.2533397, 59.9837823], [11.2534989, 59.9837503], [11.2537368, 59.9837166]]}, "properties": {"electrified": "no", "gauge": "750", "name": "Urskog\u2013H\u00f8landsbanen", "railway": "narrow_gauge", "usage": "tourism", "length_km": 0.658}}, {"type": "Feature", "geometry": {"type": "LineString", "coordinates": [[11.2543325, 59.9836746], [11.2545416, 59.983677], [11.2547455, 59.9836823], [11.2549231, 59.9836933], [11.2551326, 59.9837101], [11.2554549, 59.9837414], [11.2558974, 59.9837869], [11.256328, 59.9838342], [11.2567231, 59.9838822], [11.2571098, 59.9839319], [11.2572832, 59.9839546], [11.2577175, 59.9840154], [11.2583974, 59.9841212], [11.2587349, 59.9841679], [11.2592369, 59.9842314], [11.2595658, 59.9842756], [11.2598706, 59.9843247], [11.260188, 59.9843843], [11.2604918, 59.9844483], [11.2607649, 59.9845065]]}, "properties": {"electrified": "no", "gauge": "750", "name": "Urskog\u2013H\u00f8landsbanen", "railway": "narrow_gauge", "usage": "tourism", "length_km": 0.372}}, {"type": "Feature", "geometry": {"type": "LineString", "coordinates": [[11.2828534, 59.9870342], [11.2828235, 59.9870837], [11.28279, 59.9871276], [11.2827236, 59.9872171], [11.2826601, 59.9873067], [11.2826086, 59.9874072], [11.2825467, 59.9875282], [11.2824484, 59.9876712], [11.2823245, 59.9878183], [11.282263, 59.9878927], [11.2822288, 59.9879386], [11.2821858, 59.9879872], [11.282139, 59.9880365]]}, "properties": {"electrified": "no", "gauge": "750", "name": "Urskog\u2013H\u00f8landsbanen", "railway": "narrow_gauge", "usage": "tourism", "length_km": 0.119}}, {"type": "Feature", "geometry": {"type": "LineString", "coordinates": [[11.2537368, 59.9837166], [11.2539165, 59.9836982], [11.2541329, 59.9836842], [11.2543325, 59.9836746]]}, "properties": {"electrified": "no", "gauge": "750", "name": "Urskog\u2013H\u00f8landsbanen", "railway": "narrow_gauge", "tunnel": "yes", "usage": "tourism", "length_km": 0.034}}, {"type": "Feature", "geometry": {"type": "LineString", "coordinates": [[11.272899, 59.990829], [11.2729266, 59.9908363], [11.2735105, 59.9910158], [11.274029, 59.9911779], [11.2742219, 59.9912408], [11.2744466, 59.9913151], [11.2746008, 59.9913754], [11.2747365, 59.9914278], [11.2748197, 59.9914651], [11.2749173, 59.9915092], [11.2750343, 59.9915738], [11.2751548, 59.9916485], [11.2752819, 59.9917397], [11.2753644, 59.9918028], [11.2754871, 59.9919137], [11.2755646, 59.9919999], [11.2756407, 59.9920939], [11.2756967, 59.9921775], [11.2758086, 59.9923466], [11.275889, 59.9924661], [11.2759694, 59.9925676], [11.2760375, 59.9926405], [11.2761086, 59.9927112], [11.2761832, 59.9927747], [11.2762464, 59.9928253], [11.2763188, 59.9928756], [11.2763949, 59.9929269], [11.2764882, 59.9929829], [11.2765922, 59.993041], [11.2766848, 59.9930884], [11.2767738, 59.9931318], [11.2768657, 59.9931713], [11.2769511, 59.9932043], [11.2770436, 59.9932384], [11.2771412, 59.993266], [11.2772438, 59.9932919], [11.2773472, 59.9933112], [11.2774642, 59.9933296], [11.2776091, 59.9933446], [11.2777433, 59.9933543], [11.2778977, 59.9933595], [11.2780133, 59.9933595], [11.2781317, 59.9933577], [11.2782727, 59.9933494], [11.2784063, 59.9933326], [11.2785106, 59.9933164], [11.278639, 59.9932924], [11.2787919, 59.9932536], [11.278939, 59.9932084], [11.2790847, 59.9931578], [11.2792512, 59.9930943], [11.2794284, 59.9930221], [11.2797392, 59.9928944], [11.2802276, 59.9926884], [11.2804036, 59.9926112], [11.2805899, 59.9925254], [11.2807659, 59.9924417], [11.280947, 59.9923508], [11.2810155, 59.9923122], [11.2811886, 59.9922061], [11.2813185, 59.9921122], [11.2814233, 59.992019], [11.2815055, 59.9919236], [11.2815839, 59.9918125], [11.2816607, 59.9916823], [11.2816889, 59.9914974], [11.2816768, 59.9912682], [11.2816286, 59.9911234], [11.2814865, 59.9909183], [11.2813633, 59.9907957], [11.2810912, 59.9905772], [11.2809318, 59.9904358], [11.2808112, 59.9903131], [11.2806838, 59.9901503], [11.2806155, 59.9900156], [11.2805847, 59.9898507], [11.2805812, 59.989749], [11.2805927, 59.9896483], [11.2806188, 59.9895384], [11.2806651, 59.9894292], [11.2807643, 59.9892696], [11.2808969, 59.9891208], [11.2819505, 59.9882109], [11.282139, 59.9880365]]}, "properties": {"electrified": "no", "gauge": "750", "name": "Urskog\u2013H\u00f8landsbanen", "railway": "narrow_gauge", "usage": "tourism", "length_km": 1.152}}, {"type": "Feature", "geometry": {"type": "LineString", "coordinates": [[11.2607649, 59.9845065], [11.2608496, 59.9845258]]}, "properties": {"bridge": "yes", "electrified": "no", "gauge": "750", "name": "Urskog\u2013H\u00f8landsbanen", "railway": "preserved", "usage": "tourism", "length_km": 0.005}}, {"type": "Feature", "geometry": {"type": "LineString", "coordinates": [[11.2608496, 59.9845258], [11.2612602, 59.9846186], [11.26154, 59.9846874], [11.2618006, 59.9847567], [11.2621603, 59.9848615], [11.2624795, 59.9849645], [11.2628161, 59.9850775], [11.263546, 59.9853488], [11.2641576, 59.9855831], [11.2649413, 59.9859188], [11.2653981, 59.986129], [11.26585, 59.9863561], [11.2663558, 59.986623], [11.2668838, 59.9869261], [11.2673221, 59.9872012], [11.2679703, 59.9876337], [11.2683193, 59.9879001], [11.2686829, 59.9881859], [11.2690599, 59.9885129], [11.2694272, 59.9888491], [11.2698263, 59.9892219], [11.2700382, 59.9894084], [11.2702215, 59.9895537], [11.2704119, 59.9896947], [11.270585, 59.9898106], [11.2708148, 59.9899472], [11.2710553, 59.9900785], [11.2710828, 59.9900921]]}, "properties": {"electrified": "no", "gauge": "750", "name": "Urskog\u2013H\u00f8landsbanen", "railway": "narrow_gauge", "usage": "tourism", "length_km": 0.858}}, {"type": "Feature", "geometry": {"type": "LineString", "coordinates": [[11.2728529, 59.9908134], [11.272899, 59.990829]]}, "properties": {"bridge": "yes", "electrified": "no", "gauge": "750", "name": "Urskog\u2013H\u00f8landsbanen", "railway": "narrow_gauge", "usage": "tourism", "length_km": 0.003}}, {"type": "Feature", "geometry": {"type": "LineString", "coordinates": [[11.2429399, 59.9863152], [11.2436591, 59.9864133], [11.2438353, 59.9864374], [11.2444007, 59.9865148], [11.2446874, 59.9865516], [11.2451866, 59.9866165]]}, "properties": {"electrified": "no", "gauge": "750", "name": "Urskog\u2013H\u00f8landsbanen", "railway": "narrow_gauge", "usage": "tourism", "length_km": 0.13}}, {"type": "Feature", "geometry": {"type": "LineString", "coordinates": [[11.2421623, 59.9862105], [11.2429399, 59.9863152]]}, "properties": {"electrified": "no", "gauge": "750", "name": "Urskog\u2013H\u00f8landsbanen", "railway": "narrow_gauge", "service": "spur", "length_km": 0.045}}, {"type": "Feature", "geometry": {"type": "LineString", "coordinates": [[11.2710828, 59.9900921], [11.2714319, 59.9902677], [11.2717836, 59.9904308], [11.2718388, 59.9904537], [11.2720126, 59.9905257], [11.2722553, 59.9906181], [11.2724666, 59.9906889], [11.2726976, 59.9907621]]}, "properties": {"electrified": "no", "gauge": "750", "name": "Urskog\u2013H\u00f8landsbanen", "railway": "narrow_gauge", "usage": "tourism", "length_km": 0.117}}, {"type": "Feature", "geometry": {"type": "LineString", "coordinates": [[11.2726976, 59.9907621], [11.2728529, 59.9908134]]}, "properties": {"electrified": "no", "gauge": "750", "name": "Urskog\u2013H\u00f8landsbanen", "railway": "narrow_gauge", "usage": "tourism", "length_km": 0.01}}, {"type": "Feature", "geometry": {"type": "LineString", "coordinates": [[11.2828534, 59.9870342], [11.2828824, 59.9869789], [11.2829449, 59.9868252]]}, "properties": {"electrified": "no", "gauge": "750", "name": "Urskog\u2013H\u00f8landsbanen", "railway": "narrow_gauge", "usage": "tourism", "length_km": 0.024}}]}