{"type": "FeatureCollection", "features": [{"type": "Feature", "geometry": {"type": "LineString", "coordinates": [[8.0861226, 58.4160435], [8.0858543, 58.4154479], [8.0855271, 58.4147118], [8.0850524, 58.4136722], [8.0848968, 58.4133294], [8.0847654, 58.4129767], [8.0846346, 58.4125328]]}, "properties": {"electrified": "no", "gauge": "1435", "name": "Vatnestr\u00f8m sidespor", "railway": "rail", "service": "spur", "length_km": 0.401}}, {"type": "Feature", "geometry": {"type": "LineString", "coordinates": [[8.0846346, 58.4125328], [8.0843825, 58.4116452], [8.0843374, 58.4114924], [8.084325, 58.411462], [8.0842665, 58.4113259], [8.0841699, 58.4111433], [8.0840693, 58.4109831], [8.0839071, 58.4107976], [8.0837139, 58.4105665], [8.0835681, 58.4104063], [8.083411, 58.4102411]]}, "properties": {"electrified": "contact_line", "frequency": "16.67", "gauge": "1435", "name": "Vatnestr\u00f8m sidespor", "railway": "rail", "service": "spur", "voltage": "15000", "length_km": 0.268}}]}