{"type": "FeatureCollection", "features": [{"type": "Feature", "geometry": {"type": "LineString", "coordinates": [[11.4748639, 63.7777683], [11.4748415, 63.7779595], [11.4748209, 63.7780375], [11.4747761, 63.7781703], [11.4747239, 63.7783684], [11.4746967, 63.7784569], [11.4745921, 63.7787414], [11.4742674, 63.7794672], [11.4742116, 63.7795865], [11.4741361, 63.7797167], [11.4740369, 63.779853], [11.4739215, 63.7799549], [11.4737633, 63.7800781], [11.4735407, 63.7802168], [11.4733475, 63.7803211], [11.4730364, 63.7804455], [11.4726904, 63.7805616], [11.4723404, 63.7806567], [11.4721759, 63.7806911], [11.4719808, 63.7807258], [11.4718649, 63.7807441], [11.4717407, 63.7807611], [11.4716603, 63.7807704], [11.4714845, 63.7807881], [11.4713234, 63.7807992], [11.471165, 63.7808079], [11.4710221, 63.7808137], [11.4708722, 63.7808183], [11.4699517, 63.7808408], [11.4690416, 63.7808628], [11.4687175, 63.7808745], [11.4684224, 63.7808934], [11.4681199, 63.7809228], [11.4678563, 63.7809561], [11.4675516, 63.7810077], [11.4672406, 63.7810746], [11.4669225, 63.7811604], [11.4666749, 63.7812365], [11.4664, 63.7813361], [11.4661707, 63.7814391], [11.465978, 63.7815398], [11.4658014, 63.7816466], [11.4653653, 63.7819315], [11.4646894, 63.7823735], [11.4643407, 63.782582], [11.4638901, 63.7828131], [11.4634234, 63.783056], [11.4632197, 63.7831634], [11.4630421, 63.7832588], [11.4629358, 63.7833251], [11.4628325, 63.7833893], [11.4627421, 63.7834517], [11.4624929, 63.783611], [11.4622773, 63.7837554], [11.4620328, 63.7839147], [11.4618715, 63.784012], [11.4617179, 63.7840991], [11.4615719, 63.7841706], [11.461438, 63.7842314], [11.4613057, 63.7842847], [11.4611443, 63.784347], [11.4609797, 63.7844005], [11.4608324, 63.784446], [11.4606473, 63.784498], [11.4602404, 63.7845889], [11.4600303, 63.7846248], [11.4598201, 63.7846578], [11.4596268, 63.7846799], [11.4594236, 63.7847006], [11.4591755, 63.7847186], [11.4589195, 63.7847285], [11.4586686, 63.7847333], [11.4583915, 63.784735], [11.4571644, 63.78474], [11.4569455, 63.7847397], [11.4566948, 63.7847416], [11.4560958, 63.7847473], [11.4539226, 63.784758], [11.4537192, 63.7847589], [11.4535157, 63.7847597], [11.4514656, 63.7847691], [11.4505618, 63.7847732], [11.4502794, 63.7847755], [11.4498409, 63.7847791], [11.44945, 63.7847803], [11.4484972, 63.7847831], [11.4472078, 63.7847797], [11.4470973, 63.7847802], [11.4460409, 63.7847848], [11.4452702, 63.7847886], [11.4418244, 63.7848108]]}, "properties": {"electrified": "no", "gauge": "1435", "maxspeed": "20", "name": "Verdal industrispor", "railway": "rail", "service": "spur", "length_km": 2.058, "maxspeed_kmh": 20.0}}, {"type": "Feature", "geometry": {"type": "LineString", "coordinates": [[11.4460409, 63.7847848], [11.4457543, 63.7847821], [11.4454885, 63.7847751], [11.4452715, 63.7847628], [11.4451283, 63.7847566], [11.4448714, 63.7847486], [11.4446233, 63.784745], [11.4439728, 63.7847475], [11.443427, 63.7847584], [11.4429811, 63.7847636]]}, "properties": {"electrified": "no", "gauge": "1435", "maxspeed": "20", "name": "Verdal industrispor", "railway": "rail", "service": "spur", "length_km": 0.151, "maxspeed_kmh": 20.0}}, {"type": "Feature", "geometry": {"type": "LineString", "coordinates": [[11.4505618, 63.7847732], [11.450867, 63.7847677], [11.4511053, 63.7847599], [11.4513484, 63.7847474], [11.4515496, 63.7847382], [11.4517006, 63.784734], [11.4518308, 63.7847323], [11.4535007, 63.7847223], [11.4537118, 63.7847201], [11.4539228, 63.7847179], [11.4550234, 63.7847122], [11.4551842, 63.7847157], [11.4553278, 63.7847219], [11.4556466, 63.7847356], [11.4557875, 63.7847402], [11.455926, 63.7847446], [11.4560958, 63.7847473]]}, "properties": {"electrified": "no", "gauge": "1435", "maxspeed": "20", "name": "Verdal industrispor", "railway": "rail", "service": "spur", "length_km": 0.273, "maxspeed_kmh": 20.0}}]}