{"type": "FeatureCollection", "features": [{"type": "Feature", "geometry": {"type": "LineString", "coordinates": [[10.2880814, 63.055728], [10.2876451, 63.0544788]]}, "properties": {"electrified": "contact_line", "name": "Verkstedspor", "railway": "rail", "ref": "12", "service": "workshop", "tunnel": "building_passage", "length_km": 0.141}}, {"type": "Feature", "geometry": {"type": "LineString", "coordinates": [[10.2878249, 63.0557467], [10.287407, 63.0544949]]}, "properties": {"electrified": "contact_line", "name": "Verkstedspor", "railway": "rail", "ref": "11", "service": "workshop", "tunnel": "building_passage", "length_km": 0.141}}]}