{"type": "FeatureCollection", "features": [{"type": "Feature", "geometry": {"type": "LineString", "coordinates": [[11.5468448, 60.8615904], [11.5469393, 60.8615132], [11.5470588, 60.8614284], [11.5471477, 60.8613729], [11.5472894, 60.8612776], [11.5474296, 60.8611726], [11.5477254, 60.860919], [11.5478224, 60.8608433], [11.5478979, 60.8607848], [11.5479796, 60.8607285], [11.5481583, 60.8606152], [11.5483354, 60.8605185], [11.5484556, 60.8604464], [11.5485911, 60.8603699], [11.5486851, 60.8603062], [11.5488392, 60.8601981], [11.5489563, 60.8601074], [11.5495678, 60.8595793], [11.5496957, 60.8594637], [11.5499314, 60.8592529], [11.5502441, 60.8589799], [11.551365, 60.8579932], [11.5524536, 60.8570254], [11.5585078, 60.851769], [11.558625, 60.8516642], [11.558792, 60.8515029], [11.5588817, 60.8514069], [11.5590176, 60.8512465], [11.5592936, 60.8509092], [11.5595581, 60.8505983], [11.5596275, 60.8505152], [11.5596751, 60.8504636], [11.5597274, 60.8504068], [11.5598834, 60.8502632]]}, "properties": {"electrified": "no", "gauge": "1435", "maxspeed": "40", "name": "Vestmo t\u00f8mmerterminal", "railway": "rail", "service": "spur", "usage": "industrial", "length_km": 1.45, "maxspeed_kmh": 40.0}}, {"type": "Feature", "geometry": {"type": "LineString", "coordinates": [[11.550627, 60.8583058], [11.5507387, 60.8582173], [11.5508674, 60.8581265], [11.5511208, 60.8579574], [11.5513963, 60.8577681], [11.5517489, 60.8575344], [11.552119, 60.8572808], [11.5522742, 60.8571723], [11.5524536, 60.8570254]]}, "properties": {"electrified": "no", "gauge": "1435", "maxspeed": "40", "name": "Vestmo t\u00f8mmerterminal", "railway": "rail", "service": "crossover", "usage": "industrial", "length_km": 0.174, "maxspeed_kmh": 40.0}}]}