{"type": "FeatureCollection", "features": [{"type": "Feature", "geometry": {"type": "LineString", "coordinates": [[12.2852937, 59.9135771], [12.2844136, 59.9141391], [12.2835856, 59.9146704], [12.282913, 59.9151086], [12.2818948, 59.9157719], [12.2817468, 59.9158724], [12.2799152, 59.917033], [12.2796441, 59.9171951], [12.2796284, 59.9172044], [12.2794827, 59.9172896], [12.2787443, 59.9177277], [12.2782126, 59.9180226], [12.2777493, 59.9182638], [12.2771696, 59.9185576], [12.2763975, 59.9189159], [12.2757996, 59.9191705], [12.2752885, 59.9193759], [12.2743445, 59.9197299], [12.2736756, 59.9199696], [12.2732413, 59.9201188], [12.2728561, 59.9202383], [12.2726423, 59.9203002], [12.2724399, 59.9203611], [12.2720523, 59.9204778], [12.2712933, 59.9206928], [12.2700387, 59.9210502], [12.2694961, 59.9212022], [12.2684036, 59.9215116], [12.2667727, 59.9219742], [12.2655493, 59.9223293], [12.2645085, 59.9226478], [12.2634909, 59.9229726], [12.2626226, 59.9232685], [12.2612692, 59.9237389], [12.2605732, 59.9239968], [12.259391, 59.924456], [12.2585455, 59.9248043], [12.2580435, 59.9250167], [12.2577303, 59.9251525], [12.2570876, 59.9254346], [12.2564448, 59.9257279], [12.2554456, 59.9261971], [12.2548242, 59.9264906], [12.254113, 59.9268206], [12.2537572, 59.9269863], [12.2513046, 59.9281254], [12.2511369, 59.9282044], [12.2454634, 59.9308875], [12.2434271, 59.9318528], [12.2434221, 59.9318551]]}, "properties": {"electrified": "contact_line", "frequency": "16.67", "gauge": "1435", "maxspeed": "160", "name": "V\u00e4rmlandsbanan", "operator": "Trafikverket", "passenger_lines": "1", "railway": "rail", "usage": "main", "voltage": "15000", "length_km": 3.128, "maxspeed_kmh": 160.0}}]}